{"type":"FeatureCollection","features":[{"type":"Feature","properties":{"GEOID":"12001","BASENAME":"Alachua"},"geometry":{"type":"Polygon","coordinates":[[[-82.0561,29.6568],[-82.0503,29.7155],[-82.0555,29.7172],[-82.0545,29.7376],[-82.0581,29.7481],[-82.0731,29.7604],[-82.088,29.7607],[-82.08,29.767],[-82.0783,29.7732],[-82.0817,29.7781],[-82.1091,29.7831],[-82.1089,29.7907],[-82.1176,29.7906],[-82.1176,29.7982],[-82.1241,29.8053],[-82.1239,29.8237],[-82.1299,29.8237],[-82.1331,29.8359],[-82.1647,29.8396],[-82.1751,29.8373],[-82.1919,29.8484],[-82.2084,29.8439],[-82.2335,29.8453],[-82.2337,29.849],[-82.2425,29.8525],[-82.2654,29.8474],[-82.2726,29.843],[-82.2817,29.8444],[-82.2958,29.8524],[-82.305,29.8532],[-82.3052,29.8599],[-82.3139,29.86],[-82.3142,29.8676],[-82.3234,29.8674],[-82.335,29.8787],[-82.3582,29.8773],[-82.3628,29.8815],[-82.375,29.8794],[-82.3975,29.8861],[-82.4045,29.8957],[-82.4055,29.9114],[-82.4126,29.9222],[-82.4189,29.9231],[-82.4224,29.9199],[-82.4337,29.9295],[-82.4474,29.9319],[-82.4521,29.9257],[-82.4613,29.9316],[-82.4698,29.9257],[-82.4776,29.9349],[-82.4843,29.9367],[-82.4844,29.9397],[-82.4983,29.9388],[-82.5106,29.9452],[-82.5253,29.945],[-82.5301,29.9406],[-82.5305,29.9324],[-82.5412,29.9257],[-82.5547,29.9285],[-82.5679,29.9172],[-82.5794,29.9148],[-82.576,29.9131],[-82.5759,29.8949],[-82.58,29.8949],[-82.58,29.8876],[-82.5926,29.8875],[-82.5923,29.8732],[-82.5865,29.8667],[-82.5909,29.8663],[-82.6063,29.8529],[-82.6111,29.8521],[-82.6197,29.8591],[-82.6229,29.8533],[-82.6177,29.8473],[-82.6313,29.8491],[-82.6305,29.8431],[-82.6349,29.8389],[-82.6347,29.8336],[-82.6414,29.8274],[-82.6521,29.8256],[-82.6586,29.8301],[-82.6563,29.5356],[-82.5572,29.5375],[-82.5568,29.4801],[-82.4963,29.4784],[-82.4962,29.4855],[-82.2114,29.4841],[-82.2109,29.4799],[-82.2148,29.4773],[-82.2101,29.4738],[-82.212,29.4719],[-82.2083,29.4708],[-82.208,29.4666],[-82.2053,29.4671],[-82.2064,29.4723],[-82.2034,29.4721],[-82.2012,29.4675],[-82.1881,29.4604],[-82.1909,29.4597],[-82.1881,29.4568],[-82.1919,29.4523],[-82.1993,29.4566],[-82.1935,29.4614],[-82.2042,29.4606],[-82.2117,29.4661],[-82.2177,29.4571],[-82.2116,29.4495],[-82.2133,29.4319],[-82.1996,29.4222],[-82.1759,29.4206],[-82.1733,29.4243],[-82.1673,29.4246],[-82.1676,29.4272],[-82.1569,29.4224],[-82.1554,29.4261],[-82.1532,29.4223],[-82.151,29.4268],[-82.1486,29.4171],[-82.1403,29.4201],[-82.1453,29.4235],[-82.135,29.435],[-82.1193,29.4282],[-82.1176,29.432],[-82.1026,29.4384],[-82.0957,29.4301],[-82.0987,29.4273],[-82.0968,29.4218],[-82.0994,29.4225],[-82.0992,29.4188],[-82.0956,29.4205],[-82.0945,29.4304],[-82.0901,29.4308],[-82.0865,29.4267],[-82.0889,29.4329],[-82.0809,29.4404],[-82.0705,29.4342],[-82.0713,29.4433],[-82.0672,29.4438],[-82.063,29.4394],[-82.0556,29.4418],[-82.0561,29.6568]]]}},{"type":"Feature","properties":{"GEOID":"12007","BASENAME":"Bradford"},"geometry":{"type":"Polygon","coordinates":[[[-82.184,30.0669],[-82.2082,30.0524],[-82.226,30.034],[-82.2598,30.0283],[-82.2793,29.9886],[-82.3008,29.9676],[-82.3069,29.9565],[-82.3223,29.954],[-82.3265,29.9549],[-82.327,29.9581],[-82.3421,29.9614],[-82.347,29.9426],[-82.358,29.9336],[-82.3711,29.9353],[-82.3904,29.9256],[-82.4091,29.9271],[-82.4187,29.9231],[-82.4126,29.9222],[-82.4066,29.9141],[-82.4046,29.8961],[-82.3975,29.8861],[-82.375,29.8794],[-82.3628,29.8815],[-82.3582,29.8773],[-82.335,29.8787],[-82.3234,29.8674],[-82.3142,29.8676],[-82.3139,29.86],[-82.3052,29.8599],[-82.305,29.8532],[-82.2958,29.8524],[-82.2818,29.8444],[-82.2726,29.843],[-82.2654,29.8474],[-82.2425,29.8525],[-82.2337,29.849],[-82.2335,29.8453],[-82.2084,29.8439],[-82.1919,29.8484],[-82.1751,29.8373],[-82.1647,29.8396],[-82.1331,29.8359],[-82.1299,29.8237],[-82.1239,29.8237],[-82.1241,29.8053],[-82.1176,29.7982],[-82.1176,29.7906],[-82.1089,29.7907],[-82.1091,29.7831],[-82.0934,29.7818],[-82.0935,29.7792],[-82.0793,29.776],[-82.0807,29.7657],[-82.088,29.7607],[-82.0731,29.7604],[-82.0581,29.7481],[-82.0545,29.7376],[-82.0556,29.7182],[-82.0492,29.7187],[-82.0461,29.7471],[-82.0494,30.1431],[-82.1426,30.1431],[-82.1458,30.1322],[-82.1407,30.1328],[-82.1379,30.1281],[-82.1424,30.1163],[-82.1473,30.11],[-82.1699,30.0992],[-82.1777,30.0748],[-82.184,30.0669]]]}},{"type":"Feature","properties":{"GEOID":"12019","BASENAME":"Clay"},"geometry":{"type":"Polygon","coordinates":[[[-81.8124,29.8365],[-81.5812,29.8402],[-81.599,29.8754],[-81.6076,29.9057],[-81.608,29.9176],[-81.5987,29.941],[-81.6049,29.9635],[-81.6247,29.9815],[-81.6782,30.0122],[-81.6889,30.0286],[-81.6896,30.0609],[-81.6806,30.0827],[-81.68,30.1191],[-81.6921,30.1447],[-81.6905,30.1719],[-81.6817,30.1814],[-81.6796,30.1905],[-81.7026,30.1915],[-81.7035,30.189],[-81.7335,30.1935],[-81.7389,30.1893],[-82.0494,30.1869],[-82.0461,29.7471],[-82.0492,29.7187],[-82.0289,29.7187],[-82.0071,29.7395],[-81.9945,29.7431],[-81.9762,29.7471],[-81.9394,29.7475],[-81.9291,29.7594],[-81.9235,29.7809],[-81.9142,29.7914],[-81.8904,29.7983],[-81.862,29.8002],[-81.8219,29.8263],[-81.8124,29.8365]]]}},{"type":"Feature","properties":{"GEOID":"12023","BASENAME":"Columbia"},"geometry":{"type":"Polygon","coordinates":[[[-82.7286,30.5257],[-82.7236,30.5174],[-82.7184,30.521],[-82.7158,30.5059],[-82.7062,30.5045],[-82.7084,30.4984],[-82.7062,30.4925],[-82.6968,30.4896],[-82.6968,30.4845],[-82.7024,30.4835],[-82.6996,30.4797],[-82.7016,30.4774],[-82.6888,30.4721],[-82.6774,30.472],[-82.6755,30.4653],[-82.6808,30.4646],[-82.6802,30.461],[-82.6712,30.4533],[-82.6633,30.4521],[-82.6623,30.4488],[-82.6663,30.4513],[-82.6683,30.4469],[-82.6729,30.4481],[-82.662,30.439],[-82.6591,30.4408],[-82.6525,30.4289],[-82.6538,30.4218],[-82.6492,30.4182],[-82.6515,30.4156],[-82.6499,30.41],[-82.6455,30.4068],[-82.6473,30.3946],[-82.658,30.3913],[-82.6592,30.3827],[-82.6654,30.3792],[-82.6624,30.37],[-82.6747,30.3645],[-82.6869,30.3537],[-82.6815,30.3428],[-82.6899,30.3331],[-82.7031,30.3326],[-82.717,30.3211],[-82.7248,30.3283],[-82.7225,30.3323],[-82.7246,30.3338],[-82.7366,30.3284],[-82.7454,30.3174],[-82.7608,30.3243],[-82.7596,30.3282],[-82.7632,30.3309],[-82.7774,30.3233],[-82.7884,30.324],[-82.789,30.3278],[-82.793,30.3269],[-82.7921,30.3359],[-82.7946,30.337],[-82.794,29.9862],[-82.7604,29.9862],[-82.7586,29.9757],[-82.762,29.9646],[-82.7858,29.9549],[-82.7915,29.9421],[-82.8005,29.9321],[-82.7942,29.9314],[-82.7911,29.9355],[-82.7893,29.9326],[-82.7841,29.9329],[-82.7805,29.9258],[-82.7699,29.9278],[-82.7743,29.9124],[-82.7711,29.9085],[-82.765,29.9078],[-82.7693,29.8977],[-82.759,29.8989],[-82.7536,29.8935],[-82.7529,29.8802],[-82.7449,29.8694],[-82.7374,29.8651],[-82.7329,29.8565],[-82.7092,29.8474],[-82.7042,29.8383],[-82.6945,29.8344],[-82.6568,29.83],[-82.6515,29.8256],[-82.6414,29.8274],[-82.6352,29.8329],[-82.6349,29.8389],[-82.6305,29.8431],[-82.6313,29.8491],[-82.6177,29.8473],[-82.6229,29.8533],[-82.6197,29.8591],[-82.6111,29.8521],[-82.6063,29.8529],[-82.5909,29.8663],[-82.5865,29.8667],[-82.5923,29.8732],[-82.5926,29.8875],[-82.58,29.8876],[-82.58,29.8949],[-82.5759,29.8949],[-82.576,29.9131],[-82.5785,29.9156],[-82.5679,29.9172],[-82.5547,29.9285],[-82.5416,29.9255],[-82.5294,29.9343],[-82.53,29.9517],[-82.5333,29.9584],[-82.5408,29.963],[-82.5548,29.9636],[-82.5567,29.9688],[-82.5694,29.9752],[-82.5761,29.9912],[-82.5718,30.0006],[-82.573,30.0108],[-82.5364,30.0254],[-82.5343,30.0309],[-82.5398,30.0359],[-82.5357,30.0545],[-82.5164,30.0783],[-82.499,30.0888],[-82.4672,30.0973],[-82.456,30.1056],[-82.4525,30.1239],[-82.4583,30.129],[-82.4586,30.1439],[-82.4571,30.4428],[-82.4598,30.5843],[-82.6964,30.5963],[-82.6961,30.5916],[-82.7067,30.5843],[-82.7035,30.5816],[-82.7062,30.5747],[-82.717,30.5696],[-82.718,30.5672],[-82.7149,30.5676],[-82.7185,30.5632],[-82.7247,30.5643],[-82.7228,30.5608],[-82.7268,30.5578],[-82.7209,30.554],[-82.7225,30.5479],[-82.7166,30.5414],[-82.7143,30.5322],[-82.7269,30.531],[-82.7286,30.5257]]]}},{"type":"Feature","properties":{"GEOID":"12029","BASENAME":"Dixie"},"geometry":{"type":"MultiPolygon","coordinates":[[[[-82.9373,29.5912],[-82.9418,29.5932],[-82.9488,29.5854],[-82.9555,29.5861],[-82.9624,29.6019],[-82.9722,29.609],[-82.9677,29.6165],[-82.9731,29.6243],[-82.9563,29.6396],[-82.9576,29.6553],[-82.9518,29.6598],[-82.9592,29.6705],[-82.9544,29.6767],[-82.9594,29.6843],[-82.9574,29.7005],[-82.9521,29.704],[-82.9453,29.6999],[-82.937,29.7032],[-82.9433,29.7049],[-82.9475,29.7122],[-82.9566,29.7187],[-82.9538,29.7224],[-82.9464,29.715],[-82.9435,29.7164],[-82.9433,29.7218],[-82.9499,29.7256],[-82.9389,29.7437],[-82.9387,29.7497],[-82.9413,29.754],[-82.9492,29.7537],[-82.9497,29.7579],[-82.9368,29.7847],[-82.92,29.7952],[-82.9216,29.7985],[-82.9334,29.8015],[-82.9356,29.8081],[-82.93,29.8185],[-82.9206,29.8241],[-83.3189,29.8226],[-83.3195,29.7783],[-83.3266,29.7736],[-83.326,29.7695],[-83.3314,29.7621],[-83.3369,29.7604],[-83.3457,29.7435],[-83.3433,29.7371],[-83.3476,29.7339],[-83.3449,29.7268],[-83.3514,29.7067],[-83.3507,29.6953],[-83.3652,29.6763],[-83.363,29.6685],[-83.3734,29.666],[-83.3996,29.674],[-83.4154,29.6655],[-83.5754,29.527],[-83.5703,29.4818],[-83.5645,29.4593],[-83.5543,29.4368],[-83.5242,29.3994],[-83.4892,29.3746],[-83.4357,29.3497],[-83.4025,29.3169],[-83.3572,29.2917],[-83.3462,29.2419],[-83.1648,29.2892],[-83.1581,29.3022],[-83.148,29.3078],[-83.142,29.3226],[-83.1129,29.3181],[-83.1119,29.3247],[-83.1045,29.3254],[-83.0988,29.3369],[-83.0904,29.3328],[-83.0822,29.3399],[-83.0617,29.3484],[-83.0614,29.3527],[-83.0721,29.3539],[-83.0622,29.3642],[-83.0656,29.3727],[-83.0569,29.3783],[-83.0454,29.3807],[-83.0339,29.3906],[-83.033,29.3979],[-83.0232,29.3986],[-83.0259,29.4057],[-83.0218,29.4131],[-83.0269,29.4189],[-83.018,29.4186],[-83.0158,29.4214],[-83.0212,29.4312],[-83.0128,29.4398],[-83.0128,29.4459],[-83.002,29.4565],[-83.0005,29.4626],[-82.9899,29.4633],[-82.9845,29.4699],[-82.9868,29.4765],[-82.9819,29.4854],[-82.9843,29.4963],[-82.9829,29.5154],[-82.9795,29.5184],[-82.9727,29.5173],[-82.9694,29.5223],[-82.9786,29.5319],[-82.9773,29.5399],[-82.9594,29.5532],[-82.9479,29.5575],[-82.9445,29.5823],[-82.9377,29.5872],[-82.9373,29.5912]]],[[[-82.9187,29.8241],[-82.9123,29.8208],[-82.904,29.8243],[-82.9187,29.8241]]]]}},{"type":"Feature","properties":{"GEOID":"12041","BASENAME":"Gilchrist"},"geometry":{"type":"Polygon","coordinates":[[[-82.9594,29.6851],[-82.9543,29.6776],[-82.9591,29.67],[-82.9518,29.6598],[-82.9576,29.6553],[-82.9563,29.6396],[-82.9728,29.6252],[-82.9677,29.6165],[-82.9724,29.6098],[-82.9624,29.6019],[-82.9579,29.5889],[-82.9522,29.5845],[-82.9418,29.5932],[-82.9275,29.5908],[-82.8566,29.5913],[-82.8565,29.5842],[-82.7729,29.5849],[-82.773,29.5776],[-82.7569,29.5777],[-82.7565,29.5625],[-82.6563,29.5648],[-82.6586,29.8301],[-82.6945,29.8344],[-82.7042,29.8383],[-82.7092,29.8474],[-82.7329,29.8565],[-82.7374,29.8651],[-82.7449,29.8694],[-82.7529,29.8802],[-82.7536,29.8935],[-82.759,29.8989],[-82.7693,29.8977],[-82.765,29.9078],[-82.7743,29.9117],[-82.7704,29.9281],[-82.7805,29.9258],[-82.7841,29.9329],[-82.7893,29.9326],[-82.7911,29.9355],[-82.7942,29.9314],[-82.8085,29.9331],[-82.8233,29.9231],[-82.8315,29.9128],[-82.8394,29.9146],[-82.8419,29.9119],[-82.8516,29.9139],[-82.8626,29.9114],[-82.8676,29.9028],[-82.8668,29.8988],[-82.8717,29.8985],[-82.8745,29.8907],[-82.8793,29.8882],[-82.8753,29.8807],[-82.8756,29.8665],[-82.8884,29.8501],[-82.8929,29.8275],[-82.9108,29.8208],[-82.9238,29.8234],[-82.9354,29.8095],[-82.9334,29.8015],[-82.9197,29.7962],[-82.9368,29.7847],[-82.9412,29.7728],[-82.9476,29.7661],[-82.9497,29.7544],[-82.9404,29.7536],[-82.9384,29.7476],[-82.9499,29.7256],[-82.9433,29.7218],[-82.9438,29.7157],[-82.9464,29.715],[-82.9538,29.7224],[-82.9566,29.7187],[-82.9475,29.7122],[-82.9433,29.7049],[-82.937,29.7032],[-82.9453,29.6999],[-82.9514,29.7039],[-82.9557,29.7025],[-82.9594,29.6851]]]}},{"type":"Feature","properties":{"GEOID":"12047","BASENAME":"Hamilton"},"geometry":{"type":"Polygon","coordinates":[[[-83.3095,30.634],[-83.3022,30.6308],[-83.2948,30.6323],[-83.2933,30.629],[-83.275,30.6285],[-83.2686,30.6215],[-83.2671,30.6086],[-83.2564,30.5866],[-83.2626,30.5826],[-83.2596,30.5741],[-83.262,30.5691],[-83.2558,30.5605],[-83.2609,30.553],[-83.2472,30.5408],[-83.2458,30.535],[-83.2497,30.5324],[-83.245,30.5308],[-83.2389,30.518],[-83.2461,30.5126],[-83.2406,30.5059],[-83.2428,30.502],[-83.2406,30.4936],[-83.245,30.4921],[-83.2418,30.4779],[-83.2438,30.4731],[-83.2177,30.4641],[-83.2177,30.4555],[-83.223,30.4513],[-83.2173,30.4478],[-83.2223,30.4363],[-83.2185,30.4267],[-83.2222,30.4235],[-83.2161,30.418],[-83.2096,30.4211],[-83.2062,30.4121],[-83.1949,30.417],[-83.1803,30.4105],[-83.1745,30.3977],[-83.1783,30.3926],[-83.1731,30.391],[-83.171,30.3852],[-83.169,30.391],[-83.1644,30.3928],[-83.1654,30.3986],[-83.1584,30.4005],[-83.1554,30.4088],[-83.1596,30.4106],[-83.1552,30.4172],[-83.148,30.4175],[-83.1416,30.4227],[-83.1352,30.4186],[-83.1221,30.4326],[-83.0841,30.4381],[-83.0821,30.4429],[-83.0759,30.4257],[-83.0706,30.4245],[-83.0679,30.4288],[-83.0595,30.4275],[-83.0606,30.4301],[-83.0519,30.4279],[-83.0346,30.4309],[-83.0079,30.4225],[-83.0022,30.4289],[-83.0032,30.4318],[-82.9849,30.4255],[-82.9829,30.419],[-82.9724,30.419],[-82.9562,30.4137],[-82.9553,30.41],[-82.9468,30.4061],[-82.9488,30.401],[-82.9388,30.3999],[-82.9307,30.3896],[-82.9279,30.3911],[-82.9086,30.3801],[-82.9076,30.3844],[-82.9027,30.3842],[-82.9059,30.3881],[-82.889,30.3862],[-82.8935,30.3741],[-82.8851,30.3653],[-82.8721,30.3664],[-82.8658,30.358],[-82.8571,30.3583],[-82.8545,30.3528],[-82.8522,30.3571],[-82.8526,30.349],[-82.8443,30.3409],[-82.8361,30.3424],[-82.8321,30.3468],[-82.8272,30.3458],[-82.8261,30.342],[-82.812,30.3404],[-82.8106,30.337],[-82.8039,30.3454],[-82.7921,30.3359],[-82.7931,30.3271],[-82.789,30.3278],[-82.7885,30.324],[-82.7774,30.3233],[-82.7632,30.3309],[-82.7596,30.3282],[-82.7608,30.3243],[-82.7454,30.3174],[-82.7366,30.3284],[-82.7246,30.3338],[-82.7225,30.3323],[-82.7248,30.3283],[-82.717,30.3211],[-82.7031,30.3326],[-82.6897,30.3333],[-82.6815,30.3428],[-82.6868,30.3538],[-82.6747,30.3645],[-82.6625,30.3699],[-82.6656,30.3785],[-82.6592,30.3827],[-82.6583,30.391],[-82.6499,30.3919],[-82.647,30.3951],[-82.6455,30.4072],[-82.6498,30.4098],[-82.6515,30.4156],[-82.6492,30.4182],[-82.6539,30.422],[-82.6526,30.4291],[-82.6592,30.4409],[-82.662,30.439],[-82.6729,30.4481],[-82.6685,30.4468],[-82.667,30.4511],[-82.6626,30.4487],[-82.6625,30.451],[-82.6713,30.4534],[-82.6802,30.461],[-82.6808,30.4646],[-82.6755,30.4653],[-82.6774,30.472],[-82.6888,30.4721],[-82.7016,30.4774],[-82.6996,30.4797],[-82.7024,30.4835],[-82.6968,30.4845],[-82.6968,30.4896],[-82.7062,30.4925],[-82.7084,30.4984],[-82.7062,30.5045],[-82.7158,30.5059],[-82.7184,30.521],[-82.7236,30.5174],[-82.7286,30.5257],[-82.7269,30.531],[-82.7143,30.5322],[-82.7166,30.5414],[-82.7225,30.5479],[-82.7209,30.554],[-82.7268,30.5578],[-82.7228,30.5608],[-82.7247,30.5643],[-82.7168,30.5645],[-82.7149,30.5681],[-82.7175,30.5667],[-82.717,30.5696],[-82.7051,30.5762],[-82.7035,30.5816],[-82.7067,30.5843],[-82.6961,30.5916],[-82.6964,30.5962],[-82.6919,30.5946],[-82.6895,30.5977],[-83.3095,30.634]]]}},{"type":"Feature","properties":{"GEOID":"12067","BASENAME":"Lafayette"},"geometry":{"type":"Polygon","coordinates":[[[-83.3673,30.2604],[-83.3709,29.8879],[-83.353,29.8879],[-83.3529,29.8222],[-82.9187,29.8241],[-82.8929,29.8275],[-82.8884,29.8501],[-82.8756,29.8665],[-82.876,29.8844],[-82.8792,29.8872],[-82.8842,29.8823],[-82.8901,29.8849],[-82.8931,29.8896],[-82.8859,29.888],[-82.8852,29.8916],[-82.8979,29.9014],[-82.9076,29.8981],[-82.909,29.8895],[-82.9155,29.8918],[-82.9185,29.8982],[-82.9121,29.9048],[-82.919,29.9083],[-82.9186,29.9151],[-82.9259,29.9213],[-82.9205,29.9301],[-82.9262,29.9499],[-82.9318,29.9578],[-82.9524,29.9594],[-82.9604,29.9752],[-82.9638,29.9945],[-82.9741,29.9966],[-82.9794,30.0074],[-82.9946,30.006],[-83.0013,30.0088],[-83.0133,30.0321],[-83.0269,30.0434],[-83.0347,30.0458],[-83.0415,30.0546],[-83.0677,30.0663],[-83.0696,30.0813],[-83.0874,30.0829],[-83.0998,30.0913],[-83.1119,30.0912],[-83.1165,30.1041],[-83.1221,30.1049],[-83.1336,30.0969],[-83.1406,30.1035],[-83.15,30.1041],[-83.1625,30.11],[-83.1677,30.1008],[-83.1793,30.0994],[-83.1844,30.0941],[-83.1953,30.1046],[-83.2136,30.1033],[-83.2257,30.1133],[-83.2251,30.138],[-83.2387,30.1528],[-83.2322,30.1607],[-83.2316,30.1668],[-83.2471,30.1797],[-83.25,30.1905],[-83.2501,30.2006],[-83.2397,30.2267],[-83.2527,30.2357],[-83.251,30.2431],[-83.2425,30.2482],[-83.2505,30.2475],[-83.2529,30.2506],[-83.2517,30.2587],[-83.2473,30.2607],[-83.3673,30.2604]]]}},{"type":"Feature","properties":{"GEOID":"12075","BASENAME":"Levy"},"geometry":{"type":"Polygon","coordinates":[[[-82.7729,29.5849],[-82.8565,29.5842],[-82.8566,29.5913],[-82.9373,29.5912],[-82.9377,29.5872],[-82.9445,29.5823],[-82.9479,29.5575],[-82.9594,29.5532],[-82.9773,29.5399],[-82.9786,29.5319],[-82.9694,29.5223],[-82.9727,29.5173],[-82.9795,29.5184],[-82.9829,29.5154],[-82.9843,29.4963],[-82.9819,29.4854],[-82.9868,29.4765],[-82.9845,29.4699],[-82.9899,29.4633],[-83.0005,29.4626],[-83.002,29.4565],[-83.0128,29.4459],[-83.0128,29.4398],[-83.0212,29.4312],[-83.0158,29.4214],[-83.018,29.4186],[-83.0269,29.4189],[-83.0218,29.4131],[-83.0259,29.4057],[-83.0232,29.3986],[-83.033,29.3979],[-83.0339,29.3906],[-83.0454,29.3807],[-83.0569,29.3783],[-83.0656,29.3727],[-83.0622,29.3642],[-83.0721,29.3539],[-83.0614,29.3527],[-83.0617,29.3484],[-83.0822,29.3399],[-83.0904,29.3328],[-83.0988,29.3369],[-83.1045,29.3254],[-83.1119,29.3247],[-83.1129,29.3181],[-83.142,29.3226],[-83.148,29.3078],[-83.1581,29.3022],[-83.1648,29.2892],[-83.3462,29.2419],[-83.3331,29.2159],[-83.3152,29.1931],[-83.292,29.1729],[-83.2621,29.1557],[-83.2639,29.1145],[-83.2537,29.0765],[-83.2206,29.0195],[-83.1879,28.9866],[-82.7616,28.9921],[-82.7548,28.9975],[-82.7554,29.0019],[-82.7423,29.008],[-82.741,29.0121],[-82.7277,29.0151],[-82.7166,29.0282],[-82.6898,29.034],[-82.6771,29.0306],[-82.6752,29.0261],[-82.6405,29.0215],[-82.6282,29.0136],[-82.6075,29.0104],[-82.6013,29.0146],[-82.6017,29.0213],[-82.596,29.0296],[-82.577,29.0281],[-82.5641,29.0358],[-82.556,29.0339],[-82.5458,29.0418],[-82.5356,29.0449],[-82.5349,29.2147],[-82.4032,29.2156],[-82.4066,29.485],[-82.4962,29.4855],[-82.4963,29.4784],[-82.5568,29.4801],[-82.5572,29.5375],[-82.6563,29.5356],[-82.6563,29.5648],[-82.7565,29.5625],[-82.7569,29.5777],[-82.773,29.5776],[-82.7729,29.5849]]]}},{"type":"Feature","properties":{"GEOID":"12079","BASENAME":"Madison"},"geometry":{"type":"Polygon","coordinates":[[[-83.8219,30.3075],[-83.8181,30.3043],[-83.8202,30.3035],[-83.4688,30.3042],[-83.4693,30.2604],[-83.2394,30.2604],[-83.2368,30.2621],[-83.24,30.2682],[-83.2317,30.2838],[-83.233,30.292],[-83.2258,30.3013],[-83.2125,30.3073],[-83.2099,30.3119],[-83.2144,30.3198],[-83.2079,30.3311],[-83.2126,30.3459],[-83.2087,30.3505],[-83.1983,30.3483],[-83.1902,30.3519],[-83.1936,30.3576],[-83.1929,30.374],[-83.1779,30.3841],[-83.171,30.3852],[-83.1731,30.391],[-83.1783,30.3926],[-83.1745,30.3977],[-83.1803,30.4105],[-83.1949,30.417],[-83.2062,30.4121],[-83.2096,30.4211],[-83.2161,30.418],[-83.2222,30.4235],[-83.2185,30.4267],[-83.2223,30.4363],[-83.2173,30.4478],[-83.223,30.4513],[-83.2177,30.4555],[-83.2177,30.4641],[-83.2438,30.4731],[-83.2418,30.4779],[-83.245,30.4921],[-83.2406,30.4936],[-83.2428,30.502],[-83.2406,30.5059],[-83.2461,30.5126],[-83.2389,30.518],[-83.245,30.5308],[-83.2497,30.5324],[-83.2458,30.535],[-83.2472,30.5408],[-83.2609,30.553],[-83.2558,30.5605],[-83.262,30.5691],[-83.2596,30.5741],[-83.2626,30.5826],[-83.2565,30.5869],[-83.2726,30.6277],[-83.2933,30.629],[-83.2948,30.6323],[-83.3022,30.6308],[-83.3133,30.6347],[-83.6117,30.6513],[-83.6121,30.6387],[-83.6044,30.6382],[-83.6042,30.5819],[-83.6207,30.582],[-83.6212,30.5674],[-83.6373,30.5675],[-83.6374,30.5527],[-83.6711,30.5529],[-83.6711,30.538],[-83.7043,30.5381],[-83.7044,30.523],[-83.726,30.5231],[-83.7296,30.5193],[-83.7369,30.5081],[-83.7365,30.5023],[-83.7269,30.488],[-83.729,30.4728],[-83.7236,30.4617],[-83.7283,30.4545],[-83.7217,30.4344],[-83.7396,30.4219],[-83.7507,30.4087],[-83.7577,30.3852],[-83.7798,30.3821],[-83.7832,30.3789],[-83.7883,30.3818],[-83.7875,30.3888],[-83.7903,30.3903],[-83.7957,30.3821],[-83.8045,30.3771],[-83.8081,30.3649],[-83.8041,30.3531],[-83.8076,30.3488],[-83.7994,30.3471],[-83.7936,30.3355],[-83.7871,30.3317],[-83.7876,30.3285],[-83.7925,30.3192],[-83.8013,30.3153],[-83.8155,30.3173],[-83.8219,30.3075]]]}},{"type":"Feature","properties":{"GEOID":"12083","BASENAME":"Marion"},"geometry":{"type":"Polygon","coordinates":[[[-82.4066,29.485],[-82.4032,29.2156],[-82.5349,29.2147],[-82.5351,29.0409],[-82.5304,29.0436],[-82.5209,29.0397],[-82.5164,29.0442],[-82.5116,29.0432],[-82.5081,29.0375],[-82.4874,29.048],[-82.4881,29.0514],[-82.4819,29.0525],[-82.4729,29.0512],[-82.4714,29.0472],[-82.4671,29.048],[-82.4638,29.0447],[-82.4586,29.0476],[-82.4537,29.0398],[-82.4418,29.0355],[-82.4352,29.0296],[-82.4364,29.0272],[-82.4323,29.0277],[-82.4295,29.0212],[-82.4197,29.018],[-82.4187,29.0131],[-82.4016,29.019],[-82.4018,29.0158],[-82.395,29.0145],[-82.3976,29.0115],[-82.3935,29.008],[-82.3869,29.0093],[-82.3781,29.0048],[-82.3775,29.0007],[-82.3648,29.0024],[-82.3614,28.9935],[-82.3416,28.9879],[-82.3211,28.9735],[-82.3158,28.9733],[-82.3117,28.9604],[-81.6587,28.9603],[-81.6592,29.0478],[-81.6387,29.0478],[-81.6419,29.2768],[-81.6553,29.2997],[-81.6664,29.3006],[-81.6733,29.3066],[-81.6809,29.3264],[-81.674,29.3393],[-81.6643,29.3415],[-81.6567,29.3375],[-81.6607,29.3433],[-81.6577,29.348],[-81.6685,29.3717],[-81.7414,29.371],[-81.7418,29.4299],[-81.7749,29.4292],[-81.7762,29.4874],[-81.8428,29.4865],[-81.8449,29.5217],[-81.8612,29.5149],[-81.8844,29.5132],[-81.8876,29.5092],[-81.9017,29.516],[-81.9041,29.5128],[-81.9067,29.5142],[-81.907,29.5093],[-81.9121,29.5039],[-81.9194,29.5116],[-81.9318,29.5164],[-81.964,29.5038],[-82.0041,29.5018],[-82.032,29.4923],[-82.0433,29.4787],[-82.0559,29.4712],[-82.0567,29.44],[-82.0713,29.4433],[-82.0705,29.4342],[-82.0809,29.4404],[-82.0889,29.4329],[-82.0865,29.4267],[-82.0901,29.4308],[-82.0945,29.4304],[-82.0956,29.4205],[-82.0999,29.4187],[-82.0957,29.4301],[-82.1011,29.4383],[-82.1173,29.4322],[-82.1193,29.4282],[-82.1348,29.435],[-82.1453,29.4235],[-82.1403,29.4201],[-82.1486,29.4171],[-82.151,29.4268],[-82.1532,29.4223],[-82.1554,29.4261],[-82.1569,29.4224],[-82.1676,29.4272],[-82.1673,29.4246],[-82.1733,29.4243],[-82.1759,29.4206],[-82.1934,29.4209],[-82.2117,29.4298],[-82.2138,29.4369],[-82.2116,29.4495],[-82.2178,29.4562],[-82.2127,29.4656],[-82.2042,29.4606],[-82.1935,29.4614],[-82.1993,29.4566],[-82.1919,29.4523],[-82.1881,29.4568],[-82.1909,29.4597],[-82.1881,29.4604],[-82.2012,29.4675],[-82.2034,29.4721],[-82.2064,29.4723],[-82.2053,29.4671],[-82.208,29.4666],[-82.2083,29.4708],[-82.212,29.4719],[-82.2101,29.4738],[-82.2148,29.4773],[-82.2109,29.4799],[-82.2114,29.4841],[-82.4066,29.485]]]}},{"type":"Feature","properties":{"GEOID":"12107","BASENAME":"Putnam"},"geometry":{"type":"Polygon","coordinates":[[[-81.5417,29.771],[-81.5463,29.7818],[-81.5645,29.7991],[-81.5812,29.8402],[-81.8124,29.8365],[-81.8219,29.8263],[-81.862,29.8002],[-81.8904,29.7983],[-81.9142,29.7914],[-81.9235,29.7809],[-81.9291,29.7594],[-81.9394,29.7475],[-81.9762,29.7471],[-81.9911,29.744],[-82.0071,29.7395],[-82.0289,29.7187],[-82.0556,29.7182],[-82.0491,29.7134],[-82.0561,29.6568],[-82.0559,29.4712],[-82.0433,29.4787],[-82.032,29.4923],[-82.0044,29.5017],[-81.964,29.5038],[-81.9313,29.5165],[-81.9194,29.5116],[-81.9121,29.5039],[-81.907,29.5093],[-81.9067,29.5142],[-81.9041,29.5128],[-81.9017,29.516],[-81.8876,29.5092],[-81.8844,29.5132],[-81.8612,29.5149],[-81.8507,29.5181],[-81.8496,29.5213],[-81.843,29.521],[-81.8428,29.4865],[-81.7762,29.4874],[-81.7749,29.4292],[-81.7418,29.4299],[-81.7414,29.371],[-81.6685,29.3717],[-81.6611,29.3601],[-81.6619,29.3548],[-81.6577,29.348],[-81.6607,29.3433],[-81.6563,29.338],[-81.6643,29.3415],[-81.6754,29.3386],[-81.6809,29.3244],[-81.4457,29.3801],[-81.4336,29.3982],[-81.455,29.3897],[-81.4775,29.3972],[-81.4809,29.4165],[-81.486,29.4242],[-81.4876,29.4483],[-81.5205,29.4965],[-81.5252,29.7595],[-81.5417,29.771]]]}},{"type":"Feature","properties":{"GEOID":"12121","BASENAME":"Suwannee"},"geometry":{"type":"Polygon","coordinates":[[[-82.794,29.9862],[-82.7946,30.337],[-82.7996,30.3442],[-82.8067,30.3443],[-82.8106,30.337],[-82.812,30.3404],[-82.8261,30.342],[-82.8272,30.3458],[-82.8321,30.3468],[-82.8361,30.3424],[-82.8443,30.3409],[-82.8526,30.349],[-82.8522,30.3571],[-82.8545,30.3528],[-82.8571,30.3583],[-82.8658,30.358],[-82.8721,30.3664],[-82.8851,30.3653],[-82.8935,30.3741],[-82.889,30.3862],[-82.9059,30.3881],[-82.9027,30.3842],[-82.9076,30.3844],[-82.9086,30.3801],[-82.9279,30.3911],[-82.9307,30.3896],[-82.9388,30.3999],[-82.9488,30.401],[-82.9468,30.4061],[-82.9553,30.41],[-82.956,30.4135],[-82.9724,30.419],[-82.9829,30.419],[-82.9849,30.4255],[-82.9978,30.4307],[-83.0046,30.4318],[-83.0021,30.4291],[-83.0079,30.4225],[-83.0346,30.4309],[-83.0519,30.4279],[-83.0606,30.4301],[-83.0595,30.4275],[-83.0679,30.4288],[-83.0706,30.4245],[-83.0759,30.4257],[-83.0824,30.4429],[-83.0841,30.4381],[-83.1221,30.4326],[-83.1352,30.4186],[-83.1416,30.4227],[-83.148,30.4175],[-83.1552,30.4172],[-83.1596,30.4106],[-83.1554,30.4088],[-83.1584,30.4005],[-83.1654,30.3986],[-83.1644,30.3928],[-83.169,30.391],[-83.1696,30.3862],[-83.1929,30.374],[-83.1936,30.3576],[-83.1902,30.3519],[-83.1983,30.3483],[-83.2087,30.3505],[-83.2126,30.3459],[-83.2079,30.3311],[-83.2144,30.3198],[-83.2099,30.3119],[-83.2125,30.3073],[-83.2258,30.3013],[-83.233,30.292],[-83.2317,30.2838],[-83.2403,30.267],[-83.237,30.2616],[-83.2506,30.2596],[-83.2531,30.2551],[-83.2508,30.2476],[-83.2425,30.2482],[-83.251,30.2431],[-83.252,30.2341],[-83.2397,30.2267],[-83.2501,30.2006],[-83.2494,30.1865],[-83.2449,30.177],[-83.2316,30.1668],[-83.2322,30.1607],[-83.2387,30.1528],[-83.2251,30.138],[-83.2264,30.1146],[-83.2136,30.1033],[-83.1953,30.1046],[-83.1844,30.0941],[-83.1793,30.0994],[-83.1677,30.1008],[-83.1625,30.11],[-83.15,30.1041],[-83.1406,30.1035],[-83.1336,30.0969],[-83.1192,30.105],[-83.1142,30.1024],[-83.1119,30.0912],[-83.0998,30.0913],[-83.0874,30.0829],[-83.0696,30.0813],[-83.0677,30.0663],[-83.0415,30.0546],[-83.0347,30.0458],[-83.0269,30.0434],[-83.0133,30.0321],[-83.0013,30.0088],[-82.9946,30.006],[-82.9794,30.0074],[-82.9741,29.9966],[-82.9638,29.9945],[-82.9604,29.9752],[-82.9524,29.9594],[-82.9318,29.9578],[-82.9262,29.9499],[-82.9205,29.9301],[-82.9259,29.9213],[-82.9186,29.9151],[-82.919,29.9083],[-82.9121,29.9048],[-82.9185,29.8982],[-82.9155,29.8918],[-82.909,29.8895],[-82.9076,29.8981],[-82.8979,29.9014],[-82.8852,29.8916],[-82.8859,29.888],[-82.8931,29.8896],[-82.8842,29.8823],[-82.8745,29.8907],[-82.8717,29.8985],[-82.8668,29.8988],[-82.8633,29.9111],[-82.8516,29.9139],[-82.8419,29.9119],[-82.8394,29.9146],[-82.8315,29.9128],[-82.8144,29.9298],[-82.8085,29.9331],[-82.8005,29.9321],[-82.7915,29.9421],[-82.7858,29.9549],[-82.7622,29.9644],[-82.7586,29.9757],[-82.7604,29.9862],[-82.794,29.9862]]]}},{"type":"Feature","properties":{"GEOID":"12125","BASENAME":"Union"},"geometry":{"type":"Polygon","coordinates":[[[-82.274,29.9983],[-82.2726,30.0056],[-82.2661,30.0127],[-82.2656,30.0207],[-82.2596,30.0284],[-82.226,30.034],[-82.2082,30.0524],[-82.1802,30.0706],[-82.1699,30.0992],[-82.1473,30.11],[-82.1424,30.1163],[-82.1379,30.1281],[-82.1407,30.1328],[-82.1458,30.1322],[-82.1426,30.1431],[-82.3594,30.141],[-82.4584,30.1364],[-82.4583,30.129],[-82.4525,30.1239],[-82.4577,30.1028],[-82.4677,30.0971],[-82.499,30.0888],[-82.5189,30.0761],[-82.5319,30.0612],[-82.5392,30.0442],[-82.5397,30.0352],[-82.5347,30.0319],[-82.5347,30.0278],[-82.5404,30.022],[-82.5729,30.0109],[-82.5718,30.0006],[-82.5761,29.9912],[-82.5693,29.975],[-82.5567,29.9688],[-82.5553,29.964],[-82.5405,29.9629],[-82.5333,29.9584],[-82.5297,29.9409],[-82.5253,29.945],[-82.5108,29.9452],[-82.499,29.9389],[-82.4844,29.9397],[-82.4843,29.9367],[-82.4776,29.9349],[-82.4698,29.9257],[-82.4613,29.9316],[-82.4526,29.9256],[-82.4485,29.9318],[-82.4417,29.9291],[-82.4366,29.9309],[-82.4224,29.9199],[-82.4157,29.9263],[-82.3909,29.9255],[-82.3711,29.9353],[-82.358,29.9336],[-82.347,29.9426],[-82.3421,29.9614],[-82.327,29.9581],[-82.3265,29.9549],[-82.3223,29.954],[-82.3074,29.9562],[-82.274,29.9983]]]}}]}