{"type":"FeatureCollection","features":[{"type":"Feature","properties":{"name":"Horseshoe Beach","pop":165},"geometry":{"type":"Point","coordinates":[-83.2889,29.4422]}},{"type":"Feature","properties":{"name":"Raiford","pop":224},"geometry":{"type":"Point","coordinates":[-82.2408,30.0637]}},{"type":"Feature","properties":{"name":"Brooker","pop":322},"geometry":{"type":"Point","coordinates":[-82.3327,29.8876]}},{"type":"Feature","properties":{"name":"McIntosh","pop":463},"geometry":{"type":"Point","coordinates":[-82.2207,29.4494]}},{"type":"Feature","properties":{"name":"Worthington Springs","pop":378},"geometry":{"type":"Point","coordinates":[-82.4091,29.934]}},{"type":"Feature","properties":{"name":"Mayo","pop":1055},"geometry":{"type":"Point","coordinates":[-83.1769,30.0512]}},{"type":"Feature","properties":{"name":"Cedar Key","pop":687},"geometry":{"type":"Point","coordinates":[-83.0374,29.1503]}},{"type":"Feature","properties":{"name":"Keystone Heights","pop":1446},"geometry":{"type":"Point","coordinates":[-82.0356,29.7829]}},{"type":"Feature","properties":{"name":"Hampton","pop":432},"geometry":{"type":"Point","coordinates":[-82.138,29.8643]}},{"type":"Feature","properties":{"name":"Micanopy","pop":648},"geometry":{"type":"Point","coordinates":[-82.2805,29.5064]}},{"type":"Feature","properties":{"name":"Branford","pop":711},"geometry":{"type":"Point","coordinates":[-82.9243,29.9623]}},{"type":"Feature","properties":{"name":"Reddick","pop":449},"geometry":{"type":"Point","coordinates":[-82.1976,29.3687]}},{"type":"Feature","properties":{"name":"Otter Creek","pop":108},"geometry":{"type":"Point","coordinates":[-82.7751,29.3233]}},{"type":"Feature","properties":{"name":"Welaka","pop":714},"geometry":{"type":"Point","coordinates":[-81.661,29.4852]}},{"type":"Feature","properties":{"name":"Penney Farms","pop":821},"geometry":{"type":"Point","coordinates":[-81.8108,29.9807]}},{"type":"Feature","properties":{"name":"Lawtey","pop":636},"geometry":{"type":"Point","coordinates":[-82.0725,30.0484]}},{"type":"Feature","properties":{"name":"Bell","pop":518},"geometry":{"type":"Point","coordinates":[-82.862,29.7568]}},{"type":"Feature","properties":{"name":"Cross City","pop":1689},"geometry":{"type":"Point","coordinates":[-83.1248,29.6386]}},{"type":"Feature","properties":{"name":"Crescent City","pop":1654},"geometry":{"type":"Point","coordinates":[-81.5149,29.4283]}},{"type":"Feature","properties":{"name":"Waldo","pop":846},"geometry":{"type":"Point","coordinates":[-82.1669,29.792]}},{"type":"Feature","properties":{"name":"Fort White","pop":618},"geometry":{"type":"Point","coordinates":[-82.7136,29.9224]}},{"type":"Feature","properties":{"name":"Lake Butler","pop":1986},"geometry":{"type":"Point","coordinates":[-82.3426,30.0184]}},{"type":"Feature","properties":{"name":"Pomona Park","pop":784},"geometry":{"type":"Point","coordinates":[-81.5899,29.5051]}},{"type":"Feature","properties":{"name":"Trenton","pop":2015},"geometry":{"type":"Point","coordinates":[-82.8146,29.6092]}},{"type":"Feature","properties":{"name":"Inglis","pop":1476},"geometry":{"type":"Point","coordinates":[-82.661,29.033]}},{"type":"Feature","properties":{"name":"Orange Park","pop":9089},"geometry":{"type":"Point","coordinates":[-81.7047,30.1709]}},{"type":"Feature","properties":{"name":"Umatilla","pop":3685},"geometry":{"type":"Point","coordinates":[-81.6642,28.927]}},{"type":"Feature","properties":{"name":"Belleview","pop":5413},"geometry":{"type":"Point","coordinates":[-82.0571,29.0609]}},{"type":"Feature","properties":{"name":"Bronson","pop":1140},"geometry":{"type":"Point","coordinates":[-82.6385,29.4491]}},{"type":"Feature","properties":{"name":"La Crosse","pop":316},"geometry":{"type":"Point","coordinates":[-82.4026,29.8501]}},{"type":"Feature","properties":{"name":"Fanning Springs","pop":1182},"geometry":{"type":"Point","coordinates":[-82.9251,29.5882]}},{"type":"Feature","properties":{"name":"Interlachen","pop":1441},"geometry":{"type":"Point","coordinates":[-81.8943,29.6221]}},{"type":"Feature","properties":{"name":"Chiefland","pop":2316},"geometry":{"type":"Point","coordinates":[-82.8659,29.4917]}},{"type":"Feature","properties":{"name":"Archer","pop":1140},"geometry":{"type":"Point","coordinates":[-82.517,29.5458]}},{"type":"Feature","properties":{"name":"Hawthorne","pop":1478},"geometry":{"type":"Point","coordinates":[-82.0945,29.5937]}},{"type":"Feature","properties":{"name":"Starke","pop":5796},"geometry":{"type":"Point","coordinates":[-82.1129,29.9475]}},{"type":"Feature","properties":{"name":"Williston","pop":2976},"geometry":{"type":"Point","coordinates":[-82.4423,29.3939]}},{"type":"Feature","properties":{"name":"Green Cove Springs","pop":9786},"geometry":{"type":"Point","coordinates":[-81.681,29.9904]}},{"type":"Feature","properties":{"name":"Yankeetown","pop":588},"geometry":{"type":"Point","coordinates":[-82.7632,29.0319]}},{"type":"Feature","properties":{"name":"Dunnellon","pop":1928},"geometry":{"type":"Point","coordinates":[-82.4254,29.0595]}},{"type":"Feature","properties":{"name":"Lady Lake","pop":15970},"geometry":{"type":"Point","coordinates":[-81.9298,28.9244]}},{"type":"Feature","properties":{"name":"Palatka","pop":10446},"geometry":{"type":"Point","coordinates":[-81.6768,29.645]}},{"type":"Feature","properties":{"name":"Pierson","pop":1542},"geometry":{"type":"Point","coordinates":[-81.4566,29.2416]}},{"type":"Feature","properties":{"name":"Lake City","pop":12329},"geometry":{"type":"Point","coordinates":[-82.6473,30.1909]}},{"type":"Feature","properties":{"name":"High Springs","pop":6215},"geometry":{"type":"Point","coordinates":[-82.5893,29.7996]}},{"type":"Feature","properties":{"name":"Alachua","pop":10574},"geometry":{"type":"Point","coordinates":[-82.4848,29.7793]}},{"type":"Feature","properties":{"name":"Gainesville","pop":141085},"geometry":{"type":"Point","coordinates":[-82.3462,29.6789]}},{"type":"Feature","properties":{"name":"Newberry","pop":7342},"geometry":{"type":"Point","coordinates":[-82.5894,29.6321]}},{"type":"Feature","properties":{"name":"Ocala","pop":63591},"geometry":{"type":"Point","coordinates":[-82.151,29.1775]}}]}