{"type":"FeatureCollection","features":[{"type":"Feature","properties":{"tier":1,"level":"90%","name":"SR-19","wvc":3},"geometry":{"type":"Polygon","coordinates":[[[-81.7561,29.5404],[-81.7554,29.5397],[-81.7576,29.5374],[-81.7678,29.537],[-81.7679,29.5388],[-81.7589,29.539],[-81.7561,29.5404]]]}},{"type":"Feature","properties":{"tier":3,"level":"99%","name":"SE HAWTHORNE RD","wvc":8},"geometry":{"type":"Polygon","coordinates":[[[-82.0606,29.5932],[-82.0679,29.5935],[-82.0717,29.5946],[-82.071,29.5961],[-82.0677,29.5953],[-82.0613,29.595],[-82.0558,29.5957],[-82.0552,29.594],[-82.0606,29.5932]]]}},{"type":"Feature","properties":{"tier":3,"level":"99%","name":"SE HAWTHORNE RD","wvc":13},"geometry":{"type":"Polygon","coordinates":[[[-82.1572,29.6014],[-82.1573,29.5996],[-82.1589,29.6005],[-82.1598,29.5996],[-82.1631,29.5994],[-82.1678,29.5984],[-82.1683,29.5999],[-82.1648,29.6009],[-82.1612,29.6014],[-82.1572,29.6014]]]}},{"type":"Feature","properties":{"tier":1,"level":"90%","name":"W NEWBERRY RD","wvc":6},"geometry":{"type":"Polygon","coordinates":[[[-82.5926,29.6531],[-82.5932,29.6549],[-82.5924,29.655],[-82.5773,29.6553],[-82.5772,29.6535],[-82.5926,29.6531]]]}},{"type":"Feature","properties":{"tier":1,"level":"90%","name":"NE 39TH BLVD","wvc":4},"geometry":{"type":"Polygon","coordinates":[[[-82.213,29.687],[-82.2241,29.687],[-82.2249,29.6879],[-82.227,29.687],[-82.2296,29.687],[-82.2296,29.6888],[-82.213,29.6888],[-82.213,29.687]]]}},{"type":"Feature","properties":{"tier":1,"level":"90%","name":"NW 39 AVE","wvc":6},"geometry":{"type":"Polygon","coordinates":[[[-82.4805,29.6883],[-82.495,29.6883],[-82.4961,29.6893],[-82.495,29.6902],[-82.4804,29.6901],[-82.4805,29.6883]]]}},{"type":"Feature","properties":{"tier":2,"level":"95%","name":"CR-337","wvc":7},"geometry":{"type":"Polygon","coordinates":[[[-82.667,29.7249],[-82.6837,29.7248],[-82.6836,29.7266],[-82.6748,29.7267],[-82.6737,29.7258],[-82.6727,29.7267],[-82.667,29.7267],[-82.667,29.7249]]]}},{"type":"Feature","properties":{"tier":2,"level":"95%","name":"NE CR-340 HWY","wvc":7},"geometry":{"type":"Polygon","coordinates":[[[-82.9513,29.8015],[-82.957,29.8022],[-82.9565,29.804],[-82.9519,29.8033],[-82.9402,29.8035],[-82.9402,29.8017],[-82.9513,29.8015]]]}},{"type":"Feature","properties":{"tier":3,"level":"99%","name":"SW US-27","wvc":8},"geometry":{"type":"Polygon","coordinates":[[[-82.642,29.8524],[-82.6534,29.8527],[-82.6536,29.8545],[-82.643,29.8543],[-82.6413,29.8533],[-82.642,29.8524]]]}},{"type":"Feature","properties":{"tier":1,"level":"90%","name":"SW CR-138","wvc":6},"geometry":{"type":"Polygon","coordinates":[[[-82.67,29.8523],[-82.6703,29.8541],[-82.6536,29.8545],[-82.6534,29.8535],[-82.6534,29.8527],[-82.67,29.8523]]]}},{"type":"Feature","properties":{"tier":2,"level":"95%","name":"SW US-27","wvc":7},"geometry":{"type":"Polygon","coordinates":[[[-82.7554,29.9484],[-82.7719,29.95],[-82.7717,29.9517],[-82.7551,29.9502],[-82.7554,29.9484]]]}},{"type":"Feature","properties":{"tier":3,"level":"99%","name":"US-90","wvc":8},"geometry":{"type":"Polygon","coordinates":[[[-82.7413,30.1911],[-82.7466,30.1919],[-82.7462,30.1935],[-82.7414,30.1929],[-82.7299,30.1939],[-82.7298,30.1921],[-82.7413,30.1911]]]}},{"type":"Feature","properties":{"tier":1,"level":"90%","name":"US-90","wvc":6},"geometry":{"type":"Polygon","coordinates":[[[-82.78,30.2008],[-82.7855,30.2014],[-82.7865,30.2024],[-82.7876,30.2017],[-82.7966,30.2028],[-82.7963,30.2045],[-82.7797,30.2026],[-82.78,30.2008]]]}},{"type":"Feature","properties":{"tier":2,"level":"95%","name":"US-90","wvc":7},"geometry":{"type":"Polygon","coordinates":[[[-82.8361,30.2323],[-82.8509,30.237],[-82.8502,30.2387],[-82.8351,30.2338],[-82.8361,30.2323]]]}},{"type":"Feature","properties":{"tier":1,"level":"90%","name":"US-90","wvc":4},"geometry":{"type":"Polygon","coordinates":[[[-82.8638,30.241],[-82.8765,30.245],[-82.8758,30.2467],[-82.8631,30.2427],[-82.8638,30.241]]]}},{"type":"Feature","properties":{"tier":1,"level":"90%","name":"SW WILLISTON RD","wvc":6},"geometry":{"type":"Polygon","coordinates":[[[-82.408,29.4905],[-82.4098,29.4914],[-82.4079,29.4947],[-82.4076,29.4985],[-82.4064,29.4993],[-82.4075,29.5003],[-82.4075,29.5047],[-82.4055,29.5047],[-82.4057,29.4949],[-82.408,29.4905]]]}},{"type":"Feature","properties":{"tier":2,"level":"95%","name":"SR-121","wvc":7},"geometry":{"type":"Polygon","coordinates":[[[-82.4155,29.463],[-82.4159,29.4649],[-82.4158,29.4779],[-82.4154,29.4779],[-82.4138,29.4777],[-82.4138,29.4742],[-82.4149,29.4733],[-82.4138,29.4723],[-82.4136,29.4636],[-82.4155,29.463]]]}},{"type":"Feature","properties":{"tier":2,"level":"95%","name":"I-75","wvc":4},"geometry":{"type":"Polygon","coordinates":[[[-82.2949,29.4971],[-82.2961,29.4975],[-82.3008,29.5083],[-82.299,29.5089],[-82.2941,29.4982],[-82.2949,29.4971]]]}},{"type":"Feature","properties":{"tier":2,"level":"95%","name":"SW WACAHOOTA RD","wvc":7},"geometry":{"type":"Polygon","coordinates":[[[-82.3899,29.5571],[-82.392,29.5567],[-82.3938,29.5649],[-82.3921,29.5654],[-82.39,29.5578],[-82.3899,29.5571]]]}},{"type":"Feature","properties":{"tier":3,"level":"99%","name":"US-441","wvc":8},"geometry":{"type":"Polygon","coordinates":[[[-82.3397,29.5879],[-82.34,29.5938],[-82.339,29.5947],[-82.34,29.5955],[-82.3402,29.5976],[-82.3412,29.6001],[-82.3393,29.6008],[-82.338,29.597],[-82.3377,29.5883],[-82.3397,29.5879]]]}},{"type":"Feature","properties":{"tier":1,"level":"90%","name":"NW US-27/US-41/SR-45","wvc":6},"geometry":{"type":"Polygon","coordinates":[[[-82.6064,29.7513],[-82.6062,29.7367],[-82.6082,29.7368],[-82.6084,29.7512],[-82.6064,29.7513]]]}},{"type":"Feature","properties":{"tier":1,"level":"90%","name":"SE US-19","wvc":6},"geometry":{"type":"Polygon","coordinates":[[[-83.3234,29.7618],[-83.324,29.7712],[-83.3254,29.7746],[-83.3244,29.775],[-83.3232,29.7749],[-83.3218,29.7708],[-83.3214,29.762],[-83.3234,29.7618]]]}},{"type":"Feature","properties":{"tier":2,"level":"95%","name":"I-75","wvc":6},"geometry":{"type":"Polygon","coordinates":[[[-82.5356,29.8505],[-82.5393,29.8571],[-82.5408,29.8607],[-82.5388,29.8612],[-82.5338,29.8513],[-82.5356,29.8505]]]}},{"type":"Feature","properties":{"tier":3,"level":"99%","name":"SR-47","wvc":10},"geometry":{"type":"Polygon","coordinates":[[[-82.7409,29.8495],[-82.7429,29.8495],[-82.743,29.8511],[-82.742,29.852],[-82.7409,29.8521],[-82.742,29.8521],[-82.743,29.8529],[-82.7431,29.8589],[-82.7425,29.8621],[-82.7405,29.8616],[-82.741,29.8588],[-82.7409,29.8495]]]}},{"type":"Feature","properties":{"tier":3,"level":"99%","name":"SR-21","wvc":4},"geometry":{"type":"Polygon","coordinates":[[[-81.9015,29.8967],[-81.903,29.8979],[-81.9,29.9018],[-81.8986,29.9059],[-81.8966,29.9057],[-81.8982,29.901],[-81.9015,29.8967]]]}},{"type":"Feature","properties":{"tier":3,"level":"99%","name":"SR-21","wvc":5},"geometry":{"type":"Polygon","coordinates":[[[-81.8967,29.9057],[-81.8986,29.9059],[-81.8984,29.9134],[-81.8963,29.9134],[-81.8967,29.9057]]]}},{"type":"Feature","properties":{"tier":3,"level":"99%","name":"US-301","wvc":5},"geometry":{"type":"Polygon","coordinates":[[[-82.067,30.0675],[-82.0668,30.0743],[-82.0641,30.0821],[-82.0622,30.0814],[-82.0648,30.074],[-82.065,30.0676],[-82.067,30.0675]]]}},{"type":"Feature","properties":{"tier":3,"level":"99%","name":"SR-19","wvc":4},"geometry":{"type":"Polygon","coordinates":[[[-81.7419,29.5471],[-81.743,29.5485],[-81.741,29.5502],[-81.7375,29.5548],[-81.7358,29.5538],[-81.7394,29.549],[-81.7419,29.5471]]]}},{"type":"Feature","properties":{"tier":3,"level":"99%","name":"NE US-301","wvc":8},"geometry":{"type":"Polygon","coordinates":[[[-82.1608,29.8445],[-82.1591,29.8438],[-82.165,29.8357],[-82.1663,29.833],[-82.1682,29.8335],[-82.1681,29.8342],[-82.1672,29.8347],[-82.1668,29.8366],[-82.1608,29.8445]]]}},{"type":"Feature","properties":{"tier":1,"level":"90%","name":"CR-215","wvc":3},"geometry":{"type":"Polygon","coordinates":[[[-81.9749,29.9815],[-81.9752,29.9824],[-81.9695,29.9841],[-81.9643,29.9876],[-81.9629,29.9863],[-81.9686,29.9825],[-81.9749,29.9815]]]}},{"type":"Feature","properties":{"tier":1,"level":"90%","name":"US-301","wvc":3},"geometry":{"type":"Polygon","coordinates":[[[-82.0588,30.089],[-82.0606,30.0898],[-82.0563,30.0979],[-82.0544,30.0971],[-82.0588,30.089]]]}},{"type":"Feature","properties":{"tier":2,"level":"95%","name":"CR-309","wvc":5},"geometry":{"type":"Polygon","coordinates":[[[-81.6494,29.4399],[-81.6524,29.4421],[-81.6569,29.4473],[-81.6576,29.4488],[-81.6578,29.4512],[-81.6557,29.4514],[-81.6551,29.4482],[-81.6509,29.4433],[-81.6481,29.4414],[-81.6494,29.4399]]]}},{"type":"Feature","properties":{"tier":1,"level":"90%","name":"HATHAWAY AVE","wvc":6},"geometry":{"type":"Polygon","coordinates":[[[-82.6335,29.4446],[-82.6198,29.4386],[-82.6207,29.437],[-82.6337,29.4427],[-82.6346,29.4437],[-82.6335,29.4446]]]}},{"type":"Feature","properties":{"tier":2,"level":"95%","name":"US ALT-27","wvc":7},"geometry":{"type":"Polygon","coordinates":[[[-82.6708,29.4665],[-82.6815,29.4741],[-82.6836,29.4753],[-82.6829,29.4769],[-82.6802,29.4756],[-82.6695,29.468],[-82.6708,29.4665]]]}},{"type":"Feature","properties":{"tier":1,"level":"90%","name":"US-441","wvc":5},"geometry":{"type":"Polygon","coordinates":[[[-82.2914,29.5135],[-82.2973,29.5173],[-82.296,29.5186],[-82.292,29.5158],[-82.2898,29.5148],[-82.2902,29.5139],[-82.2914,29.5135]]]}},{"type":"Feature","properties":{"tier":3,"level":"99%","name":"US-441","wvc":11},"geometry":{"type":"Polygon","coordinates":[[[-82.3123,29.5381],[-82.3236,29.5461],[-82.3253,29.5475],[-82.3237,29.5486],[-82.311,29.5395],[-82.3123,29.5381]]]}},{"type":"Feature","properties":{"tier":3,"level":"99%","name":"US-19/US-27A/US-98","wvc":8},"geometry":{"type":"Polygon","coordinates":[[[-82.9164,29.575],[-82.9243,29.5878],[-82.9234,29.5883],[-82.9223,29.5883],[-82.9146,29.5759],[-82.9164,29.575]]]}},{"type":"Feature","properties":{"tier":3,"level":"99%","name":"SE US-19","wvc":10},"geometry":{"type":"Polygon","coordinates":[[[-82.9641,29.5911],[-82.9652,29.5915],[-82.9775,29.5991],[-82.9766,29.6006],[-82.9636,29.5927],[-82.9628,29.5921],[-82.9641,29.5911]]]}},{"type":"Feature","properties":{"tier":1,"level":"90%","name":"US-129","wvc":6},"geometry":{"type":"Polygon","coordinates":[[[-82.8471,29.6604],[-82.8498,29.664],[-82.8493,29.665],[-82.8512,29.6658],[-82.8556,29.6721],[-82.854,29.6731],[-82.8455,29.6613],[-82.8471,29.6604]]]}},{"type":"Feature","properties":{"tier":2,"level":"95%","name":"SR-100","wvc":7},"geometry":{"type":"Polygon","coordinates":[[[-81.7154,29.6749],[-81.7244,29.679],[-81.7238,29.68],[-81.7232,29.6795],[-81.7222,29.6801],[-81.7137,29.6761],[-81.7144,29.6752],[-81.7154,29.6749]]]}},{"type":"Feature","properties":{"tier":3,"level":"99%","name":"NE US-301","wvc":9},"geometry":{"type":"Polygon","coordinates":[[[-82.159,29.7735],[-82.1669,29.7793],[-82.1684,29.7817],[-82.1663,29.7819],[-82.1654,29.7806],[-82.1576,29.7749],[-82.159,29.7735]]]}},{"type":"Feature","properties":{"tier":3,"level":"99%","name":"NE US-301","wvc":5},"geometry":{"type":"Polygon","coordinates":[[[-82.1462,29.7642],[-82.159,29.7735],[-82.1577,29.7749],[-82.1449,29.7656],[-82.1462,29.7642]]]}},{"type":"Feature","properties":{"tier":2,"level":"95%","name":"US-19/US-27A/US-98","wvc":5},"geometry":{"type":"Polygon","coordinates":[[[-83.3256,29.7795],[-83.3264,29.7764],[-83.3278,29.7753],[-83.3291,29.7766],[-83.3272,29.7782],[-83.3308,29.7846],[-83.3291,29.7854],[-83.3256,29.7795]]]}},{"type":"Feature","properties":{"tier":3,"level":"99%","name":"SR-47","wvc":9},"geometry":{"type":"Polygon","coordinates":[[[-82.6936,30.0832],[-82.692,30.0822],[-82.6931,30.0801],[-82.6964,30.0697],[-82.6978,30.0689],[-82.6985,30.0698],[-82.6949,30.0812],[-82.6936,30.0832]]]}},{"type":"Feature","properties":{"tier":1,"level":"90%","name":"SR-47","wvc":6},"geometry":{"type":"Polygon","coordinates":[[[-82.6789,30.0906],[-82.6801,30.092],[-82.6702,30.098],[-82.6676,30.1009],[-82.6658,30.0999],[-82.6689,30.0966],[-82.6789,30.0906]]]}},{"type":"Feature","properties":{"tier":1,"level":"90%","name":"SR-24","wvc":5},"geometry":{"type":"Polygon","coordinates":[[[-82.9107,29.2474],[-82.9117,29.2489],[-82.8974,29.2561],[-82.8964,29.2547],[-82.9058,29.2496],[-82.9107,29.2474]]]}},{"type":"Feature","properties":{"tier":1,"level":"90%","name":"US-19/US-98","wvc":6},"geometry":{"type":"Polygon","coordinates":[[[-82.7696,29.3278],[-82.7685,29.3276],[-82.7689,29.3263],[-82.7801,29.3202],[-82.7811,29.3216],[-82.7696,29.3278]]]}},{"type":"Feature","properties":{"tier":3,"level":"99%","name":"SR-24","wvc":8},"geometry":{"type":"Polygon","coordinates":[[[-82.7539,29.3345],[-82.755,29.336],[-82.7504,29.3389],[-82.7437,29.346],[-82.7421,29.3449],[-82.7489,29.3376],[-82.7539,29.3345]]]}},{"type":"Feature","properties":{"tier":3,"level":"99%","name":"THRASHER DR","wvc":8},"geometry":{"type":"Polygon","coordinates":[[[-82.5853,29.4937],[-82.5865,29.4952],[-82.5728,29.5034],[-82.5716,29.5019],[-82.5853,29.4937]]]}},{"type":"Feature","properties":{"tier":1,"level":"90%","name":"SW WILLISTON RD","wvc":6},"geometry":{"type":"Polygon","coordinates":[[[-82.4036,29.5283],[-82.4045,29.5285],[-82.4054,29.5295],[-82.4021,29.5393],[-82.3999,29.5427],[-82.3983,29.5418],[-82.4003,29.5382],[-82.4036,29.5283]]]}},{"type":"Feature","properties":{"tier":2,"level":"95%","name":"SR-47","wvc":7},"geometry":{"type":"Polygon","coordinates":[[[-82.7478,29.7255],[-82.7468,29.7251],[-82.7473,29.7246],[-82.7466,29.7238],[-82.7501,29.7166],[-82.7519,29.7173],[-82.7489,29.7237],[-82.7473,29.7246],[-82.7478,29.7255]]]}},{"type":"Feature","properties":{"tier":2,"level":"95%","name":"SR-47","wvc":7},"geometry":{"type":"Polygon","coordinates":[[[-82.7566,29.7033],[-82.7583,29.704],[-82.7518,29.7173],[-82.75,29.7166],[-82.7566,29.7033]]]}},{"type":"Feature","properties":{"tier":1,"level":"90%","name":"NE WALDO RD","wvc":3},"geometry":{"type":"Polygon","coordinates":[[[-82.2059,29.7605],[-82.2072,29.7619],[-82.1944,29.7712],[-82.1932,29.7698],[-82.2059,29.7605]]]}},{"type":"Feature","properties":{"tier":2,"level":"95%","name":"NE WALDO RD","wvc":6},"geometry":{"type":"Polygon","coordinates":[[[-82.2315,29.7419],[-82.2328,29.7433],[-82.22,29.7526],[-82.2187,29.7512],[-82.2315,29.7419]]]}},{"type":"Feature","properties":{"tier":2,"level":"95%","name":"NE WALDO RD","wvc":7},"geometry":{"type":"Polygon","coordinates":[[[-82.2443,29.7327],[-82.2457,29.734],[-82.2328,29.7433],[-82.2315,29.7419],[-82.2443,29.7327]]]}},{"type":"Feature","properties":{"tier":3,"level":"99%","name":"SR-21","wvc":7},"geometry":{"type":"Polygon","coordinates":[[[-81.9712,29.8392],[-81.9726,29.8405],[-81.9604,29.8505],[-81.9591,29.8492],[-81.9712,29.8392]]]}},{"type":"Feature","properties":{"tier":2,"level":"95%","name":"SW SR-247","wvc":7},"geometry":{"type":"Polygon","coordinates":[[[-82.7169,30.1282],[-82.7185,30.1294],[-82.7073,30.1402],[-82.7058,30.139],[-82.7169,30.1282]]]}},{"type":"Feature","properties":{"tier":3,"level":"99%","name":"SR-121","wvc":9},"geometry":{"type":"Polygon","coordinates":[[[-82.42,29.4265],[-82.4217,29.4275],[-82.4138,29.4375],[-82.4123,29.4404],[-82.411,29.4412],[-82.4102,29.4403],[-82.4116,29.4372],[-82.42,29.4265]]]}},{"type":"Feature","properties":{"tier":3,"level":"99%","name":"E US-90","wvc":4},"geometry":{"type":"Polygon","coordinates":[[[-82.3021,30.2387],[-82.304,30.2389],[-82.3039,30.2398],[-82.2888,30.2451],[-82.2881,30.2434],[-82.3021,30.2387]]]}},{"type":"Feature","properties":{"tier":3,"level":"99%","name":"SE HAWTHORNE RD","wvc":9},"geometry":{"type":"Polygon","coordinates":[[[-82.1977,29.5999],[-82.213,29.603],[-82.2136,29.604],[-82.2122,29.6047],[-82.1971,29.6016],[-82.1977,29.5999]]]}},{"type":"Feature","properties":{"tier":3,"level":"99%","name":"SE HAWTHORNE RD","wvc":7},"geometry":{"type":"Polygon","coordinates":[[[-82.19,29.5982],[-82.1977,29.5999],[-82.1972,29.6016],[-82.1895,29.6],[-82.19,29.5982]]]}},{"type":"Feature","properties":{"tier":2,"level":"95%","name":"SR-100","wvc":5},"geometry":{"type":"Polygon","coordinates":[[[-81.854,29.7281],[-81.87,29.732],[-81.8696,29.7338],[-81.8534,29.7298],[-81.854,29.7281]]]}},{"type":"Feature","properties":{"tier":2,"level":"95%","name":"CR-310","wvc":4},"geometry":{"type":"Polygon","coordinates":[[[-81.7843,29.5369],[-81.7845,29.5387],[-81.7679,29.5388],[-81.7678,29.537],[-81.7843,29.5369]]]}},{"type":"Feature","properties":{"tier":3,"level":"99%","name":"CR-310","wvc":5},"geometry":{"type":"Polygon","coordinates":[[[-81.8183,29.5393],[-81.8311,29.5417],[-81.8308,29.5435],[-81.8186,29.5412],[-81.8172,29.5413],[-81.8157,29.5422],[-81.8142,29.5409],[-81.8159,29.5398],[-81.8183,29.5393]]]}},{"type":"Feature","properties":{"tier":2,"level":"95%","name":"SR-16","wvc":3},"geometry":{"type":"Polygon","coordinates":[[[-81.8812,29.9772],[-81.8968,29.9775],[-81.8978,29.9785],[-81.8968,29.9793],[-81.896,29.9794],[-81.8811,29.979],[-81.8812,29.9772]]]}},{"type":"Feature","properties":{"tier":3,"level":"99%","name":"JC PENNEY BLVD","wvc":6},"geometry":{"type":"Polygon","coordinates":[[[-81.8317,29.9813],[-81.8319,29.9831],[-81.8152,29.9833],[-81.8151,29.9815],[-81.8317,29.9813]]]}},{"type":"Feature","properties":{"tier":3,"level":"99%","name":"SR-16","wvc":7},"geometry":{"type":"Polygon","coordinates":[[[-81.8559,29.9776],[-81.8645,29.9769],[-81.8644,29.9787],[-81.857,29.9792],[-81.8487,29.9818],[-81.848,29.9803],[-81.8559,29.9776]]]}},{"type":"Feature","properties":{"tier":3,"level":"99%","name":"SR-16","wvc":4},"geometry":{"type":"Polygon","coordinates":[[[-81.8645,29.9769],[-81.8812,29.9772],[-81.8812,29.9779],[-81.8811,29.979],[-81.8644,29.9787],[-81.8645,29.9769]]]}},{"type":"Feature","properties":{"tier":2,"level":"95%","name":"SR-20","wvc":4},"geometry":{"type":"Polygon","coordinates":[[[-81.7549,29.6286],[-81.7553,29.6304],[-81.7388,29.632],[-81.7385,29.6302],[-81.7549,29.6286]]]}},{"type":"Feature","properties":{"tier":3,"level":"99%","name":"SR-20","wvc":6},"geometry":{"type":"Polygon","coordinates":[[[-81.7917,29.6252],[-81.8048,29.6269],[-81.8045,29.6286],[-81.7937,29.6271],[-81.7884,29.6273],[-81.7881,29.6255],[-81.7917,29.6252]]]}},{"type":"Feature","properties":{"tier":2,"level":"95%","name":"SR-20","wvc":6},"geometry":{"type":"Polygon","coordinates":[[[-81.8376,29.6273],[-81.8379,29.6291],[-81.8213,29.6301],[-81.8212,29.6298],[-81.821,29.6283],[-81.8376,29.6273]]]}},{"type":"Feature","properties":{"tier":1,"level":"90%","name":"CR-232 E","wvc":6},"geometry":{"type":"Polygon","coordinates":[[[-82.8408,29.7233],[-82.8416,29.725],[-82.8336,29.7274],[-82.8291,29.7276],[-82.8249,29.7266],[-82.8257,29.7249],[-82.8288,29.7258],[-82.8317,29.7258],[-82.8408,29.7233]]]}},{"type":"Feature","properties":{"tier":3,"level":"99%","name":"US-90","wvc":11},"geometry":{"type":"Polygon","coordinates":[[[-82.5403,30.1875],[-82.5472,30.1875],[-82.5472,30.1893],[-82.5391,30.1894],[-82.5309,30.1909],[-82.5304,30.1891],[-82.5403,30.1875]]]}},{"type":"Feature","properties":{"tier":1,"level":"90%","name":"SW US-27","wvc":6},"geometry":{"type":"Polygon","coordinates":[[[-82.6666,29.8848],[-82.669,29.8854],[-82.6686,29.8864],[-82.6523,29.8875],[-82.6525,29.8857],[-82.6666,29.8848]]]}},{"type":"Feature","properties":{"tier":2,"level":"95%","name":"SW CR-778","wvc":7},"geometry":{"type":"Polygon","coordinates":[[[-82.6357,29.8859],[-82.6525,29.8857],[-82.6523,29.8875],[-82.6358,29.8877],[-82.6357,29.8859]]]}},{"type":"Feature","properties":{"tier":2,"level":"95%","name":"I-10","wvc":3},"geometry":{"type":"Polygon","coordinates":[[[-82.4665,30.2572],[-82.4765,30.2586],[-82.4825,30.2578],[-82.4832,30.2595],[-82.4784,30.2604],[-82.4739,30.2602],[-82.4661,30.259],[-82.4665,30.2572]]]}},{"type":"Feature","properties":{"tier":2,"level":"95%","name":"W NEWBERRY RD","wvc":7},"geometry":{"type":"Polygon","coordinates":[[[-82.5244,29.6532],[-82.5405,29.6531],[-82.5403,29.6549],[-82.5245,29.655],[-82.5235,29.6541],[-82.5244,29.6532]]]}},{"type":"Feature","properties":{"tier":1,"level":"90%","name":"SR-26","wvc":6},"geometry":{"type":"Polygon","coordinates":[[[-82.741,29.624],[-82.7416,29.6257],[-82.7272,29.6282],[-82.727,29.6273],[-82.7281,29.6262],[-82.741,29.624]]]}},{"type":"Feature","properties":{"tier":3,"level":"99%","name":"SR-26","wvc":8},"geometry":{"type":"Polygon","coordinates":[[[-82.726,29.6266],[-82.7271,29.6274],[-82.7272,29.6282],[-82.7109,29.631],[-82.7105,29.6293],[-82.726,29.6266]]]}},{"type":"Feature","properties":{"tier":3,"level":"99%","name":"NW 182 AVE","wvc":11},"geometry":{"type":"Polygon","coordinates":[[[-82.6248,29.821],[-82.6415,29.8209],[-82.6414,29.8227],[-82.6248,29.8228],[-82.6248,29.821]]]}},{"type":"Feature","properties":{"tier":1,"level":"90%","name":"US-27","wvc":6},"geometry":{"type":"Polygon","coordinates":[[[-82.8068,29.9521],[-82.807,29.9539],[-82.7936,29.9543],[-82.7935,29.9525],[-82.8068,29.9521]]]}},{"type":"Feature","properties":{"tier":3,"level":"99%","name":"US-19/US-27A/US-98","wvc":8},"geometry":{"type":"Polygon","coordinates":[[[-82.9125,29.5687],[-82.9164,29.575],[-82.9147,29.5758],[-82.911,29.5701],[-82.9125,29.5687]]]}},{"type":"Feature","properties":{"tier":3,"level":"99%","name":"US-19/US-27A/US-98","wvc":11},"geometry":{"type":"Polygon","coordinates":[[[-82.9047,29.5559],[-82.9126,29.5687],[-82.9119,29.5691],[-82.91,29.5683],[-82.9029,29.5568],[-82.9047,29.5559]]]}},{"type":"Feature","properties":{"tier":1,"level":"90%","name":"US-19/US-27A/US-98","wvc":6},"geometry":{"type":"Polygon","coordinates":[[[-82.8968,29.5431],[-82.9047,29.5559],[-82.903,29.5568],[-82.895,29.544],[-82.8968,29.5431]]]}},{"type":"Feature","properties":{"tier":2,"level":"95%","name":"S CR-325","wvc":7},"geometry":{"type":"Polygon","coordinates":[[[-82.1586,29.4826],[-82.1607,29.4826],[-82.1607,29.485],[-82.1611,29.4854],[-82.1682,29.4855],[-82.1698,29.486],[-82.1711,29.4873],[-82.1717,29.4891],[-82.1697,29.4893],[-82.1693,29.4881],[-82.1682,29.4873],[-82.1612,29.4873],[-82.1598,29.4869],[-82.159,29.4861],[-82.1586,29.4848],[-82.1586,29.4826]]]}},{"type":"Feature","properties":{"tier":3,"level":"99%","name":"US-90","wvc":10},"geometry":{"type":"Polygon","coordinates":[[[-82.9116,30.2607],[-82.9257,30.2684],[-82.9247,30.2698],[-82.9104,30.2622],[-82.9116,30.2607]]]}},{"type":"Feature","properties":{"tier":1,"level":"90%","name":"CR-218","wvc":3},"geometry":{"type":"Polygon","coordinates":[[[-81.806,29.9875],[-81.8081,29.9878],[-81.8078,30.0022],[-81.8057,30.0021],[-81.8056,29.9907],[-81.806,29.9875]]]}},{"type":"Feature","properties":{"tier":2,"level":"95%","name":"S US-17","wvc":5},"geometry":{"type":"Polygon","coordinates":[[[-81.6184,29.5163],[-81.6333,29.5226],[-81.6323,29.5242],[-81.6176,29.518],[-81.6173,29.5177],[-81.6184,29.5163]]]}},{"type":"Feature","properties":{"tier":2,"level":"95%","name":"S US-17","wvc":5},"geometry":{"type":"Polygon","coordinates":[[[-81.6067,29.5063],[-81.6158,29.5145],[-81.6184,29.5163],[-81.6173,29.5178],[-81.6143,29.5158],[-81.6052,29.5076],[-81.6067,29.5063]]]}},{"type":"Feature","properties":{"tier":3,"level":"99%","name":"SR 13","wvc":8},"geometry":{"type":"Polygon","coordinates":[[[-81.5506,29.9777],[-81.5655,29.9839],[-81.5647,29.9855],[-81.5496,29.9793],[-81.5506,29.9777]]]}},{"type":"Feature","properties":{"tier":1,"level":"90%","name":"SW US-27","wvc":6},"geometry":{"type":"Polygon","coordinates":[[[-82.7719,29.95],[-82.7823,29.951],[-82.7864,29.952],[-82.7857,29.9537],[-82.782,29.9527],[-82.7716,29.9518],[-82.7719,29.95]]]}},{"type":"Feature","properties":{"tier":3,"level":"99%","name":"SW US-27","wvc":12},"geometry":{"type":"Polygon","coordinates":[[[-82.6688,29.8854],[-82.6667,29.8848],[-82.6589,29.8778],[-82.6601,29.8767],[-82.6604,29.8765],[-82.6697,29.8848],[-82.6688,29.8854]]]}},{"type":"Feature","properties":{"tier":1,"level":"90%","name":"SW US-27","wvc":6},"geometry":{"type":"Polygon","coordinates":[[[-82.6494,29.866],[-82.6507,29.8678],[-82.6604,29.8765],[-82.659,29.8778],[-82.6485,29.8682],[-82.6476,29.8668],[-82.6494,29.866]]]}},{"type":"Feature","properties":{"tier":1,"level":"90%","name":"SW US-27","wvc":6},"geometry":{"type":"Polygon","coordinates":[[[-82.6697,29.8848],[-82.6813,29.8951],[-82.68,29.8965],[-82.6686,29.8864],[-82.6697,29.8848]]]}},{"type":"Feature","properties":{"tier":1,"level":"90%","name":"SW US-27","wvc":6},"geometry":{"type":"Polygon","coordinates":[[[-82.6938,29.9047],[-82.7064,29.9143],[-82.7051,29.9156],[-82.6925,29.9061],[-82.6938,29.9047]]]}},{"type":"Feature","properties":{"tier":3,"level":"99%","name":"W US HWY 27","wvc":8},"geometry":{"type":"Polygon","coordinates":[[[-82.6271,29.8394],[-82.6372,29.8459],[-82.6359,29.8473],[-82.626,29.8409],[-82.6271,29.8394]]]}},{"type":"Feature","properties":{"tier":3,"level":"99%","name":"US-27 N","wvc":9},"geometry":{"type":"Polygon","coordinates":[[[-82.4744,29.4542],[-82.4818,29.4672],[-82.48,29.4681],[-82.4726,29.455],[-82.4744,29.4542]]]}},{"type":"Feature","properties":{"tier":2,"level":"95%","name":"SE HAWTHORNE RD","wvc":7},"geometry":{"type":"Polygon","coordinates":[[[-82.2142,29.6051],[-82.2137,29.604],[-82.2151,29.6034],[-82.222,29.6048],[-82.2214,29.6066],[-82.2142,29.6051]]]}},{"type":"Feature","properties":{"tier":2,"level":"95%","name":"US-17 S","wvc":3},"geometry":{"type":"Polygon","coordinates":[[[-81.6648,29.8717],[-81.6655,29.8802],[-81.6678,29.8856],[-81.6661,29.8862],[-81.664,29.8823],[-81.6633,29.8795],[-81.6628,29.8719],[-81.6648,29.8717]]]}},{"type":"Feature","properties":{"tier":3,"level":"99%","name":"SR-21","wvc":7},"geometry":{"type":"Polygon","coordinates":[[[-81.8978,29.9785],[-81.8988,29.9793],[-81.8988,29.993],[-81.8967,29.9929],[-81.8967,29.9793],[-81.8978,29.9785]]]}},{"type":"Feature","properties":{"tier":3,"level":"99%","name":"SR-21","wvc":7},"geometry":{"type":"Polygon","coordinates":[[[-81.8985,29.9397],[-81.8988,29.9543],[-81.8967,29.9544],[-81.8965,29.9399],[-81.8985,29.9397]]]}},{"type":"Feature","properties":{"tier":3,"level":"99%","name":"SE SR-100","wvc":6},"geometry":{"type":"Polygon","coordinates":[[[-82.0725,29.8558],[-82.0779,29.8695],[-82.0762,29.8701],[-82.0706,29.8563],[-82.0725,29.8558]]]}},{"type":"Feature","properties":{"tier":3,"level":"99%","name":"SE US-301","wvc":6},"geometry":{"type":"Polygon","coordinates":[[[-82.1088,29.4311],[-82.1109,29.4312],[-82.1109,29.4346],[-82.1093,29.445],[-82.1073,29.4447],[-82.1087,29.4365],[-82.1088,29.4311]]]}},{"type":"Feature","properties":{"tier":1,"level":"90%","name":"SE US-301","wvc":3},"geometry":{"type":"Polygon","coordinates":[[[-82.0969,29.5525],[-82.0989,29.553],[-82.0942,29.5669],[-82.0923,29.5664],[-82.0969,29.5525]]]}},{"type":"Feature","properties":{"tier":1,"level":"90%","name":"SE US-301","wvc":3},"geometry":{"type":"Polygon","coordinates":[[[-82.1016,29.5239],[-82.1037,29.5241],[-82.1036,29.5254],[-82.1015,29.5385],[-82.1011,29.5385],[-82.0995,29.5382],[-82.1016,29.5239]]]}},{"type":"Feature","properties":{"tier":3,"level":"99%","name":"SE US-301","wvc":6},"geometry":{"type":"Polygon","coordinates":[[[-82.1012,29.5093],[-82.1023,29.5139],[-82.1037,29.5241],[-82.1016,29.5239],[-82.0993,29.5099],[-82.1012,29.5093]]]}},{"type":"Feature","properties":{"tier":3,"level":"99%","name":"US-19/US-98","wvc":8},"geometry":{"type":"Polygon","coordinates":[[[-82.637,29.0997],[-82.6374,29.1143],[-82.6354,29.1144],[-82.635,29.0999],[-82.637,29.0997]]]}},{"type":"Feature","properties":{"tier":3,"level":"99%","name":"US-19/US-98","wvc":8},"geometry":{"type":"Polygon","coordinates":[[[-82.647,29.0696],[-82.6452,29.0689],[-82.6482,29.0635],[-82.6518,29.059],[-82.6534,29.0601],[-82.65,29.0644],[-82.647,29.0696]]]}},{"type":"Feature","properties":{"tier":1,"level":"90%","name":"S US-441","wvc":6},"geometry":{"type":"Polygon","coordinates":[[[-82.6084,29.9161],[-82.6105,29.9162],[-82.6102,29.9308],[-82.6082,29.9306],[-82.6084,29.9161]]]}},{"type":"Feature","properties":{"tier":3,"level":"99%","name":"S US-441","wvc":8},"geometry":{"type":"Polygon","coordinates":[[[-82.6104,29.9016],[-82.6105,29.9162],[-82.6084,29.9161],[-82.6083,29.9017],[-82.6104,29.9016]]]}},{"type":"Feature","properties":{"tier":1,"level":"90%","name":"SR-47","wvc":6},"geometry":{"type":"Polygon","coordinates":[[[-82.7398,29.7817],[-82.7419,29.7817],[-82.7421,29.7962],[-82.74,29.7962],[-82.7398,29.7817]]]}},{"type":"Feature","properties":{"tier":1,"level":"90%","name":"SR-47","wvc":6},"geometry":{"type":"Polygon","coordinates":[[[-82.7396,29.7526],[-82.7416,29.7527],[-82.7417,29.7672],[-82.7397,29.7672],[-82.7396,29.7526]]]}},{"type":"Feature","properties":{"tier":3,"level":"99%","name":"SR-47","wvc":12},"geometry":{"type":"Polygon","coordinates":[[[-82.7091,29.998],[-82.7111,29.9981],[-82.7112,30.0126],[-82.7092,30.0125],[-82.7091,29.998]]]}},{"type":"Feature","properties":{"tier":3,"level":"99%","name":"SR-47","wvc":10},"geometry":{"type":"Polygon","coordinates":[[[-82.7096,29.9689],[-82.7115,29.9692],[-82.7109,29.9728],[-82.711,29.9836],[-82.7089,29.9835],[-82.7089,29.9727],[-82.7096,29.9689]]]}},{"type":"Feature","properties":{"tier":2,"level":"95%","name":"SR-47","wvc":7},"geometry":{"type":"Polygon","coordinates":[[[-82.7127,29.9376],[-82.7147,29.9377],[-82.7143,29.9512],[-82.7141,29.9542],[-82.713,29.9547],[-82.7121,29.9534],[-82.7127,29.9376]]]}},{"type":"Feature","properties":{"tier":3,"level":"99%","name":"SR-121","wvc":9},"geometry":{"type":"Polygon","coordinates":[[[-82.4111,29.4412],[-82.412,29.4421],[-82.412,29.4555],[-82.41,29.4558],[-82.4099,29.442],[-82.4111,29.4412]]]}},{"type":"Feature","properties":{"tier":2,"level":"95%","name":"SR 19","wvc":3},"geometry":{"type":"Polygon","coordinates":[[[-81.7366,29.3697],[-81.7369,29.3743],[-81.7348,29.3743],[-81.7346,29.3698],[-81.7366,29.3697]]]}},{"type":"Feature","properties":{"tier":3,"level":"99%","name":"SR-19","wvc":6},"geometry":{"type":"Polygon","coordinates":[[[-81.7444,29.4897],[-81.7485,29.5038],[-81.7466,29.5043],[-81.7425,29.4902],[-81.7444,29.4897]]]}},{"type":"Feature","properties":{"tier":3,"level":"99%","name":"SR-19","wvc":13},"geometry":{"type":"Polygon","coordinates":[[[-81.7386,29.4323],[-81.739,29.4468],[-81.7369,29.447],[-81.7365,29.4325],[-81.7386,29.4323]]]}},{"type":"Feature","properties":{"tier":3,"level":"99%","name":"SR-19","wvc":8},"geometry":{"type":"Polygon","coordinates":[[[-81.7381,29.4178],[-81.7386,29.4323],[-81.7365,29.4325],[-81.7361,29.4179],[-81.7381,29.4178]]]}},{"type":"Feature","properties":{"tier":3,"level":"99%","name":"SR-19","wvc":8},"geometry":{"type":"Polygon","coordinates":[[[-81.7378,29.4033],[-81.7382,29.4178],[-81.7361,29.4179],[-81.7358,29.4034],[-81.7378,29.4033]]]}},{"type":"Feature","properties":{"tier":3,"level":"99%","name":"SR-19","wvc":5},"geometry":{"type":"Polygon","coordinates":[[[-81.7368,29.3743],[-81.7374,29.3888],[-81.7353,29.3888],[-81.7348,29.3743],[-81.7368,29.3743]]]}},{"type":"Feature","properties":{"tier":3,"level":"99%","name":"NE 349 HWY","wvc":11},"geometry":{"type":"Polygon","coordinates":[[[-82.9843,29.6304],[-82.9847,29.645],[-82.9827,29.6451],[-82.9823,29.6305],[-82.9843,29.6304]]]}},{"type":"Feature","properties":{"tier":1,"level":"90%","name":"US-129","wvc":6},"geometry":{"type":"Polygon","coordinates":[[[-82.9463,30.0816],[-82.9479,30.096],[-82.9459,30.0962],[-82.9443,30.0818],[-82.9463,30.0816]]]}},{"type":"Feature","properties":{"tier":1,"level":"90%","name":"US-129","wvc":6},"geometry":{"type":"Polygon","coordinates":[[[-82.9341,29.9729],[-82.9358,29.9874],[-82.9337,29.9876],[-82.9321,29.9731],[-82.9341,29.9729]]]}},{"type":"Feature","properties":{"tier":2,"level":"95%","name":"CR-345","wvc":7},"geometry":{"type":"Polygon","coordinates":[[[-82.9096,29.3133],[-82.9115,29.314],[-82.9107,29.3158],[-82.9082,29.318],[-82.9017,29.3258],[-82.9002,29.3247],[-82.9066,29.3169],[-82.9088,29.3149],[-82.9096,29.3133]]]}},{"type":"Feature","properties":{"tier":2,"level":"95%","name":"CR-42","wvc":6},"geometry":{"type":"Polygon","coordinates":[[[-81.6056,28.9594],[-81.6221,28.9594],[-81.622,28.9612],[-81.6055,28.9612],[-81.6056,28.9594]]]}},{"type":"Feature","properties":{"tier":3,"level":"99%","name":"SE HWY 42","wvc":10},"geometry":{"type":"Polygon","coordinates":[[[-81.6776,28.971],[-81.6936,28.9759],[-81.693,28.9773],[-81.6768,28.9726],[-81.6776,28.971]]]}},{"type":"Feature","properties":{"tier":2,"level":"95%","name":"SE HWY 42","wvc":8},"geometry":{"type":"Polygon","coordinates":[[[-81.8297,28.9912],[-81.8299,28.993],[-81.8225,28.9932],[-81.8224,28.9914],[-81.8297,28.9912]]]}},{"type":"Feature","properties":{"tier":2,"level":"95%","name":"CR-42","wvc":7},"geometry":{"type":"Polygon","coordinates":[[[-81.4348,29.0034],[-81.4396,29.005],[-81.4483,29.0048],[-81.4511,29.0059],[-81.4501,29.0075],[-81.4478,29.0066],[-81.4416,29.007],[-81.4393,29.0068],[-81.4347,29.0052],[-81.4348,29.0034]]]}},{"type":"Feature","properties":{"tier":2,"level":"95%","name":"SR-40","wvc":6},"geometry":{"type":"Polygon","coordinates":[[[-81.5723,29.1529],[-81.5769,29.1539],[-81.5789,29.1548],[-81.5778,29.1562],[-81.5755,29.1554],[-81.5691,29.1544],[-81.5689,29.1534],[-81.5723,29.1529]]]}},{"type":"Feature","properties":{"tier":1,"level":"90%","name":"SR-40","wvc":6},"geometry":{"type":"Polygon","coordinates":[[[-81.6397,29.1698],[-81.6392,29.1682],[-81.6413,29.1678],[-81.6427,29.1684],[-81.6432,29.1674],[-81.6493,29.1662],[-81.6531,29.1668],[-81.6521,29.1684],[-81.6495,29.168],[-81.6441,29.1691],[-81.6427,29.1685],[-81.6421,29.1695],[-81.6397,29.1698]]]}},{"type":"Feature","properties":{"tier":1,"level":"90%","name":"E SR-40","wvc":6},"geometry":{"type":"Polygon","coordinates":[[[-81.9261,29.1967],[-81.9288,29.1972],[-81.9309,29.1985],[-81.9297,29.1998],[-81.9277,29.1988],[-81.9258,29.1985],[-81.9212,29.2001],[-81.9187,29.2002],[-81.9192,29.1984],[-81.9207,29.1984],[-81.9237,29.1971],[-81.9261,29.1967]]]}},{"type":"Feature","properties":{"tier":2,"level":"95%","name":"NE HWY 314","wvc":6},"geometry":{"type":"Polygon","coordinates":[[[-81.8885,29.2735],[-81.8918,29.2729],[-81.8918,29.2747],[-81.8756,29.2768],[-81.8752,29.2752],[-81.8865,29.2738],[-81.8877,29.2745],[-81.8885,29.2735]]]}},{"type":"Feature","properties":{"tier":3,"level":"99%","name":"SR-44","wvc":7},"geometry":{"type":"Polygon","coordinates":[[[-81.4402,28.9263],[-81.4421,28.9268],[-81.4412,28.9305],[-81.4398,28.9326],[-81.4384,28.9315],[-81.4393,28.9299],[-81.4402,28.9263]]]}},{"type":"Feature","properties":{"tier":1,"level":"90%","name":"CR-439","wvc":5},"geometry":{"type":"Polygon","coordinates":[[[-81.5948,28.9525],[-81.5949,28.9612],[-81.5938,28.962],[-81.5929,28.961],[-81.5928,28.9525],[-81.5948,28.9525]]]}},{"type":"Feature","properties":{"tier":3,"level":"99%","name":"SR-19","wvc":9},"geometry":{"type":"Polygon","coordinates":[[[-81.6447,28.9751],[-81.6467,28.9755],[-81.6447,28.988],[-81.6427,28.9876],[-81.6447,28.9751]]]}},{"type":"Feature","properties":{"tier":3,"level":"99%","name":"SR 19","wvc":8},"geometry":{"type":"Polygon","coordinates":[[[-81.6516,29.1806],[-81.6551,29.1857],[-81.6564,29.1903],[-81.6545,29.1907],[-81.6532,29.1864],[-81.6499,29.1815],[-81.6516,29.1806]]]}},{"type":"Feature","properties":{"tier":1,"level":"90%","name":"SR 19","wvc":5},"geometry":{"type":"Polygon","coordinates":[[[-81.7341,29.3523],[-81.7361,29.3524],[-81.7363,29.3591],[-81.7353,29.3599],[-81.7364,29.3622],[-81.7366,29.3668],[-81.7345,29.3669],[-81.7341,29.353],[-81.7341,29.3523]]]}},{"type":"Feature","properties":{"tier":3,"level":"99%","name":"SR-44","wvc":8},"geometry":{"type":"Polygon","coordinates":[[[-81.4503,28.9122],[-81.4488,28.911],[-81.4537,28.9063],[-81.4552,28.9074],[-81.4503,28.9122]]]}},{"type":"Feature","properties":{"tier":2,"level":"95%","name":"SE HWY 42","wvc":7},"geometry":{"type":"Polygon","coordinates":[[[-81.7359,28.9874],[-81.7345,28.9861],[-81.7418,28.9806],[-81.7438,28.9796],[-81.7495,28.9785],[-81.75,28.9803],[-81.7436,28.9817],[-81.7359,28.9874]]]}},{"type":"Feature","properties":{"tier":2,"level":"95%","name":"SR-40","wvc":7},"geometry":{"type":"Polygon","coordinates":[[[-81.5759,29.1463],[-81.5772,29.1471],[-81.5736,29.1523],[-81.5721,29.153],[-81.5689,29.1534],[-81.5691,29.1544],[-81.5644,29.156],[-81.5636,29.1544],[-81.5721,29.151],[-81.574,29.1482],[-81.5752,29.1482],[-81.5759,29.1463]]]}},{"type":"Feature","properties":{"tier":2,"level":"95%","name":"SR 19","wvc":7},"geometry":{"type":"Polygon","coordinates":[[[-81.65,29.2163],[-81.6487,29.2149],[-81.6517,29.2135],[-81.6523,29.2149],[-81.6518,29.2134],[-81.6554,29.2122],[-81.657,29.2112],[-81.6585,29.209],[-81.6587,29.2062],[-81.6607,29.2059],[-81.6606,29.2091],[-81.6589,29.2121],[-81.6564,29.2138],[-81.65,29.2163]]]}},{"type":"Feature","properties":{"tier":1,"level":"90%","name":"CR-452","wvc":6},"geometry":{"type":"Polygon","coordinates":[[[-81.7759,28.9225],[-81.7816,28.9332],[-81.7798,28.934],[-81.774,28.9233],[-81.7759,28.9225]]]}},{"type":"Feature","properties":{"tier":2,"level":"95%","name":"SE HWY 42","wvc":7},"geometry":{"type":"Polygon","coordinates":[[[-81.7812,28.9833],[-81.7782,28.9803],[-81.7797,28.9792],[-81.7824,28.9817],[-81.7834,28.9833],[-81.7844,28.9825],[-81.7906,28.985],[-81.7897,28.9865],[-81.7812,28.9833]]]}},{"type":"Feature","properties":{"tier":3,"level":"99%","name":"E HWY 25","wvc":11},"geometry":{"type":"Polygon","coordinates":[[[-81.9095,29.0308],[-81.9099,29.0326],[-81.9111,29.0347],[-81.9155,29.0377],[-81.9144,29.0393],[-81.9106,29.037],[-81.9085,29.0345],[-81.9074,29.0309],[-81.9095,29.0308]]]}},{"type":"Feature","properties":{"tier":3,"level":"99%","name":"SR 19","wvc":14},"geometry":{"type":"Polygon","coordinates":[[[-81.6421,29.1695],[-81.6427,29.1685],[-81.6441,29.1691],[-81.6516,29.1806],[-81.6501,29.1814],[-81.6443,29.1734],[-81.6421,29.1695]]]}},{"type":"Feature","properties":{"tier":1,"level":"90%","name":"E SR-40","wvc":6},"geometry":{"type":"Polygon","coordinates":[[[-81.9043,29.1862],[-81.9068,29.1877],[-81.9133,29.1938],[-81.9121,29.1948],[-81.9118,29.195],[-81.9054,29.189],[-81.9033,29.1878],[-81.9043,29.1862]]]}},{"type":"Feature","properties":{"tier":2,"level":"95%","name":"NE HWY 314","wvc":8},"geometry":{"type":"Polygon","coordinates":[[[-81.8421,29.2908],[-81.8432,29.2923],[-81.8289,29.2996],[-81.8279,29.2981],[-81.8421,29.2908]]]}},{"type":"Feature","properties":{"tier":3,"level":"99%","name":"SR-44","wvc":9},"geometry":{"type":"Polygon","coordinates":[[[-81.4277,28.9427],[-81.4294,28.9437],[-81.4196,28.9554],[-81.418,28.9544],[-81.4277,28.9427]]]}},{"type":"Feature","properties":{"tier":3,"level":"99%","name":"SR-44","wvc":12},"geometry":{"type":"Polygon","coordinates":[[[-81.4384,28.9315],[-81.4399,28.9326],[-81.4334,28.939],[-81.4293,28.9437],[-81.4278,28.9426],[-81.4318,28.9378],[-81.4384,28.9315]]]}},{"type":"Feature","properties":{"tier":3,"level":"99%","name":"SR-44","wvc":8},"geometry":{"type":"Polygon","coordinates":[[[-81.4599,28.8932],[-81.4615,28.8944],[-81.4576,28.8991],[-81.4563,28.9052],[-81.4552,28.9074],[-81.4536,28.9063],[-81.4543,28.9048],[-81.4553,28.8995],[-81.4567,28.8967],[-81.4599,28.8932]]]}},{"type":"Feature","properties":{"tier":3,"level":"99%","name":"SR-44","wvc":25},"geometry":{"type":"Polygon","coordinates":[[[-81.4022,28.98],[-81.4041,28.9808],[-81.3967,28.9938],[-81.3949,28.993],[-81.4022,28.98]]]}},{"type":"Feature","properties":{"tier":3,"level":"99%","name":"SR-44","wvc":9},"geometry":{"type":"Polygon","coordinates":[[[-81.4095,28.9669],[-81.4113,28.9678],[-81.404,28.9808],[-81.4022,28.98],[-81.4095,28.9669]]]}},{"type":"Feature","properties":{"tier":2,"level":"95%","name":"CR-316","wvc":7},"geometry":{"type":"Polygon","coordinates":[[[-81.7757,29.3772],[-81.7758,29.379],[-81.7735,29.3792],[-81.7702,29.3806],[-81.7684,29.3805],[-81.7657,29.3791],[-81.7662,29.3774],[-81.7695,29.3789],[-81.7729,29.3775],[-81.7757,29.3772]]]}},{"type":"Feature","properties":{"tier":2,"level":"95%","name":"E SR-40","wvc":6},"geometry":{"type":"Polygon","coordinates":[[[-81.7625,29.1765],[-81.7627,29.1783],[-81.7461,29.1786],[-81.746,29.1768],[-81.7625,29.1765]]]}},{"type":"Feature","properties":{"tier":1,"level":"90%","name":"E SR-40","wvc":5},"geometry":{"type":"Polygon","coordinates":[[[-81.8525,29.171],[-81.8526,29.1728],[-81.8476,29.173],[-81.845,29.1739],[-81.844,29.1723],[-81.8473,29.1712],[-81.8525,29.171]]]}},{"type":"Feature","properties":{"tier":3,"level":"99%","name":"E SR-40","wvc":10},"geometry":{"type":"Polygon","coordinates":[[[-81.6972,29.1745],[-81.7063,29.177],[-81.7129,29.1774],[-81.7131,29.1792],[-81.7059,29.1788],[-81.6966,29.1762],[-81.6972,29.1745]]]}},{"type":"Feature","properties":{"tier":2,"level":"95%","name":"E SR-40","wvc":6},"geometry":{"type":"Polygon","coordinates":[[[-81.7294,29.1771],[-81.7296,29.1789],[-81.7131,29.1792],[-81.7129,29.178],[-81.7129,29.1774],[-81.7294,29.1771]]]}},{"type":"Feature","properties":{"tier":1,"level":"90%","name":"E SR-40","wvc":5},"geometry":{"type":"Polygon","coordinates":[[[-81.746,29.1768],[-81.7461,29.1786],[-81.7296,29.1789],[-81.7295,29.1771],[-81.746,29.1768]]]}},{"type":"Feature","properties":{"tier":3,"level":"99%","name":"SR-40","wvc":22},"geometry":{"type":"Polygon","coordinates":[[[-81.5382,29.1615],[-81.5384,29.1633],[-81.5296,29.1637],[-81.5262,29.1668],[-81.5243,29.1679],[-81.5233,29.1664],[-81.5289,29.162],[-81.5382,29.1615]]]}},{"type":"Feature","properties":{"tier":3,"level":"99%","name":"CR-42","wvc":8},"geometry":{"type":"Polygon","coordinates":[[[-81.5456,28.9739],[-81.55,28.9739],[-81.5499,28.9757],[-81.5453,28.9758],[-81.5439,28.9765],[-81.5432,28.9777],[-81.5433,28.9839],[-81.5412,28.9839],[-81.5415,28.9764],[-81.5433,28.9746],[-81.5456,28.9739]]]}},{"type":"Feature","properties":{"tier":3,"level":"99%","name":"CR-42","wvc":7},"geometry":{"type":"Polygon","coordinates":[[[-81.4184,29.003],[-81.4253,29.003],[-81.4252,29.0048],[-81.4188,29.0048],[-81.4184,29.003]]]}},{"type":"Feature","properties":{"tier":3,"level":"99%","name":"CR-42","wvc":9},"geometry":{"type":"Polygon","coordinates":[[[-81.4967,29.016],[-81.497,29.0178],[-81.4866,29.0181],[-81.4863,29.0167],[-81.4863,29.0164],[-81.4878,29.0162],[-81.4967,29.016]]]}},{"type":"Feature","properties":{"tier":3,"level":"99%","name":"CR-42","wvc":9},"geometry":{"type":"Polygon","coordinates":[[[-81.513,29.0141],[-81.5133,29.0159],[-81.5073,29.0163],[-81.5014,29.0176],[-81.497,29.0178],[-81.4968,29.016],[-81.501,29.0158],[-81.507,29.0145],[-81.513,29.0141]]]}},{"type":"Feature","properties":{"tier":1,"level":"90%","name":"SR 19","wvc":5},"geometry":{"type":"Polygon","coordinates":[[[-81.6474,29.2552],[-81.6476,29.268],[-81.6456,29.268],[-81.6454,29.2553],[-81.6474,29.2552]]]}},{"type":"Feature","properties":{"tier":3,"level":"99%","name":"SR 19","wvc":7},"geometry":{"type":"Polygon","coordinates":[[[-81.6482,29.2406],[-81.649,29.2441],[-81.6475,29.2502],[-81.6474,29.2552],[-81.6454,29.2553],[-81.6454,29.25],[-81.6469,29.244],[-81.6463,29.2412],[-81.6482,29.2406]]]}},{"type":"Feature","properties":{"tier":1,"level":"90%","name":"SR 19","wvc":5},"geometry":{"type":"Polygon","coordinates":[[[-81.7004,29.3202],[-81.7123,29.3301],[-81.7112,29.3315],[-81.699,29.3216],[-81.7004,29.3202]]]}},{"type":"Feature","properties":{"tier":3,"level":"99%","name":"NE 160 AVE RD","wvc":8},"geometry":{"type":"Polygon","coordinates":[[[-81.9098,29.4629],[-81.9097,29.4671],[-81.906,29.4728],[-81.9059,29.4766],[-81.9038,29.4767],[-81.9039,29.4726],[-81.9077,29.4668],[-81.9078,29.4631],[-81.9098,29.4629]]]}},{"type":"Feature","properties":{"tier":3,"level":"99%","name":"CR-439","wvc":8},"geometry":{"type":"Polygon","coordinates":[[[-81.5926,28.9003],[-81.5947,28.9003],[-81.5944,28.9149],[-81.5924,28.9148],[-81.5926,28.9003]]]}},{"type":"Feature","properties":{"tier":3,"level":"99%","name":"SR-19","wvc":8},"geometry":{"type":"Polygon","coordinates":[[[-81.6405,29.04],[-81.6392,29.0388],[-81.6391,29.0235],[-81.6412,29.0236],[-81.6412,29.0392],[-81.6412,29.04],[-81.6405,29.04]]]}},{"type":"Feature","properties":{"tier":3,"level":"99%","name":"SR-19","wvc":7},"geometry":{"type":"Polygon","coordinates":[[[-81.6391,29.009],[-81.6411,29.0091],[-81.6412,29.0236],[-81.6391,29.0235],[-81.6391,29.009]]]}},{"type":"Feature","properties":{"tier":3,"level":"99%","name":"SR-19","wvc":15},"geometry":{"type":"Polygon","coordinates":[[[-81.6416,28.9946],[-81.6436,28.995],[-81.6428,29.0003],[-81.6412,29.0044],[-81.6411,29.0091],[-81.6391,29.009],[-81.6392,29.004],[-81.6407,29.0004],[-81.6416,28.9946]]]}},{"type":"Feature","properties":{"tier":2,"level":"95%","name":"SR 19","wvc":7},"geometry":{"type":"Polygon","coordinates":[[[-81.6404,29.0399],[-81.6412,29.04],[-81.6405,29.0441],[-81.637,29.0542],[-81.6352,29.0536],[-81.6382,29.0451],[-81.6391,29.0406],[-81.6404,29.0399]]]}},{"type":"Feature","properties":{"tier":2,"level":"95%","name":"SR 19","wvc":7},"geometry":{"type":"Polygon","coordinates":[[[-81.6209,29.0954],[-81.6227,29.0959],[-81.6183,29.1097],[-81.6166,29.1095],[-81.6169,29.1066],[-81.6209,29.0954]]]}},{"type":"Feature","properties":{"tier":3,"level":"99%","name":"SR 19","wvc":16},"geometry":{"type":"Polygon","coordinates":[[[-81.6352,29.0536],[-81.6372,29.0542],[-81.6322,29.0681],[-81.6304,29.0675],[-81.6352,29.0536]]]}},{"type":"Feature","properties":{"tier":2,"level":"95%","name":"W FORT ISLAND TRL","wvc":3},"geometry":{"type":"Polygon","coordinates":[[[-82.6828,28.9077],[-82.6882,28.9057],[-82.688,28.9075],[-82.6835,28.9095],[-82.6803,28.9123],[-82.6744,28.9145],[-82.6737,28.9129],[-82.6792,28.9108],[-82.6828,28.9077]]]}},{"type":"Feature","properties":{"tier":2,"level":"95%","name":"N SUNCOAST BLVD","wvc":4},"geometry":{"type":"Polygon","coordinates":[[[-82.6341,28.9709],[-82.6341,28.9693],[-82.6316,28.9647],[-82.6333,28.9639],[-82.6366,28.9702],[-82.6354,28.97],[-82.6347,28.9709],[-82.6341,28.9709]]]}},{"type":"Feature","properties":{"tier":3,"level":"99%","name":"N LECANTO HWY","wvc":6},"geometry":{"type":"Polygon","coordinates":[[[-82.4021,28.9652],[-82.4024,28.967],[-82.3944,28.968],[-82.3911,28.9701],[-82.3882,28.9704],[-82.3884,28.9686],[-82.3903,28.9684],[-82.3934,28.9664],[-82.4021,28.9652]]]}}]}