{"type":"FeatureCollection","features":[{"type":"Feature","properties":{"kind":"city","label":"City of Gainesville"},"geometry":{"type":"MultiPolygon","coordinates":[[[[-82.4225,29.6379],[-82.4225,29.6368],[-82.4133,29.6368],[-82.4155,29.6331],[-82.4142,29.6305],[-82.4059,29.6305],[-82.4058,29.6326],[-82.3974,29.6325],[-82.389,29.6203],[-82.3878,29.6174],[-82.3892,29.6167],[-82.3831,29.6122],[-82.387,29.6114],[-82.3943,29.6056],[-82.3971,29.6068],[-82.3972,29.6115],[-82.3994,29.6103],[-82.3984,29.6067],[-82.4013,29.6067],[-82.4013,29.6049],[-82.4034,29.6049],[-82.4034,29.6022],[-82.4013,29.6013],[-82.3949,29.6024],[-82.3929,29.5969],[-82.3972,29.5969],[-82.3981,29.594],[-82.3916,29.5928],[-82.3906,29.5967],[-82.3918,29.5968],[-82.3918,29.5985],[-82.39,29.5985],[-82.3899,29.5999],[-82.3919,29.6012],[-82.3897,29.6011],[-82.3893,29.5965],[-82.3848,29.6023],[-82.3802,29.6017],[-82.3776,29.6033],[-82.3796,29.6078],[-82.3753,29.6038],[-82.3809,29.5997],[-82.3792,29.5979],[-82.3653,29.6079],[-82.3637,29.6062],[-82.366,29.6042],[-82.3658,29.6018],[-82.3563,29.604],[-82.3564,29.6131],[-82.3514,29.6142],[-82.3517,29.6166],[-82.3495,29.617],[-82.3503,29.6207],[-82.3487,29.6208],[-82.349,29.6231],[-82.3543,29.6267],[-82.3422,29.6276],[-82.34,29.6217],[-82.3409,29.6207],[-82.3391,29.6219],[-82.3388,29.6186],[-82.3403,29.6175],[-82.3378,29.6176],[-82.3374,29.6158],[-82.3368,29.6175],[-82.3299,29.6197],[-82.3332,29.6172],[-82.3312,29.617],[-82.3314,29.6154],[-82.313,29.6135],[-82.3137,29.6169],[-82.3233,29.6219],[-82.3195,29.6248],[-82.3251,29.6206],[-82.3281,29.6201],[-82.3222,29.6298],[-82.3181,29.6299],[-82.3181,29.6277],[-82.3112,29.6277],[-82.3087,29.6191],[-82.3058,29.6191],[-82.3058,29.6311],[-82.3052,29.6299],[-82.2996,29.63],[-82.2995,29.6336],[-82.2975,29.6335],[-82.2975,29.6373],[-82.2892,29.6373],[-82.2892,29.6419],[-82.285,29.6408],[-82.2843,29.6467],[-82.2796,29.6463],[-82.2793,29.6445],[-82.2725,29.6445],[-82.2724,29.6482],[-82.2783,29.6483],[-82.2774,29.6518],[-82.2724,29.652],[-82.2725,29.6628],[-82.2779,29.6666],[-82.2892,29.6665],[-82.2891,29.6737],[-82.2579,29.6736],[-82.2578,29.6788],[-82.261,29.6792],[-82.2602,29.684],[-82.2413,29.6808],[-82.2413,29.6772],[-82.236,29.6735],[-82.2224,29.6735],[-82.2225,29.6879],[-82.2557,29.6882],[-82.2557,29.7075],[-82.2643,29.7075],[-82.2643,29.7101],[-82.2723,29.7102],[-82.2835,29.6936],[-82.2849,29.6942],[-82.285,29.7033],[-82.2975,29.7037],[-82.2975,29.7066],[-82.3058,29.7065],[-82.3058,29.703],[-82.3224,29.7032],[-82.3224,29.7176],[-82.3391,29.7177],[-82.339,29.7322],[-82.3466,29.7322],[-82.3464,29.7453],[-82.3546,29.7449],[-82.3552,29.748],[-82.3575,29.7477],[-82.3579,29.7505],[-82.3607,29.7501],[-82.3611,29.752],[-82.3562,29.7528],[-82.3556,29.751],[-82.3463,29.7515],[-82.3463,29.7668],[-82.3518,29.7668],[-82.3573,29.7572],[-82.3696,29.7733],[-82.3712,29.7734],[-82.3711,29.7705],[-82.3753,29.7705],[-82.3753,29.7745],[-82.3712,29.7757],[-82.3724,29.7777],[-82.4117,29.7778],[-82.412,29.7759],[-82.4092,29.7759],[-82.4091,29.7703],[-82.4034,29.77],[-82.4032,29.7615],[-82.3888,29.7455],[-82.3891,29.7325],[-82.4055,29.7325],[-82.4055,29.7234],[-82.4055,29.7185],[-82.4009,29.7201],[-82.3987,29.7179],[-82.3971,29.7215],[-82.3972,29.7179],[-82.3954,29.7179],[-82.3955,29.7112],[-82.3973,29.7106],[-82.3974,29.7032],[-82.399,29.7033],[-82.399,29.7016],[-82.3972,29.7015],[-82.3972,29.696],[-82.3889,29.6965],[-82.3889,29.6938],[-82.3896,29.6926],[-82.3971,29.6932],[-82.3974,29.6888],[-82.3916,29.6874],[-82.3923,29.6906],[-82.3895,29.6906],[-82.3891,29.6885],[-82.3905,29.6879],[-82.3889,29.6878],[-82.389,29.6796],[-82.3953,29.6796],[-82.3952,29.6759],[-82.389,29.6755],[-82.389,29.6741],[-82.4015,29.6741],[-82.4016,29.6595],[-82.4082,29.6597],[-82.4097,29.6661],[-82.4175,29.6657],[-82.4154,29.6642],[-82.4157,29.6625],[-82.4113,29.6643],[-82.4138,29.6632],[-82.4129,29.6598],[-82.4203,29.66],[-82.4194,29.6576],[-82.4224,29.6563],[-82.4224,29.6542],[-82.4175,29.6533],[-82.4166,29.6559],[-82.403,29.6401],[-82.4087,29.64],[-82.4102,29.6437],[-82.4119,29.6437],[-82.4169,29.643],[-82.4153,29.6427],[-82.4169,29.641],[-82.4224,29.641],[-82.4225,29.6379]],[[-82.3884,29.7403],[-82.3883,29.7447],[-82.3851,29.7413],[-82.3863,29.7403],[-82.3811,29.7361],[-82.3884,29.7361],[-82.3884,29.7403]]],[[[-82.3994,29.6165],[-82.3993,29.6144],[-82.3968,29.6146],[-82.3965,29.612],[-82.394,29.6133],[-82.3949,29.6165],[-82.3994,29.6165]]],[[[-82.406,29.6138],[-82.404,29.6112],[-82.4039,29.6138],[-82.406,29.6138]]],[[[-82.4225,29.6161],[-82.4127,29.6159],[-82.4104,29.617],[-82.409,29.6221],[-82.4194,29.6214],[-82.4194,29.6163],[-82.4225,29.6161]]]]}},{"type":"Feature","properties":{"kind":"east","label":"East Gainesville (east of Main St)"},"geometry":{"type":"MultiPolygon","coordinates":[[[[-82.3195,29.6248],[-82.3233,29.6219],[-82.3137,29.6169],[-82.313,29.6135],[-82.3249,29.61473],[-82.3249,29.62075],[-82.3195,29.6248]]],[[[-82.3224,29.7176],[-82.3224,29.7032],[-82.3058,29.703],[-82.3058,29.7065],[-82.2975,29.7066],[-82.2975,29.7037],[-82.285,29.7033],[-82.2849,29.6942],[-82.2835,29.6936],[-82.2723,29.7102],[-82.2643,29.7101],[-82.2643,29.7075],[-82.2557,29.7075],[-82.2557,29.6882],[-82.2225,29.6879],[-82.2224,29.6735],[-82.236,29.6735],[-82.2413,29.6772],[-82.2413,29.6808],[-82.2602,29.684],[-82.261,29.6792],[-82.2578,29.6788],[-82.2579,29.6736],[-82.2891,29.6737],[-82.2892,29.6665],[-82.2779,29.6666],[-82.2725,29.6628],[-82.2724,29.652],[-82.2774,29.6518],[-82.2783,29.6483],[-82.2724,29.6482],[-82.2725,29.6445],[-82.2793,29.6445],[-82.2796,29.6463],[-82.2843,29.6467],[-82.285,29.6408],[-82.2892,29.6419],[-82.2892,29.6373],[-82.2975,29.6373],[-82.2975,29.6335],[-82.2995,29.6336],[-82.2996,29.63],[-82.3052,29.6299],[-82.3058,29.6311],[-82.3058,29.6191],[-82.3087,29.6191],[-82.3112,29.6277],[-82.3181,29.6277],[-82.3181,29.6299],[-82.3222,29.6298],[-82.3249,29.62536],[-82.3249,29.71761],[-82.3224,29.7176]]]]}},{"type":"Feature","properties":{"kind":"gcra","label":"GCRA boundary"},"geometry":{"type":"Polygon","coordinates":[[[-82.2887,29.6863],[-82.28828,29.68554],[-82.28011,29.68552],[-82.28012,29.68418],[-82.27697,29.68417],[-82.27701,29.67853],[-82.28887,29.68466],[-82.30227,29.6649],[-82.28914,29.66483],[-82.28915,29.65917],[-82.29224,29.65918],[-82.29215,29.65203],[-82.28457,29.65201],[-82.28458,29.65158],[-82.28416,29.65015],[-82.28388,29.64976],[-82.2844,29.64816],[-82.28424,29.64455],[-82.28925,29.64457],[-82.28924,29.6427],[-82.29499,29.64558],[-82.295,29.64459],[-82.3015,29.64461],[-82.30152,29.64054],[-82.30255,29.64055],[-82.30254,29.64064],[-82.30571,29.64065],[-82.30577,29.64109],[-82.31101,29.64111],[-82.31101,29.63985],[-82.31176,29.63985],[-82.31213,29.63916],[-82.3126,29.63853],[-82.30603,29.63852],[-82.30603,29.63647],[-82.30503,29.63647],[-82.30503,29.63687],[-82.30296,29.63686],[-82.30296,29.63716],[-82.29807,29.63712],[-82.29807,29.63726],[-82.29752,29.63729],[-82.29752,29.63355],[-82.29953,29.63359],[-82.29961,29.62999],[-82.30519,29.63],[-82.30519,29.63115],[-82.3057,29.63115],[-82.3057,29.63156],[-82.30605,29.63155],[-82.3064,29.6318],[-82.30683,29.63193],[-82.31248,29.63193],[-82.31375,29.63598],[-82.3141,29.63665],[-82.31465,29.63732],[-82.3172,29.63554],[-82.31734,29.63556],[-82.31793,29.63516],[-82.31923,29.63418],[-82.32094,29.6324],[-82.32143,29.63162],[-82.32246,29.63164],[-82.32258,29.63567],[-82.32228,29.63589],[-82.32208,29.63698],[-82.32045,29.63742],[-82.31956,29.63784],[-82.31853,29.63782],[-82.31788,29.63816],[-82.31734,29.63853],[-82.31729,29.63865],[-82.31368,29.63867],[-82.31364,29.64337],[-82.31741,29.64339],[-82.31742,29.64284],[-82.32007,29.64195],[-82.31988,29.64157],[-82.32262,29.64045],[-82.32328,29.64051],[-82.32371,29.64017],[-82.32579,29.64069],[-82.32617,29.63894],[-82.32748,29.63542],[-82.32772,29.63566],[-82.32819,29.63591],[-82.32917,29.63614],[-82.33434,29.6365],[-82.33565,29.63652],[-82.33714,29.63638],[-82.33957,29.63631],[-82.33957,29.63742],[-82.33944,29.63741],[-82.33946,29.65193],[-82.3509,29.65198],[-82.35089,29.65409],[-82.34938,29.65408],[-82.34938,29.65588],[-82.3419,29.65587],[-82.3419,29.65765],[-82.33931,29.65764],[-82.33931,29.65818],[-82.33949,29.65895],[-82.33949,29.65948],[-82.33101,29.65948],[-82.33101,29.65955],[-82.3265,29.65947],[-82.3265,29.65931],[-82.32384,29.6593],[-82.32382,29.65341],[-82.32003,29.65339],[-82.32008,29.65324],[-82.31771,29.65322],[-82.31766,29.65396],[-82.31021,29.65403],[-82.31021,29.65507],[-82.31037,29.65515],[-82.31037,29.65565],[-82.30984,29.65565],[-82.30864,29.65742],[-82.30987,29.65743],[-82.30985,29.65925],[-82.30935,29.65924],[-82.30935,29.66074],[-82.30863,29.66075],[-82.30863,29.66155],[-82.3107,29.66157],[-82.31067,29.66225],[-82.31025,29.66297],[-82.31018,29.66336],[-82.3057,29.66334],[-82.30573,29.66637],[-82.30362,29.66636],[-82.30051,29.67101],[-82.30268,29.67228],[-82.30282,29.67277],[-82.30273,29.67394],[-82.29897,29.67389],[-82.29693,29.67689],[-82.29702,29.67708],[-82.29401,29.68156],[-82.29296,29.68156],[-82.29074,29.6847],[-82.29036,29.68543],[-82.2919,29.68622],[-82.29092,29.68744],[-82.2887,29.6863]]]}},{"type":"Feature","properties":{"kind":"priority","label":"Community enhancement & housing"},"geometry":{"type":"Polygon","coordinates":[[[-82.33909,29.65922],[-82.33832,29.65919],[-82.33709,29.65944],[-82.32775,29.65939],[-82.32665,29.65914],[-82.32506,29.65918],[-82.32513,29.65197],[-82.3393,29.65208],[-82.33909,29.65922]]]}},{"type":"Feature","properties":{"kind":"priority","label":"Community enhancement & housing"},"geometry":{"type":"MultiPolygon","coordinates":[[[[-82.33116,29.64355],[-82.33119,29.64355],[-82.33116,29.64355],[-82.33116,29.64355]]],[[[-82.33116,29.64355],[-82.33128,29.64403],[-82.33127,29.64721],[-82.32719,29.64712],[-82.32654,29.64704],[-82.32581,29.64714],[-82.32501,29.64713],[-82.32496,29.64518],[-82.32502,29.64472],[-82.32525,29.64457],[-82.33116,29.64355]]]]}},{"type":"Feature","properties":{"kind":"priority","label":"Community enhancement & housing"},"geometry":{"type":"Polygon","coordinates":[[[-82.30585,29.64454],[-82.30167,29.64447],[-82.30176,29.64158],[-82.30587,29.64154],[-82.30585,29.64454]]]}},{"type":"Feature","properties":{"kind":"priority","label":"Community enhancement & housing"},"geometry":{"type":"Polygon","coordinates":[[[-82.30266,29.66493],[-82.28914,29.66483],[-82.28915,29.65917],[-82.29224,29.65918],[-82.29215,29.65203],[-82.31114,29.6521],[-82.30266,29.66493]]]}},{"type":"Feature","properties":{"kind":"priority","label":"Economic development"},"geometry":{"type":"Polygon","coordinates":[[[-82.29547,29.64582],[-82.29546,29.64487],[-82.29502,29.64487],[-82.29533,29.6447],[-82.29605,29.64459],[-82.29748,29.6446],[-82.29743,29.64682],[-82.29547,29.64582]]]}},{"type":"Feature","properties":{"kind":"priority","label":"Economic development"},"geometry":{"type":"Polygon","coordinates":[[[-82.31077,29.65198],[-82.31106,29.65233],[-82.30946,29.65473],[-82.30584,29.65478],[-82.30583,29.65193],[-82.31077,29.65198]]]}},{"type":"Feature","properties":{"kind":"priority","label":"Economic development"},"geometry":{"type":"Polygon","coordinates":[[[-82.30648,29.6593],[-82.30532,29.66115],[-82.30463,29.66106],[-82.30467,29.65924],[-82.30648,29.6593]]]}},{"type":"Feature","properties":{"kind":"priority","label":"Economic development"},"geometry":{"type":"Polygon","coordinates":[[[-82.28916,29.66479],[-82.28927,29.65195],[-82.30583,29.65193],[-82.30584,29.65478],[-82.30946,29.65473],[-82.30648,29.6593],[-82.30467,29.65924],[-82.30463,29.66106],[-82.30532,29.66115],[-82.30279,29.66484],[-82.28916,29.66479]]]}},{"type":"Feature","properties":{"kind":"priority","label":"Economic development"},"geometry":{"type":"Polygon","coordinates":[[[-82.31979,29.64536],[-82.3198,29.6471],[-82.32089,29.64714],[-82.32092,29.64838],[-82.31885,29.64825],[-82.31887,29.64703],[-82.31794,29.64705],[-82.318,29.6458],[-82.31979,29.64536]]]}},{"type":"Feature","properties":{"kind":"priority","label":"Economic development"},"geometry":{"type":"Polygon","coordinates":[[[-82.32496,29.64773],[-82.32393,29.64773],[-82.32391,29.64718],[-82.32495,29.64719],[-82.32496,29.64773]]]}},{"type":"Feature","properties":{"kind":"priority","label":"Economic development"},"geometry":{"type":"Polygon","coordinates":[[[-82.32269,29.64113],[-82.32119,29.64259],[-82.32084,29.64194],[-82.32194,29.64088],[-82.3219,29.6408],[-82.32224,29.64065],[-82.32269,29.64113]]]}},{"type":"Feature","properties":{"kind":"priority","label":"Economic development"},"geometry":{"type":"Polygon","coordinates":[[[-82.33132,29.64485],[-82.33923,29.64489],[-82.33927,29.65206],[-82.33085,29.65205],[-82.33087,29.64902],[-82.33115,29.64835],[-82.33132,29.64485]]]}},{"type":"Feature","properties":{"kind":"priority","label":"Public space & streetscape"},"geometry":{"type":"LineString","coordinates":[[-82.35071,29.65199],[-82.28457,29.65201]]}},{"type":"Feature","properties":{"kind":"priority","label":"Public space & streetscape"},"geometry":{"type":"LineString","coordinates":[[-82.33905,29.65948],[-82.33914,29.63635]]}},{"type":"Feature","properties":{"kind":"priority","label":"Public space & streetscape"},"geometry":{"type":"LineString","coordinates":[[-82.33909,29.65028],[-82.31938,29.6503],[-82.31759,29.65011],[-82.31501,29.64997],[-82.31336,29.65007],[-82.30483,29.65005]]}},{"type":"Feature","properties":{"kind":"priority","label":"Public space & streetscape"},"geometry":{"type":"LineString","coordinates":[[-82.3391,29.64839],[-82.33332,29.6484],[-82.33282,29.64829],[-82.3207,29.64835],[-82.31978,29.64827],[-82.31088,29.64828]]}},{"type":"Feature","properties":{"kind":"priority","label":"Public space & streetscape"},"geometry":{"type":"LineString","coordinates":[[-82.30715,29.65201],[-82.28924,29.64305]]}},{"type":"Feature","properties":{"kind":"priority","label":"Public space & streetscape"},"geometry":{"type":"LineString","coordinates":[[-82.31149,29.65201],[-82.28924,29.68506]]}},{"type":"Feature","properties":{"kind":"priority","label":"Public space & streetscape"},"geometry":{"type":"LineString","coordinates":[[-82.31458,29.63725],[-82.31282,29.63882],[-82.31176,29.64106],[-82.31149,29.65201]]}},{"type":"Feature","properties":{"kind":"priority","label":"Public space & streetscape"},"geometry":{"type":"LineString","coordinates":[[-82.28915,29.65917],[-82.30589,29.65928],[-82.3065,29.65942]]}}]}