{"type":"FeatureCollection","features":[{"type":"Feature","geometry":{"type":"Point","coordinates":[-82.33759,29.650217]},"properties":{"site":"SW 2nd Ave Bike Lane Counter","daily":216,"weekday":271,"weekend":78,"users":"100% bicyclists","on_trail":false,"modeled":1546}},{"type":"Feature","geometry":{"type":"Point","coordinates":[-82.325514,29.644417]},"properties":{"site":"Depot Trail at Main St","daily":422,"weekday":423,"weekend":422,"users":"26% bicyclists, 74% pedestrians","on_trail":true,"modeled":422}},{"type":"Feature","geometry":{"type":"Point","coordinates":[-82.320738,29.639467]},"properties":{"site":"Hawthorne Trail South of Depot Park","daily":697,"weekday":644,"weekend":827,"users":"31% bicyclists, 69% pedestrians","on_trail":false,"modeled":111}},{"type":"Feature","geometry":{"type":"Point","coordinates":[-82.338741,29.641452]},"properties":{"site":"Depot Trail at Helyx Bridge","daily":705,"weekday":841,"weekend":359,"users":"30% bicyclists, 70% pedestrians","on_trail":true,"modeled":705}},{"type":"Feature","geometry":{"type":"Point","coordinates":[-82.307582,29.657475]},"properties":{"site":"Waldo Road Greenway at 600 Block North","daily":72,"weekday":74,"weekend":68,"users":"User type distribution not available","on_trail":true,"modeled":72}},{"type":"Feature","geometry":{"type":"Point","coordinates":[-82.37819,29.63678]},"properties":{"site":"Archer Braid at Hull Road","daily":126,"weekday":135,"weekend":104,"users":"27% bicyclists, 73% pedestrians","on_trail":false,"modeled":304}},{"type":"Feature","geometry":{"type":"Point","coordinates":[-82.386976,29.625777]},"properties":{"site":"Archer Braid at SW 30th Ave","daily":63,"weekday":65,"weekend":57,"users":"23% bicyclists, 77% pedestrians","on_trail":false,"modeled":731}},{"type":"Feature","geometry":{"type":"Point","coordinates":[-82.381058,29.632383]},"properties":{"site":"Archer Braid at SW 38th St","daily":248,"weekday":260,"weekend":217,"users":"29% bicyclists, 71% pedestrians","on_trail":false,"modeled":229}},{"type":"Feature","geometry":{"type":"Point","coordinates":[-82.359,29.62795]},"properties":{"site":"SW 23rd Terrace Trail","daily":226,"weekday":244,"weekend":182,"users":"46% bicyclists, 54% pedestrians","on_trail":false,"modeled":177}},{"type":"Feature","geometry":{"type":"Point","coordinates":[-82.380398,29.611279]},"properties":{"site":"SW 40th Blvd","daily":49,"weekday":51,"weekend":45,"users":"39% bicyclists, 61% pedestrians","on_trail":false,"modeled":152}},{"type":"Feature","geometry":{"type":"Point","coordinates":[-82.35142,29.65191]},"properties":{"site":"University Ave Counter - South","daily":481,"weekday":421,"weekend":631,"users":"27% bicyclists, 73% pedestrians","on_trail":false,"modeled":316}},{"type":"Feature","geometry":{"type":"Point","coordinates":[-82.35134,29.65212]},"properties":{"site":"University Ave Counter - North","daily":293,"weekday":198,"weekend":537,"users":"14% bicyclists, 86% pedestrians","on_trail":false,"modeled":293}},{"type":"Feature","geometry":{"type":"Point","coordinates":[-82.294598,29.676516]},"properties":{"site":"Waldo Rd Greenway at NE 27th Ave","daily":183,"weekday":184,"weekend":181,"users":"67% bicyclists, 33% pedestrians","on_trail":true,"modeled":183}},{"type":"Feature","geometry":{"type":"Point","coordinates":[-82.309272,29.621246]},"properties":{"site":"Hawthorne State Trail at Boulware Springs Park","daily":522,"weekday":439,"weekend":731,"users":"49% bicyclists, 51% pedestrians","on_trail":true,"modeled":522}},{"type":"Feature","geometry":{"type":"Point","coordinates":[-82.330725,29.656019]},"properties":{"site":"6th St Trail at NW 6th Avenue","daily":405,"weekday":433,"weekend":335,"users":"52% bicyclists, 48% pedestrians","on_trail":true,"modeled":405}},{"type":"Feature","geometry":{"type":"Point","coordinates":[-82.330758,29.651011]},"properties":{"site":"6th St Trail at SW 2nd Avenue","daily":339,"weekday":359,"weekend":291,"users":"41% bicyclists, 59% pedestrians","on_trail":true,"modeled":339}},{"type":"Feature","geometry":{"type":"Point","coordinates":[-82.314897,29.647342]},"properties":{"site":"Waldo Road Greenway at SE 9th Street","daily":135,"weekday":140,"weekend":123,"users":"57% bicyclists, 43% pedestrians","on_trail":true,"modeled":135}}]}