{"type":"FeatureCollection","features":[{"type":"Feature","geometry":{"type":"Polygon","coordinates":[[[-82.49599,29.68923],[-82.49604,29.65402],[-82.49025,29.65404],[-82.48767,29.65448],[-82.4724,29.65989],[-82.45838,29.66],[-82.45845,29.66154],[-82.46081,29.6617],[-82.46186,29.66243],[-82.46192,29.66547],[-82.46148,29.66594],[-82.46013,29.66602],[-82.45892,29.66699],[-82.45888,29.66733],[-82.46073,29.66762],[-82.45763,29.66965],[-82.4574,29.67062],[-82.45639,29.67176],[-82.45629,29.67432],[-82.44655,29.67439],[-82.448,29.67935],[-82.45263,29.68904],[-82.49599,29.68923]]]},"properties":{"geoid":"120010022042","pop":6100,"mhi":128063.0,"moe":26997.0,"low_income":false,"east":false,"in_city":false}},{"type":"Feature","geometry":{"type":"Polygon","coordinates":[[[-82.33364,29.64312],[-82.32653,29.64422],[-82.32658,29.65028],[-82.33235,29.65027],[-82.33234,29.64645],[-82.33307,29.64541],[-82.33307,29.64322],[-82.33364,29.64312]]]},"properties":{"geoid":"120010002021","pop":1594,"mhi":24091.0,"moe":15998.0,"low_income":true,"east":false,"in_city":true}},{"type":"Feature","geometry":{"type":"Polygon","coordinates":[[[-82.37241,29.65951],[-82.37242,29.65032],[-82.36416,29.6504],[-82.3643,29.64506],[-82.36263,29.64496],[-82.36261,29.64779],[-82.36128,29.64777],[-82.36153,29.65038],[-82.35572,29.65039],[-82.35681,29.65334],[-82.35653,29.65944],[-82.37241,29.65951]]]},"properties":{"geoid":"120010010002","pop":1290,"mhi":92734.0,"moe":59303.0,"low_income":false,"east":false,"in_city":true}},{"type":"Feature","geometry":{"type":"Polygon","coordinates":[[[-82.308,29.61535],[-82.30755,29.61346],[-82.30524,29.60936],[-82.30456,29.60873],[-82.30064,29.60743],[-82.29814,29.60745],[-82.29592,29.60571],[-82.29528,29.60175],[-82.29265,29.59848],[-82.28408,29.59584],[-82.28231,29.59645],[-82.27337,29.60353],[-82.2726,29.60514],[-82.27195,29.60776],[-82.27136,29.60826],[-82.26311,29.61329],[-82.25396,29.61207],[-82.25366,29.61273],[-82.25483,29.61394],[-82.25548,29.61518],[-82.25606,29.61997],[-82.2574,29.62336],[-82.25937,29.62614],[-82.26233,29.62872],[-82.26683,29.63241],[-82.26881,29.63366],[-82.28919,29.64291],[-82.2893,29.61575],[-82.29045,29.6154],[-82.308,29.61535]]]},"properties":{"geoid":"120010007004","pop":2039,"mhi":48162.0,"moe":29487.0,"low_income":true,"east":false,"in_city":false}},{"type":"Feature","geometry":{"type":"Polygon","coordinates":[[[-82.46195,29.66275],[-82.46176,29.66229],[-82.46081,29.6617],[-82.45845,29.66154],[-82.45838,29.66],[-82.44661,29.65994],[-82.44655,29.67439],[-82.45629,29.67432],[-82.45639,29.67176],[-82.4574,29.67062],[-82.45763,29.66965],[-82.46073,29.66762],[-82.45888,29.66733],[-82.45892,29.66699],[-82.46013,29.66602],[-82.46185,29.66568],[-82.46195,29.66275]]]},"properties":{"geoid":"120010022041","pop":1669,"mhi":114730.0,"moe":26382.0,"low_income":false,"east":false,"in_city":false}},{"type":"Feature","geometry":{"type":"Polygon","coordinates":[[[-82.33935,29.6449],[-82.33938,29.64098],[-82.33746,29.64218],[-82.33307,29.64322],[-82.33308,29.64504],[-82.33935,29.6449]]]},"properties":{"geoid":"120010002023","pop":1514,"mhi":13926.0,"moe":10535.0,"low_income":true,"east":false,"in_city":true}},{"type":"Feature","geometry":{"type":"Polygon","coordinates":[[[-82.33537,29.63996],[-82.33535,29.63661],[-82.32881,29.63616],[-82.32755,29.63571],[-82.32629,29.63913],[-82.32503,29.64447],[-82.33365,29.64299],[-82.33305,29.6428],[-82.33304,29.64187],[-82.33357,29.64107],[-82.33448,29.64061],[-82.33452,29.64027],[-82.33537,29.63996]]]},"properties":{"geoid":"120010008062","pop":1176,"mhi":22358.0,"moe":3423.0,"low_income":true,"east":false,"in_city":true}},{"type":"Feature","geometry":{"type":"Polygon","coordinates":[[[-82.30584,29.65198],[-82.30584,29.65134],[-82.3053,29.65098],[-82.29017,29.64335],[-82.27249,29.63539],[-82.27248,29.66276],[-82.2883,29.6628],[-82.28708,29.65971],[-82.28623,29.65922],[-82.30164,29.65921],[-82.30167,29.65197],[-82.30584,29.65198]]]},"properties":{"geoid":"120010006003","pop":2292,"mhi":29366.0,"moe":2458.0,"low_income":true,"east":true,"in_city":true}},{"type":"Feature","geometry":{"type":"Polygon","coordinates":[[[-82.31775,29.6458],[-82.30586,29.64578],[-82.30584,29.65134],[-82.30722,29.65202],[-82.31147,29.65198],[-82.31154,29.6512],[-82.31181,29.6512],[-82.31286,29.64948],[-82.31511,29.64703],[-82.31775,29.6458]]]},"properties":{"geoid":"120010007001","pop":590,"mhi":57667.0,"moe":46997.0,"low_income":false,"east":true,"in_city":true}},{"type":"Feature","geometry":{"type":"Polygon","coordinates":[[[-82.46504,29.51437],[-82.46726,29.51435],[-82.45083,29.50615],[-82.44629,29.50496],[-82.43999,29.50462],[-82.43967,29.52553],[-82.43913,29.52681],[-82.43822,29.52779],[-82.43692,29.5285],[-82.43555,29.52876],[-82.43546,29.53944],[-82.43754,29.53987],[-82.43757,29.55052],[-82.4295,29.55059],[-82.42858,29.55168],[-82.42728,29.55061],[-82.42624,29.55036],[-82.42605,29.55099],[-82.42673,29.55082],[-82.42704,29.55138],[-82.4276,29.5515],[-82.42748,29.55239],[-82.42697,29.55255],[-82.42759,29.55352],[-82.42704,29.55375],[-82.42598,29.55297],[-82.42541,29.55311],[-82.42474,29.55461],[-82.4249,29.55529],[-82.42401,29.55652],[-82.4238,29.55587],[-82.42423,29.55527],[-82.42422,29.55405],[-82.42344,29.55366],[-82.42322,29.55305],[-82.4217,29.55327],[-82.42132,29.55241],[-82.42187,29.55212],[-82.4219,29.55096],[-82.42158,29.55049],[-82.42088,29.551],[-82.42043,29.5501],[-82.41982,29.54998],[-82.41931,29.55023],[-82.41949,29.55107],[-82.41921,29.55132],[-82.41832,29.54991],[-82.41748,29.55009],[-82.41713,29.55051],[-82.41659,29.55003],[-82.41652,29.54942],[-82.41751,29.54939],[-82.41809,29.54904],[-82.41841,29.54779],[-82.4181,29.54758],[-82.41731,29.54793],[-82.41694,29.54709],[-82.41474,29.54707],[-82.41454,29.55585],[-82.41864,29.55599],[-82.41887,29.55778],[-82.42387,29.55785],[-82.42381,29.56278],[-82.42431,29.5653],[-82.4238,29.56722],[-82.42438,29.56944],[-82.42399,29.57069],[-82.42283,29.5711],[-82.42271,29.59231],[-82.42279,29.59544],[-82.42376,29.59768],[-82.4522,29.58266],[-82.45655,29.57981],[-82.45376,29.57686],[-82.44444,29.57698],[-82.44444,29.5787],[-82.43951,29.57869],[-82.43959,29.55795],[-82.46476,29.55808],[-82.46486,29.5422],[-82.45682,29.54219],[-82.45679,29.52843],[-82.46494,29.52892],[-82.46504,29.51437]]]},"properties":{"geoid":"120010022093","pop":4513,"mhi":116190.0,"moe":32354.0,"low_income":false,"east":false,"in_city":false}},{"type":"Feature","geometry":{"type":"Polygon","coordinates":[[[-82.33919,29.67397],[-82.33922,29.66668],[-82.32453,29.66664],[-82.32413,29.66919],[-82.32156,29.67389],[-82.33919,29.67397]]]},"properties":{"geoid":"120010003011","pop":1849,"mhi":49294.0,"moe":8046.0,"low_income":true,"east":false,"in_city":true}},{"type":"Feature","geometry":{"type":"Polygon","coordinates":[[[-82.35152,29.68576],[-82.35152,29.68109],[-82.3467,29.67475],[-82.34569,29.67422],[-82.34428,29.67402],[-82.33919,29.67397],[-82.33894,29.6986],[-82.33926,29.6996],[-82.33888,29.69964],[-82.34309,29.70321],[-82.3473,29.70327],[-82.34727,29.69588],[-82.35137,29.69585],[-82.35148,29.68852],[-82.34738,29.68855],[-82.34743,29.68572],[-82.35152,29.68576]]]},"properties":{"geoid":"120010012031","pop":3881,"mhi":70037.0,"moe":15634.0,"low_income":false,"east":false,"in_city":true}},{"type":"Feature","geometry":{"type":"Polygon","coordinates":[[[-82.36788,29.70151],[-82.36763,29.70099],[-82.36762,29.69881],[-82.36671,29.69881],[-82.36671,29.69593],[-82.36763,29.69593],[-82.36765,29.69505],[-82.36684,29.69505],[-82.36681,29.69317],[-82.36597,29.6916],[-82.36597,29.68866],[-82.35836,29.68857],[-82.35793,29.69441],[-82.35668,29.69685],[-82.35664,29.69822],[-82.35702,29.69898],[-82.35857,29.70022],[-82.35864,29.70332],[-82.36376,29.70333],[-82.36788,29.70151]]]},"properties":{"geoid":"120010012021","pop":1905,"mhi":71196.0,"moe":11963.0,"low_income":false,"east":false,"in_city":true}},{"type":"Feature","geometry":{"type":"Polygon","coordinates":[[[-82.44682,29.68903],[-82.43255,29.67431],[-82.43003,29.67429],[-82.43033,29.67601],[-82.43026,29.68889],[-82.44682,29.68903]]]},"properties":{"geoid":"120010017013","pop":596,"mhi":66325.0,"moe":19157.0,"low_income":false,"east":false,"in_city":false}},{"type":"Feature","geometry":{"type":"Polygon","coordinates":[[[-82.43933,29.61598],[-82.43871,29.61167],[-82.43721,29.6095],[-82.4368,29.60825],[-82.43696,29.60724],[-82.43793,29.60557],[-82.43844,29.6039],[-82.43598,29.60358],[-82.43384,29.60451],[-82.43299,29.60586],[-82.43253,29.60842],[-82.43158,29.60931],[-82.42763,29.61029],[-82.42261,29.61029],[-82.42247,29.63051],[-82.4392,29.63047],[-82.43892,29.62904],[-82.43641,29.62716],[-82.43598,29.6265],[-82.43596,29.62096],[-82.43933,29.61598]]]},"properties":{"geoid":"120010022211","pop":1849,"mhi":130313.0,"moe":99712.0,"low_income":false,"east":false,"in_city":false}},{"type":"Feature","geometry":{"type":"Polygon","coordinates":[[[-82.44707,29.62817],[-82.44637,29.62595],[-82.4458,29.6261],[-82.44087,29.62152],[-82.43708,29.61918],[-82.43597,29.62081],[-82.43598,29.6265],[-82.43641,29.62716],[-82.43892,29.62904],[-82.4392,29.63047],[-82.44557,29.63059],[-82.44577,29.62965],[-82.44633,29.62975],[-82.44697,29.62898],[-82.44707,29.62817]]]},"properties":{"geoid":"120010022221","pop":707,"mhi":212094.0,"moe":63129.0,"low_income":false,"east":false,"in_city":false}},{"type":"Feature","geometry":{"type":"Polygon","coordinates":[[[-82.42376,29.59768],[-82.423,29.59625],[-82.42272,29.59489],[-82.42283,29.57647],[-82.40326,29.57625],[-82.39955,29.57538],[-82.3925,29.57593],[-82.39202,29.57845],[-82.39209,29.58005],[-82.39066,29.58013],[-82.38782,29.57831],[-82.38682,29.5762],[-82.38328,29.57412],[-82.38247,29.57306],[-82.38105,29.57238],[-82.38025,29.57149],[-82.37832,29.57063],[-82.37448,29.56962],[-82.36473,29.56811],[-82.35799,29.56631],[-82.34921,29.56649],[-82.36236,29.5894],[-82.38044,29.60986],[-82.38624,29.6173],[-82.42376,29.59768]]]},"properties":{"geoid":"120010022201","pop":2815,"mhi":74318.0,"moe":31914.0,"low_income":false,"east":false,"in_city":false}},{"type":"Feature","geometry":{"type":"Polygon","coordinates":[[[-82.33922,29.66668],[-82.33921,29.65919],[-82.33512,29.65943],[-82.32311,29.65923],[-82.32309,29.6666],[-82.33922,29.66668]]]},"properties":{"geoid":"120010003012","pop":1535,"mhi":51026.0,"moe":7335.0,"low_income":true,"east":false,"in_city":true}},{"type":"Feature","geometry":{"type":"Polygon","coordinates":[[[-82.33909,29.68854],[-82.33919,29.67397],[-82.3308,29.67393],[-82.33088,29.68854],[-82.33909,29.68854]]]},"properties":{"geoid":"120010003023","pop":1318,"mhi":40822.0,"moe":6933.0,"low_income":true,"east":false,"in_city":true}},{"type":"Feature","geometry":{"type":"Polygon","coordinates":[[[-82.47261,29.63079],[-82.47305,29.56782],[-82.45394,29.58163],[-82.43896,29.58966],[-82.43928,29.59103],[-82.43908,29.60057],[-82.43844,29.6039],[-82.43956,29.60418],[-82.44135,29.60524],[-82.44279,29.60547],[-82.44746,29.60428],[-82.45323,29.6034],[-82.45339,29.60428],[-82.4547,29.60641],[-82.45388,29.60918],[-82.45431,29.61166],[-82.45393,29.61286],[-82.45238,29.61398],[-82.44773,29.61403],[-82.44743,29.61543],[-82.44652,29.61673],[-82.44696,29.61731],[-82.44683,29.61829],[-82.44709,29.6186],[-82.44579,29.61927],[-82.44625,29.62004],[-82.44606,29.62311],[-82.44703,29.62311],[-82.44701,29.6237],[-82.44636,29.62463],[-82.44707,29.62506],[-82.44706,29.62629],[-82.44673,29.62656],[-82.44704,29.62881],[-82.44636,29.62973],[-82.44577,29.62965],[-82.44557,29.63059],[-82.47261,29.63079]]]},"properties":{"geoid":"120010022222","pop":3334,"mhi":163838.0,"moe":36530.0,"low_income":false,"east":false,"in_city":false}},{"type":"Feature","geometry":{"type":"Polygon","coordinates":[[[-82.43909,29.59777],[-82.43922,29.5903],[-82.43896,29.58966],[-82.42024,29.59953],[-82.42239,29.60174],[-82.42266,29.60415],[-82.43056,29.60466],[-82.43055,29.60569],[-82.43174,29.60459],[-82.43165,29.60296],[-82.43204,29.60235],[-82.43336,29.60206],[-82.43424,29.60264],[-82.43787,29.59962],[-82.43734,29.59908],[-82.43819,29.59775],[-82.43909,29.59777]]]},"properties":{"geoid":"120010022213","pop":2225,"mhi":93921.0,"moe":14937.0,"low_income":false,"east":false,"in_city":false}},{"type":"Feature","geometry":{"type":"Polygon","coordinates":[[[-82.33921,29.65919],[-82.33928,29.65392],[-82.33291,29.65387],[-82.33295,29.65943],[-82.33921,29.65919]]]},"properties":{"geoid":"120010002012","pop":1087,"mhi":null,"moe":null,"low_income":false,"east":false,"in_city":true}},{"type":"Feature","geometry":{"type":"Polygon","coordinates":[[[-82.36811,29.60943],[-82.37159,29.60914],[-82.37101,29.60378],[-82.3591,29.61213],[-82.35976,29.61363],[-82.36265,29.61351],[-82.36811,29.60943]]]},"properties":{"geoid":"120010015172","pop":1169,"mhi":null,"moe":null,"low_income":false,"east":false,"in_city":true}},{"type":"Feature","geometry":{"type":"Polygon","coordinates":[[[-82.25775,29.62535],[-82.25765,29.625],[-82.25658,29.62436],[-82.25478,29.62086],[-82.25275,29.61886],[-82.25233,29.61874],[-82.25192,29.61915],[-82.25145,29.61858],[-82.2535,29.61785],[-82.25158,29.61807],[-82.25184,29.61774],[-82.24919,29.6151],[-82.24869,29.61404],[-82.2483,29.61117],[-82.18895,29.59899],[-82.18876,29.53877],[-82.18677,29.53822],[-82.18572,29.53712],[-82.18274,29.53568],[-82.18163,29.53436],[-82.17977,29.52517],[-82.17998,29.52469],[-82.17848,29.52363],[-82.17758,29.52229],[-82.17664,29.52162],[-82.17493,29.52118],[-82.17422,29.5221],[-82.17396,29.52372],[-82.17355,29.52409],[-82.17251,29.52414],[-82.17169,29.52456],[-82.16948,29.52462],[-82.1694,29.52318],[-82.16454,29.52454],[-82.16294,29.52576],[-82.16172,29.52727],[-82.15911,29.52796],[-82.15636,29.53045],[-82.1479,29.53414],[-82.14699,29.53415],[-82.14676,29.53327],[-82.14547,29.53257],[-82.14156,29.53256],[-82.13916,29.5333],[-82.13717,29.53507],[-82.13644,29.53624],[-82.13613,29.53765],[-82.13572,29.54456],[-82.13624,29.55802],[-82.1372,29.56017],[-82.13806,29.56055],[-82.13944,29.56263],[-82.14059,29.56529],[-82.14092,29.5674],[-82.14192,29.56924],[-82.14268,29.57185],[-82.14602,29.57629],[-82.14733,29.57905],[-82.1496,29.58075],[-82.15205,29.58332],[-82.15244,29.58537],[-82.15333,29.5867],[-82.15253,29.58753],[-82.15107,29.59026],[-82.15057,29.59261],[-82.14897,29.59373],[-82.14793,29.59518],[-82.14544,29.59737],[-82.14425,29.60094],[-82.1442,29.6022],[-82.14597,29.60339],[-82.14724,29.60539],[-82.15069,29.60955],[-82.15553,29.61774],[-82.16466,29.625],[-82.16551,29.62623],[-82.167,29.63729],[-82.16651,29.63909],[-82.16554,29.64036],[-82.16457,29.64264],[-82.1636,29.64406],[-82.16122,29.64579],[-82.16001,29.64794],[-82.1582,29.64987],[-82.15604,29.65299],[-82.15608,29.65435],[-82.14745,29.65613],[-82.14762,29.65926],[-82.1503,29.66213],[-82.15466,29.67682],[-82.15449,29.67754],[-82.15234,29.68027],[-82.15301,29.68501],[-82.14995,29.68811],[-82.14849,29.69559],[-82.15022,29.70033],[-82.15238,29.7026],[-82.15259,29.70326],[-82.15237,29.70415],[-82.14976,29.70776],[-82.14962,29.70889],[-82.15184,29.71147],[-82.15308,29.71357],[-82.16072,29.70788],[-82.17348,29.70371],[-82.20367,29.68811],[-82.20532,29.68789],[-82.22485,29.68788],[-82.22538,29.68714],[-82.2385,29.67564],[-82.23598,29.67354],[-82.23467,29.67353],[-82.2374,29.66915],[-82.23765,29.66702],[-82.23815,29.6662],[-82.23816,29.66511],[-82.23884,29.66381],[-82.23938,29.66126],[-82.2395,29.65668],[-82.24079,29.65546],[-82.23953,29.65427],[-82.23923,29.65123],[-82.23766,29.64723],[-82.23679,29.63976],[-82.2371,29.6388],[-82.23789,29.63785],[-82.23716,29.63634],[-82.24281,29.63619],[-82.2457,29.63483],[-82.24877,29.63297],[-82.25044,29.63149],[-82.25085,29.63169],[-82.25499,29.6297],[-82.25672,29.6278],[-82.25694,29.62708],[-82.25678,29.62574],[-82.25763,29.62568],[-82.25775,29.62535]]]},"properties":{"geoid":"120010020012","pop":908,"mhi":37179.0,"moe":31467.0,"low_income":true,"east":false,"in_city":false}},{"type":"Feature","geometry":{"type":"Polygon","coordinates":[[[-82.49598,29.73186],[-82.49594,29.71832],[-82.47199,29.71812],[-82.45195,29.7116],[-82.44759,29.71068],[-82.43197,29.71045],[-82.42407,29.71068],[-82.42839,29.71313],[-82.43033,29.71366],[-82.45518,29.72993],[-82.45528,29.74594],[-82.45487,29.75011],[-82.45479,29.78046],[-82.46391,29.78449],[-82.46597,29.78456],[-82.4715,29.78401],[-82.47377,29.78448],[-82.47564,29.78554],[-82.4796,29.78963],[-82.48151,29.79088],[-82.48351,29.79146],[-82.4906,29.79244],[-82.49426,29.79378],[-82.49417,29.78503],[-82.49454,29.78332],[-82.49428,29.78293],[-82.49401,29.77851],[-82.49312,29.74167],[-82.49357,29.73944],[-82.49576,29.73486],[-82.49598,29.73186]]]},"properties":{"geoid":"120010018172","pop":1531,"mhi":100250.0,"moe":20769.0,"low_income":false,"east":false,"in_city":false}},{"type":"Feature","geometry":{"type":"Polygon","coordinates":[[[-82.38093,29.634],[-82.38098,29.63019],[-82.37262,29.63028],[-82.3726,29.63422],[-82.38093,29.634]]]},"properties":{"geoid":"120010015223","pop":2902,"mhi":53291.0,"moe":40116.0,"low_income":false,"east":false,"in_city":true}},{"type":"Feature","geometry":{"type":"Polygon","coordinates":[[[-82.35772,29.61684],[-82.35735,29.61389],[-82.3568,29.61374],[-82.35656,29.61319],[-82.35506,29.61363],[-82.35578,29.62027],[-82.35751,29.62013],[-82.35732,29.61734],[-82.35772,29.61684]]]},"properties":{"geoid":"120010015162","pop":870,"mhi":19886.0,"moe":8588.0,"low_income":true,"east":false,"in_city":true}},{"type":"Feature","geometry":{"type":"Polygon","coordinates":[[[-82.29131,29.67654],[-82.29387,29.67382],[-82.29084,29.67223],[-82.29076,29.67145],[-82.29141,29.67027],[-82.28912,29.6692],[-82.28915,29.66443],[-82.289,29.66359],[-82.2883,29.6628],[-82.27248,29.66276],[-82.27246,29.64573],[-82.27087,29.6453],[-82.27039,29.64553],[-82.26824,29.64539],[-82.26562,29.64713],[-82.26206,29.6473],[-82.26127,29.64812],[-82.2599,29.65121],[-82.25925,29.65121],[-82.258,29.65058],[-82.25574,29.65039],[-82.25576,29.65183],[-82.26155,29.65191],[-82.26006,29.65235],[-82.25891,29.65346],[-82.25765,29.65784],[-82.25662,29.65958],[-82.22538,29.68714],[-82.22485,29.68788],[-82.23847,29.68792],[-82.24105,29.68737],[-82.24269,29.68633],[-82.25511,29.67474],[-82.25642,29.67401],[-82.25847,29.67358],[-82.26587,29.67369],[-82.26826,29.67424],[-82.2864,29.68356],[-82.29131,29.67654]]]},"properties":{"geoid":"120010014002","pop":2883,"mhi":36884.0,"moe":12561.0,"low_income":true,"east":false,"in_city":false}},{"type":"Feature","geometry":{"type":"Polygon","coordinates":[[[-82.40993,29.68404],[-82.40962,29.68322],[-82.4068,29.68319],[-82.40682,29.68243],[-82.40788,29.68067],[-82.40793,29.67982],[-82.40534,29.67798],[-82.40393,29.67654],[-82.40333,29.67496],[-82.40393,29.6741],[-82.38898,29.67409],[-82.38893,29.68873],[-82.40978,29.68883],[-82.40959,29.68508],[-82.40993,29.68404]]]},"properties":{"geoid":"120010017011","pop":2307,"mhi":101579.0,"moe":19264.0,"low_income":false,"east":false,"in_city":false}},{"type":"Feature","geometry":{"type":"Polygon","coordinates":[[[-82.42228,29.68882],[-82.42226,29.67411],[-82.40393,29.6741],[-82.40385,29.67452],[-82.40334,29.67482],[-82.40393,29.67654],[-82.40534,29.67798],[-82.40793,29.67982],[-82.40788,29.68067],[-82.40682,29.68243],[-82.4068,29.68319],[-82.40942,29.68318],[-82.40992,29.68348],[-82.40959,29.68508],[-82.40978,29.68883],[-82.42228,29.68882]]]},"properties":{"geoid":"120010017012","pop":743,"mhi":84142.0,"moe":30459.0,"low_income":false,"east":false,"in_city":false}},{"type":"Feature","geometry":{"type":"Polygon","coordinates":[[[-82.37101,29.60378],[-82.36249,29.59464],[-82.36035,29.59328],[-82.33919,29.5947],[-82.33944,29.59808],[-82.34193,29.60411],[-82.34217,29.60575],[-82.33988,29.62143],[-82.34084,29.62126],[-82.34517,29.62162],[-82.34568,29.62226],[-82.34543,29.62254],[-82.34577,29.62265],[-82.34567,29.62313],[-82.34707,29.62399],[-82.34851,29.62321],[-82.34944,29.6233],[-82.35075,29.62366],[-82.3513,29.62487],[-82.35185,29.62487],[-82.35419,29.62654],[-82.35677,29.62639],[-82.3562,29.62504],[-82.35506,29.61363],[-82.35777,29.61274],[-82.36074,29.61122],[-82.37101,29.60378]]]},"properties":{"geoid":"120011108001","pop":2008,"mhi":105000.0,"moe":18943.0,"low_income":false,"east":false,"in_city":false}},{"type":"Feature","geometry":{"type":"Polygon","coordinates":[[[-82.39337,29.63265],[-82.39513,29.63032],[-82.38604,29.61741],[-82.37789,29.62202],[-82.3726,29.62694],[-82.37262,29.63028],[-82.38899,29.63025],[-82.39332,29.63052],[-82.39337,29.63265]]]},"properties":{"geoid":"120010015224","pop":1115,"mhi":19940.0,"moe":16669.0,"low_income":true,"east":false,"in_city":true}},{"type":"Feature","geometry":{"type":"Polygon","coordinates":[[[-82.41346,29.62199],[-82.41324,29.61831],[-82.41157,29.61014],[-82.41104,29.60834],[-82.40947,29.60517],[-82.38604,29.61741],[-82.39513,29.63032],[-82.398,29.62812],[-82.40121,29.62713],[-82.40399,29.62491],[-82.40955,29.62195],[-82.41346,29.62199]]]},"properties":{"geoid":"120010022191","pop":2819,"mhi":null,"moe":null,"low_income":false,"east":false,"in_city":false}},{"type":"Feature","geometry":{"type":"Polygon","coordinates":[[[-82.42255,29.61606],[-82.41273,29.61588],[-82.41324,29.61831],[-82.41346,29.62199],[-82.40955,29.62195],[-82.40399,29.62491],[-82.40121,29.62713],[-82.398,29.62812],[-82.39513,29.63032],[-82.40205,29.63991],[-82.40798,29.63993],[-82.41033,29.63939],[-82.41247,29.63781],[-82.41517,29.63318],[-82.41661,29.63173],[-82.41925,29.63061],[-82.42247,29.63051],[-82.42255,29.61606]]]},"properties":{"geoid":"120010022192","pop":1549,"mhi":100775.0,"moe":11936.0,"low_income":false,"east":false,"in_city":false}},{"type":"Feature","geometry":{"type":"Polygon","coordinates":[[[-82.42266,29.60415],[-82.42239,29.60174],[-82.42024,29.59953],[-82.40947,29.60517],[-82.41123,29.60883],[-82.41273,29.61588],[-82.42254,29.61596],[-82.42266,29.60415]]]},"properties":{"geoid":"120010022193","pop":2349,"mhi":63433.0,"moe":5610.0,"low_income":false,"east":false,"in_city":false}},{"type":"Feature","geometry":{"type":"Polygon","coordinates":[[[-82.30223,29.66524],[-82.28915,29.66534],[-82.28912,29.6692],[-82.29141,29.67027],[-82.29076,29.67145],[-82.29105,29.67248],[-82.29387,29.67382],[-82.29131,29.67654],[-82.2864,29.68356],[-82.26826,29.67424],[-82.26587,29.67369],[-82.25819,29.67361],[-82.25642,29.67401],[-82.25522,29.67466],[-82.24269,29.68633],[-82.24105,29.68737],[-82.23923,29.68786],[-82.25573,29.68823],[-82.2557,29.70746],[-82.27409,29.70746],[-82.30183,29.66651],[-82.30148,29.66648],[-82.30223,29.66524]]]},"properties":{"geoid":"120010019022","pop":1443,"mhi":38578.0,"moe":28365.0,"low_income":true,"east":true,"in_city":true}},{"type":"Feature","geometry":{"type":"Polygon","coordinates":[[[-82.39257,29.65669],[-82.39252,29.65337],[-82.39037,29.65331],[-82.39038,29.65233],[-82.38957,29.65227],[-82.38956,29.64633],[-82.387,29.6455],[-82.38697,29.64776],[-82.38601,29.64777],[-82.38504,29.64776],[-82.38503,29.64633],[-82.37878,29.64633],[-82.37876,29.65128],[-82.37872,29.65153],[-82.37825,29.65137],[-82.37824,29.65192],[-82.38016,29.65215],[-82.39257,29.65669]]]},"properties":{"geoid":"120010016052","pop":745,"mhi":171875.0,"moe":67964.0,"low_income":false,"east":false,"in_city":true}},{"type":"Feature","geometry":{"type":"Polygon","coordinates":[[[-82.37237,29.66677],[-82.37241,29.65951],[-82.35366,29.65949],[-82.3536,29.66427],[-82.35291,29.66674],[-82.37237,29.66677]]]},"properties":{"geoid":"120010010004","pop":750,"mhi":113908.0,"moe":1804.0,"low_income":false,"east":false,"in_city":true}},{"type":"Feature","geometry":{"type":"Polygon","coordinates":[[[-82.37825,29.65143],[-82.37523,29.6506],[-82.37531,29.64751],[-82.37574,29.6467],[-82.37582,29.64505],[-82.37252,29.64504],[-82.37246,29.65214],[-82.37824,29.65192],[-82.37825,29.65143]]]},"properties":{"geoid":"120010016053","pop":1068,"mhi":null,"moe":null,"low_income":false,"east":false,"in_city":true}},{"type":"Feature","geometry":{"type":"Polygon","coordinates":[[[-82.33937,29.64847],[-82.33935,29.6449],[-82.33308,29.64504],[-82.33238,29.6463],[-82.33233,29.64834],[-82.33937,29.64847]]]},"properties":{"geoid":"120010002022","pop":1674,"mhi":null,"moe":null,"low_income":false,"east":false,"in_city":true}},{"type":"Feature","geometry":{"type":"Polygon","coordinates":[[[-82.39371,29.56976],[-82.39107,29.55809],[-82.39091,29.55629],[-82.39088,29.55675],[-82.38962,29.55371],[-82.38798,29.55228],[-82.32804,29.53567],[-82.31348,29.52296],[-82.30348,29.52195],[-82.30283,29.52214],[-82.29299,29.51511],[-82.29125,29.51416],[-82.28593,29.51254],[-82.27946,29.51112],[-82.27944,29.50367],[-82.26495,29.50151],[-82.26449,29.50165],[-82.24908,29.48771],[-82.24389,29.48427],[-82.21514,29.48421],[-82.21498,29.48358],[-82.214,29.48341],[-82.21264,29.48404],[-82.21129,29.48399],[-82.21164,29.48274],[-82.21035,29.48159],[-82.21086,29.47989],[-82.21161,29.47932],[-82.2132,29.47902],[-82.21355,29.47827],[-82.21481,29.47731],[-82.21406,29.47613],[-82.21169,29.47409],[-82.2101,29.47382],[-82.21013,29.47353],[-82.21088,29.47342],[-82.21158,29.47283],[-82.212,29.47193],[-82.21128,29.47081],[-82.20997,29.47124],[-82.2083,29.47078],[-82.20808,29.46891],[-82.20837,29.46821],[-82.20804,29.46659],[-82.20666,29.46599],[-82.20534,29.46705],[-82.20582,29.46935],[-82.20664,29.47067],[-82.20637,29.47225],[-82.20583,29.47232],[-82.20427,29.47126],[-82.20341,29.47212],[-82.20151,29.46921],[-82.2019,29.46818],[-82.20101,29.46941],[-82.20026,29.46873],[-82.20018,29.46828],[-82.20116,29.46746],[-82.19874,29.46625],[-82.19688,29.46422],[-82.19284,29.46226],[-82.1915,29.46311],[-82.19135,29.46275],[-82.19224,29.46182],[-82.19101,29.46251],[-82.19044,29.462],[-82.19157,29.46089],[-82.19057,29.461],[-82.19069,29.46155],[-82.19038,29.46174],[-82.18987,29.4617],[-82.18937,29.46112],[-82.18986,29.4604],[-82.19074,29.46047],[-82.19096,29.46],[-82.18806,29.46039],[-82.19093,29.4597],[-82.19078,29.45933],[-82.19013,29.45936],[-82.18976,29.45885],[-82.18917,29.45897],[-82.1889,29.45873],[-82.18813,29.45675],[-82.18852,29.45613],[-82.18879,29.45442],[-82.19128,29.45352],[-82.19191,29.45231],[-82.19262,29.45301],[-82.19397,29.45334],[-82.19633,29.45489],[-82.19901,29.45577],[-82.19926,29.45656],[-82.19912,29.45742],[-82.19862,29.45795],[-82.19558,29.45758],[-82.19471,29.45807],[-82.19335,29.4598],[-82.19355,29.46043],[-82.19322,29.46099],[-82.19345,29.46144],[-82.19449,29.46132],[-82.19608,29.46271],[-82.19842,29.46075],[-82.19896,29.46066],[-82.19992,29.46122],[-82.20037,29.46049],[-82.20083,29.46037],[-82.20418,29.46057],[-82.20527,29.46233],[-82.20584,29.4623],[-82.20662,29.46169],[-82.20689,29.46218],[-82.20886,29.46327],[-82.20955,29.46451],[-82.21166,29.46606],[-82.21273,29.46562],[-82.21284,29.46531],[-82.21178,29.46481],[-82.21178,29.46401],[-82.2137,29.4629],[-82.21355,29.46152],[-82.21493,29.46139],[-82.21645,29.4602],[-82.21772,29.4571],[-82.21778,29.45621],[-82.21684,29.45498],[-82.21409,29.453],[-82.2146,29.45199],[-82.21397,29.45161],[-82.21319,29.45043],[-82.21385,29.45027],[-82.21268,29.45019],[-82.21157,29.4495],[-82.21217,29.44895],[-82.2117,29.4479],[-82.21207,29.44774],[-82.21131,29.44777],[-82.21192,29.44762],[-82.21173,29.44745],[-82.21206,29.44655],[-82.21297,29.44544],[-82.21287,29.44168],[-82.21364,29.44102],[-82.21242,29.44008],[-82.21378,29.43687],[-82.21334,29.43449],[-82.21372,29.43332],[-82.21335,29.43253],[-82.21283,29.4323],[-82.21333,29.43191],[-82.21171,29.42981],[-82.21016,29.4285],[-82.20788,29.42778],[-82.20782,29.42746],[-82.20755,29.42766],[-82.20748,29.42704],[-82.20717,29.42732],[-82.20599,29.42734],[-82.20362,29.42695],[-82.202,29.42632],[-82.20014,29.4241],[-82.20008,29.42276],[-82.19964,29.42217],[-82.19887,29.42193],[-82.19774,29.42209],[-82.19801,29.4232],[-82.19763,29.42287],[-82.19713,29.42306],[-82.19655,29.42239],[-82.19473,29.42193],[-82.19374,29.421],[-82.19312,29.42086],[-82.19163,29.42101],[-82.1907,29.42147],[-82.18974,29.42122],[-82.18582,29.42128],[-82.18424,29.42179],[-82.18289,29.42129],[-82.18059,29.42225],[-82.17941,29.42212],[-82.17834,29.42255],[-82.1775,29.42207],[-82.17694,29.4211],[-82.17593,29.42057],[-82.17549,29.42197],[-82.17445,29.42222],[-82.17439,29.42271],[-82.17369,29.42271],[-82.17435,29.42201],[-82.17397,29.42177],[-82.17269,29.42269],[-82.17228,29.42327],[-82.17333,29.42384],[-82.17326,29.42426],[-82.17212,29.42433],[-82.17157,29.42501],[-82.17071,29.42526],[-82.16966,29.42475],[-82.16727,29.42456],[-82.16724,29.42529],[-82.16842,29.4257],[-82.16816,29.4271],[-82.16757,29.4272],[-82.16554,29.42579],[-82.16516,29.425],[-82.16369,29.42453],[-82.16252,29.42451],[-82.16196,29.42491],[-82.16054,29.4244],[-82.16002,29.42499],[-82.15908,29.42488],[-82.15792,29.42306],[-82.15692,29.42237],[-82.15554,29.4224],[-82.15509,29.42287],[-82.15488,29.42367],[-82.1563,29.42564],[-82.15601,29.42611],[-82.15544,29.42609],[-82.15536,29.42497],[-82.15474,29.42502],[-82.15435,29.4247],[-82.15441,29.42416],[-82.15362,29.42336],[-82.15321,29.42234],[-82.15297,29.42321],[-82.15365,29.42427],[-82.15295,29.42491],[-82.15303,29.42562],[-82.15232,29.42572],[-82.15097,29.42678],[-82.15066,29.4265],[-82.14996,29.42395],[-82.15002,29.4229],[-82.15102,29.42239],[-82.15155,29.42172],[-82.15102,29.42051],[-82.14957,29.4203],[-82.14934,29.41829],[-82.14898,29.41724],[-82.14862,29.41706],[-82.1478,29.41766],[-82.14648,29.418],[-82.14571,29.41767],[-82.14575,29.41844],[-82.14538,29.41877],[-82.14341,29.4188],[-82.14176,29.41979],[-82.14117,29.41958],[-82.14034,29.42008],[-82.14086,29.42055],[-82.14056,29.42153],[-82.14251,29.42175],[-82.14286,29.42236],[-82.14506,29.42304],[-82.1453,29.42346],[-82.14417,29.42493],[-82.14402,29.42667],[-82.14358,29.42687],[-82.14231,29.42645],[-82.14144,29.42714],[-82.1408,29.42798],[-82.14097,29.4287],[-82.13947,29.4295],[-82.13827,29.43085],[-82.13763,29.43095],[-82.13782,29.43252],[-82.1367,29.43283],[-82.13598,29.43423],[-82.13498,29.435],[-82.13321,29.43482],[-82.13197,29.43335],[-82.13023,29.43292],[-82.12901,29.43222],[-82.12864,29.43224],[-82.1281,29.43306],[-82.12705,29.4331],[-82.12658,29.43192],[-82.12727,29.43098],[-82.12719,29.43005],[-82.12614,29.42988],[-82.125,29.42874],[-82.12336,29.4291],[-82.12115,29.42898],[-82.11932,29.42825],[-82.11835,29.42844],[-82.11781,29.43016],[-82.11806,29.43147],[-82.11761,29.43203],[-82.116,29.43256],[-82.11389,29.43231],[-82.1131,29.4328],[-82.11276,29.43393],[-82.11193,29.43501],[-82.10979,29.43538],[-82.10824,29.44569],[-82.10898,29.45347],[-82.11763,29.45529],[-82.12745,29.45517],[-82.13298,29.45674],[-82.13638,29.45907],[-82.1442,29.46345],[-82.1589,29.47591],[-82.15961,29.47734],[-82.15962,29.48493],[-82.16014,29.48598],[-82.1614,29.48638],[-82.16793,29.48637],[-82.16964,29.48701],[-82.17051,29.48813],[-82.17187,29.4985],[-82.17186,29.51165],[-82.17212,29.51294],[-82.17293,29.51402],[-82.18774,29.52696],[-82.18872,29.5286],[-82.18895,29.59899],[-82.24841,29.61119],[-82.25252,29.61216],[-82.25366,29.61273],[-82.25396,29.61207],[-82.26311,29.61329],[-82.27136,29.60826],[-82.27195,29.60776],[-82.2726,29.60514],[-82.27337,29.60353],[-82.28231,29.59645],[-82.28408,29.59584],[-82.29265,29.59848],[-82.29528,29.60175],[-82.29592,29.60571],[-82.29814,29.60745],[-82.30064,29.60743],[-82.30456,29.60873],[-82.30524,29.60936],[-82.30767,29.61379],[-82.30863,29.61735],[-82.3091,29.62095],[-82.31117,29.62766],[-82.31808,29.62774],[-82.31808,29.62988],[-82.32217,29.6298],[-82.32645,29.62255],[-82.32799,29.6209],[-82.3351,29.61668],[-82.33934,29.61494],[-82.34087,29.61472],[-82.34203,29.60771],[-82.34209,29.60464],[-82.33944,29.59808],[-82.33919,29.5947],[-82.36035,29.59328],[-82.36249,29.59464],[-82.37101,29.60378],[-82.37343,29.60204],[-82.36207,29.58897],[-82.34921,29.56649],[-82.35799,29.56631],[-82.36473,29.56811],[-82.37448,29.56962],[-82.37832,29.57063],[-82.38025,29.57149],[-82.38105,29.57238],[-82.38247,29.57306],[-82.38328,29.57412],[-82.38682,29.5762],[-82.38782,29.57831],[-82.39066,29.58013],[-82.39209,29.58005],[-82.39211,29.57775],[-82.39371,29.56976]]]},"properties":{"geoid":"120010021011","pop":1905,"mhi":81659.0,"moe":13244.0,"low_income":false,"east":false,"in_city":false}},{"type":"Feature","geometry":{"type":"Polygon","coordinates":[[[-82.30658,29.65934],[-82.28623,29.65922],[-82.28708,29.65971],[-82.28839,29.66305],[-82.289,29.66359],[-82.28915,29.66534],[-82.30223,29.66524],[-82.30148,29.66648],[-82.30183,29.66651],[-82.30658,29.65934]]]},"properties":{"geoid":"120010006001","pop":1361,"mhi":44489.0,"moe":17409.0,"low_income":true,"east":true,"in_city":true}},{"type":"Feature","geometry":{"type":"Polygon","coordinates":[[[-82.38624,29.6173],[-82.38238,29.61213],[-82.37343,29.60204],[-82.37101,29.60378],[-82.37289,29.62149],[-82.3726,29.62694],[-82.37789,29.62202],[-82.38624,29.6173]]]},"properties":{"geoid":"120010015191","pop":2623,"mhi":52375.0,"moe":9712.0,"low_income":false,"east":false,"in_city":true}},{"type":"Feature","geometry":{"type":"Polygon","coordinates":[[[-82.35566,29.65207],[-82.3557,29.64849],[-82.35506,29.64837],[-82.3554,29.64708],[-82.35541,29.64491],[-82.3504,29.64489],[-82.35049,29.63918],[-82.35374,29.63844],[-82.35321,29.63578],[-82.34187,29.63975],[-82.34065,29.64048],[-82.33939,29.64192],[-82.33937,29.65206],[-82.35566,29.65207]]]},"properties":{"geoid":"120010009021","pop":6362,"mhi":15278.0,"moe":10278.0,"low_income":true,"east":false,"in_city":true}},{"type":"Feature","geometry":{"type":"Polygon","coordinates":[[[-82.37215,29.7081],[-82.37214,29.70441],[-82.37101,29.70435],[-82.37077,29.71169],[-82.36189,29.71173],[-82.3619,29.70516],[-82.3601,29.70567],[-82.35982,29.70508],[-82.35659,29.70656],[-82.35554,29.7074],[-82.3544,29.70911],[-82.35369,29.7119],[-82.36033,29.71749],[-82.36083,29.71707],[-82.37172,29.71711],[-82.37169,29.70849],[-82.37215,29.7081]]]},"properties":{"geoid":"120010018033","pop":2014,"mhi":56222.0,"moe":25954.0,"low_income":false,"east":false,"in_city":true}},{"type":"Feature","geometry":{"type":"Polygon","coordinates":[[[-82.4083,29.64729],[-82.4019,29.63972],[-82.39577,29.63124],[-82.39209,29.63806],[-82.39494,29.63952],[-82.39827,29.63989],[-82.39826,29.6426],[-82.39869,29.64391],[-82.40213,29.6482],[-82.40301,29.6489],[-82.4083,29.64729]]]},"properties":{"geoid":"120010016055","pop":3881,"mhi":27933.0,"moe":6927.0,"low_income":true,"east":false,"in_city":true}},{"type":"Feature","geometry":{"type":"Polygon","coordinates":[[[-82.38869,29.7104],[-82.38889,29.70326],[-82.36376,29.70333],[-82.36236,29.70395],[-82.36271,29.70433],[-82.37212,29.70438],[-82.37215,29.7081],[-82.37169,29.70849],[-82.37172,29.71711],[-82.37011,29.71711],[-82.37009,29.71779],[-82.37308,29.71776],[-82.37589,29.71822],[-82.38508,29.71815],[-82.38569,29.71742],[-82.38553,29.71632],[-82.38598,29.71448],[-82.38869,29.7104]]]},"properties":{"geoid":"120010018034","pop":2491,"mhi":107708.0,"moe":28805.0,"low_income":false,"east":false,"in_city":true}},{"type":"Feature","geometry":{"type":"Polygon","coordinates":[[[-82.37242,29.65032],[-82.3726,29.63765],[-82.35886,29.63762],[-82.35824,29.63819],[-82.35501,29.63827],[-82.35186,29.63874],[-82.35049,29.63918],[-82.3504,29.64489],[-82.35541,29.64491],[-82.3554,29.64708],[-82.35506,29.64837],[-82.3557,29.64849],[-82.35572,29.65039],[-82.36153,29.65038],[-82.36128,29.64777],[-82.36261,29.64779],[-82.36263,29.64496],[-82.3643,29.64506],[-82.36416,29.6504],[-82.37242,29.65032]]]},"properties":{"geoid":"120010009011","pop":3173,"mhi":27438.0,"moe":13639.0,"low_income":true,"east":false,"in_city":true}},{"type":"Feature","geometry":{"type":"Polygon","coordinates":[[[-82.35582,29.63484],[-82.35586,29.62652],[-82.35419,29.62654],[-82.35282,29.62578],[-82.35185,29.62487],[-82.3513,29.62487],[-82.35075,29.62366],[-82.34851,29.62321],[-82.34707,29.62399],[-82.34567,29.62313],[-82.34577,29.62265],[-82.34543,29.62254],[-82.34568,29.62226],[-82.34517,29.62162],[-82.34084,29.62126],[-82.33988,29.62143],[-82.3394,29.62425],[-82.33939,29.64192],[-82.34065,29.64048],[-82.34187,29.63975],[-82.35582,29.63484]]]},"properties":{"geoid":"120010008091","pop":1163,"mhi":40778.0,"moe":12432.0,"low_income":true,"east":false,"in_city":true}},{"type":"Feature","geometry":{"type":"Polygon","coordinates":[[[-82.3726,29.63765],[-82.3726,29.62694],[-82.37099,29.62803],[-82.35932,29.63351],[-82.35321,29.63578],[-82.35374,29.63844],[-82.35824,29.63819],[-82.35886,29.63762],[-82.3726,29.63765]]]},"properties":{"geoid":"120010015141","pop":995,"mhi":24901.0,"moe":11006.0,"low_income":true,"east":false,"in_city":true}},{"type":"Feature","geometry":{"type":"Polygon","coordinates":[[[-82.27246,29.64573],[-82.27249,29.63539],[-82.26683,29.63241],[-82.25937,29.62614],[-82.25666,29.62186],[-82.25599,29.61969],[-82.25558,29.61548],[-82.25441,29.61343],[-82.25252,29.61216],[-82.2483,29.61117],[-82.24869,29.61404],[-82.24919,29.6151],[-82.25184,29.61774],[-82.25158,29.61807],[-82.2535,29.61785],[-82.25145,29.61858],[-82.25192,29.61915],[-82.25233,29.61874],[-82.25275,29.61886],[-82.25478,29.62086],[-82.25658,29.62436],[-82.25765,29.625],[-82.25775,29.62535],[-82.25763,29.62568],[-82.25678,29.62574],[-82.25694,29.62708],[-82.25672,29.6278],[-82.25499,29.6297],[-82.25085,29.63169],[-82.25044,29.63149],[-82.24877,29.63297],[-82.2457,29.63483],[-82.24281,29.63619],[-82.23716,29.63634],[-82.23789,29.63785],[-82.2371,29.6388],[-82.23679,29.63976],[-82.23766,29.64723],[-82.23923,29.65123],[-82.23953,29.65427],[-82.24079,29.65546],[-82.2395,29.65668],[-82.23938,29.66126],[-82.23884,29.66381],[-82.23816,29.66511],[-82.23815,29.6662],[-82.23765,29.66702],[-82.2374,29.66915],[-82.23467,29.67353],[-82.23598,29.67354],[-82.2385,29.67564],[-82.25662,29.65958],[-82.25765,29.65784],[-82.25891,29.65346],[-82.26006,29.65235],[-82.26155,29.65191],[-82.25576,29.65183],[-82.25574,29.65039],[-82.258,29.65058],[-82.25925,29.65121],[-82.2599,29.65121],[-82.26127,29.64812],[-82.26206,29.6473],[-82.26562,29.64713],[-82.26824,29.64539],[-82.27039,29.64553],[-82.27087,29.6453],[-82.27246,29.64573]]]},"properties":{"geoid":"120010014001","pop":999,"mhi":46071.0,"moe":9833.0,"low_income":true,"east":false,"in_city":false}},{"type":"Feature","geometry":{"type":"Polygon","coordinates":[[[-82.37077,29.71169],[-82.37101,29.70435],[-82.36271,29.70433],[-82.36236,29.70395],[-82.35982,29.70508],[-82.3601,29.70567],[-82.3619,29.70516],[-82.36189,29.71173],[-82.37077,29.71169]]]},"properties":{"geoid":"120010018031","pop":1000,"mhi":103542.0,"moe":6398.0,"low_income":false,"east":false,"in_city":true}},{"type":"Feature","geometry":{"type":"Polygon","coordinates":[[[-82.38881,29.7322],[-82.38859,29.72218],[-82.38569,29.71742],[-82.38508,29.71815],[-82.37589,29.71822],[-82.37308,29.71776],[-82.37009,29.71779],[-82.37011,29.71711],[-82.36083,29.71707],[-82.36033,29.71749],[-82.37748,29.73223],[-82.38401,29.73934],[-82.38878,29.73931],[-82.38881,29.7322]]]},"properties":{"geoid":"120010018032","pop":780,"mhi":null,"moe":null,"low_income":false,"east":false,"in_city":true}},{"type":"Feature","geometry":{"type":"Polygon","coordinates":[[[-82.40149,29.67411],[-82.43255,29.67431],[-82.42339,29.66471],[-82.41913,29.65969],[-82.40156,29.65947],[-82.40149,29.67411]]]},"properties":{"geoid":"120010017023","pop":1276,"mhi":90208.0,"moe":60489.0,"low_income":false,"east":false,"in_city":false}},{"type":"Feature","geometry":{"type":"Polygon","coordinates":[[[-82.31023,29.67384],[-82.31026,29.66655],[-82.30183,29.66651],[-82.29687,29.67382],[-82.31023,29.67384]]]},"properties":{"geoid":"120010004002","pop":1148,"mhi":50800.0,"moe":18788.0,"low_income":true,"east":true,"in_city":true}},{"type":"Feature","geometry":{"type":"Polygon","coordinates":[[[-82.37232,29.68854],[-82.37233,29.68682],[-82.3718,29.6866],[-82.37043,29.6825],[-82.36995,29.68186],[-82.36894,29.68144],[-82.35155,29.68134],[-82.35152,29.68576],[-82.34743,29.68572],[-82.34738,29.68855],[-82.37232,29.68854]]]},"properties":{"geoid":"120010012022","pop":2252,"mhi":63839.0,"moe":13897.0,"low_income":false,"east":false,"in_city":true}},{"type":"Feature","geometry":{"type":"Polygon","coordinates":[[[-82.36376,29.70333],[-82.34309,29.70321],[-82.35358,29.71223],[-82.3544,29.70911],[-82.35583,29.70714],[-82.3572,29.70624],[-82.36376,29.70333]]]},"properties":{"geoid":"120010012023","pop":729,"mhi":31202.0,"moe":9756.0,"low_income":true,"east":false,"in_city":true}},{"type":"Feature","geometry":{"type":"Polygon","coordinates":[[[-82.27964,29.70303],[-82.34309,29.70321],[-82.32591,29.68846],[-82.29855,29.68822],[-82.29443,29.68737],[-82.28928,29.68503],[-82.27749,29.70244],[-82.27964,29.70303]]]},"properties":{"geoid":"120010019021","pop":1935,"mhi":38162.0,"moe":5447.0,"low_income":true,"east":true,"in_city":true}},{"type":"Feature","geometry":{"type":"Polygon","coordinates":[[[-82.32755,29.63571],[-82.32668,29.63478],[-82.3255,29.6315],[-82.32444,29.63054],[-82.32232,29.62952],[-82.32217,29.6298],[-82.31808,29.62988],[-82.31808,29.62774],[-82.31117,29.62766],[-82.3091,29.62095],[-82.30863,29.61735],[-82.308,29.61535],[-82.3059,29.61555],[-82.30586,29.64578],[-82.31775,29.6458],[-82.32503,29.64447],[-82.32629,29.63913],[-82.32755,29.63571]]]},"properties":{"geoid":"120010007002","pop":1342,"mhi":22048.0,"moe":22010.0,"low_income":true,"east":true,"in_city":true}},{"type":"Feature","geometry":{"type":"Polygon","coordinates":[[[-82.30584,29.65134],[-82.3059,29.61555],[-82.30487,29.61547],[-82.29045,29.6154],[-82.28948,29.61557],[-82.28915,29.6162],[-82.28919,29.64291],[-82.30584,29.65134]]]},"properties":{"geoid":"120010007003","pop":2155,"mhi":null,"moe":null,"low_income":false,"east":false,"in_city":false}},{"type":"Feature","geometry":{"type":"Polygon","coordinates":[[[-82.45528,29.74594],[-82.45518,29.72993],[-82.43033,29.71366],[-82.42839,29.71313],[-82.42407,29.71068],[-82.41633,29.71051],[-82.41038,29.70576],[-82.40556,29.70341],[-82.39736,29.70325],[-82.39733,29.71058],[-82.39611,29.71058],[-82.39611,29.71116],[-82.39545,29.71116],[-82.3954,29.71791],[-82.39301,29.7179],[-82.39301,29.72144],[-82.39714,29.72145],[-82.39745,29.72076],[-82.39858,29.71983],[-82.39862,29.71789],[-82.39929,29.71801],[-82.40087,29.7201],[-82.40129,29.71954],[-82.40312,29.71914],[-82.40357,29.71861],[-82.40549,29.71847],[-82.40544,29.7393],[-82.41474,29.7393],[-82.41474,29.73884],[-82.414,29.73884],[-82.41401,29.73714],[-82.41475,29.73714],[-82.41476,29.73609],[-82.41376,29.73609],[-82.41377,29.73573],[-82.41669,29.73574],[-82.41671,29.73259],[-82.40969,29.73255],[-82.4097,29.72885],[-82.41795,29.72892],[-82.41783,29.73227],[-82.41737,29.7326],[-82.4221,29.73262],[-82.42207,29.73938],[-82.43259,29.73942],[-82.44874,29.75068],[-82.45487,29.75297],[-82.45528,29.74594]]]},"properties":{"geoid":"120010018131","pop":1495,"mhi":108941.0,"moe":11479.0,"low_income":false,"east":false,"in_city":false}},{"type":"Feature","geometry":{"type":"Polygon","coordinates":[[[-82.42718,29.82634],[-82.42706,29.81554],[-82.4263,29.81353],[-82.42395,29.81012],[-82.42323,29.8076],[-82.42143,29.76837],[-82.4105,29.76534],[-82.40805,29.76422],[-82.40544,29.76244],[-82.40118,29.7584],[-82.37748,29.73223],[-82.35369,29.7119],[-82.35343,29.71332],[-82.35409,29.72177],[-82.35378,29.74017],[-82.35695,29.75647],[-82.35805,29.75851],[-82.36847,29.7717],[-82.37156,29.77633],[-82.37831,29.78701],[-82.38112,29.79202],[-82.38392,29.79749],[-82.38467,29.80006],[-82.38475,29.8006],[-82.38401,29.80067],[-82.3711,29.80092],[-82.37135,29.80218],[-82.37107,29.80334],[-82.37159,29.80415],[-82.37078,29.80569],[-82.37078,29.8064],[-82.36946,29.80728],[-82.36891,29.80872],[-82.36735,29.80974],[-82.368,29.81108],[-82.3705,29.81163],[-82.37191,29.81262],[-82.37239,29.81359],[-82.37219,29.81529],[-82.37133,29.81695],[-82.37132,29.81885],[-82.37533,29.8269],[-82.37506,29.82926],[-82.37508,29.83197],[-82.37537,29.83296],[-82.37519,29.83449],[-82.37552,29.83514],[-82.37675,29.83588],[-82.37669,29.83994],[-82.38323,29.84005],[-82.38902,29.84354],[-82.39132,29.84432],[-82.4008,29.84441],[-82.40224,29.84414],[-82.4051,29.84333],[-82.40517,29.83926],[-82.41235,29.83435],[-82.42478,29.82735],[-82.42718,29.82634]]]},"properties":{"geoid":"120010018021","pop":927,"mhi":65938.0,"moe":27078.0,"low_income":false,"east":false,"in_city":false}},{"type":"Feature","geometry":{"type":"Polygon","coordinates":[[[-82.37253,29.62467],[-82.3729,29.62175],[-82.37086,29.6217],[-82.36861,29.621],[-82.36762,29.62221],[-82.36814,29.62362],[-82.36805,29.62472],[-82.36598,29.62489],[-82.36618,29.62539],[-82.36596,29.62618],[-82.36541,29.62672],[-82.36513,29.62783],[-82.36503,29.63081],[-82.37099,29.62803],[-82.3726,29.62694],[-82.37253,29.62467]]]},"properties":{"geoid":"120010015153","pop":1386,"mhi":45662.0,"moe":36151.0,"low_income":true,"east":false,"in_city":true}},{"type":"Feature","geometry":{"type":"Polygon","coordinates":[[[-82.45473,29.60681],[-82.45443,29.60566],[-82.45339,29.60428],[-82.45323,29.6034],[-82.44746,29.60428],[-82.44279,29.60547],[-82.44135,29.60524],[-82.43956,29.60418],[-82.43844,29.6039],[-82.43793,29.60557],[-82.43696,29.60724],[-82.4368,29.60825],[-82.43721,29.6095],[-82.43871,29.61167],[-82.43933,29.61598],[-82.43708,29.61918],[-82.44087,29.62152],[-82.4458,29.6261],[-82.44637,29.62595],[-82.44691,29.62649],[-82.44705,29.62498],[-82.44636,29.62463],[-82.44701,29.6237],[-82.44703,29.62311],[-82.44606,29.62311],[-82.44625,29.62004],[-82.44579,29.61927],[-82.44709,29.6186],[-82.44683,29.61829],[-82.44696,29.61731],[-82.44652,29.61673],[-82.44743,29.61543],[-82.44773,29.61403],[-82.45171,29.6141],[-82.45363,29.61323],[-82.45431,29.61166],[-82.45388,29.60918],[-82.45473,29.60681]]]},"properties":{"geoid":"120010022223","pop":2748,"mhi":122265.0,"moe":12691.0,"low_income":false,"east":false,"in_city":false}},{"type":"Feature","geometry":{"type":"Polygon","coordinates":[[[-82.42237,29.65975],[-82.42241,29.65336],[-82.41423,29.65313],[-82.4139,29.65276],[-82.41399,29.6451],[-82.41367,29.6451],[-82.41368,29.64467],[-82.41233,29.64465],[-82.41175,29.6451],[-82.41013,29.6451],[-82.40942,29.64478],[-82.40731,29.64183],[-82.40721,29.63994],[-82.40205,29.63991],[-82.41869,29.65955],[-82.42237,29.65975]]]},"properties":{"geoid":"120010022173","pop":1780,"mhi":60260.0,"moe":40930.0,"low_income":false,"east":false,"in_city":false}},{"type":"Feature","geometry":{"type":"Polygon","coordinates":[[[-82.33286,29.61855],[-82.33269,29.61811],[-82.32739,29.62143],[-82.32612,29.62307],[-82.32232,29.62952],[-82.32531,29.63123],[-82.32668,29.63478],[-82.32755,29.63571],[-82.33027,29.62786],[-82.33185,29.6207],[-82.33286,29.61855]]]},"properties":{"geoid":"120010008081","pop":978,"mhi":71818.0,"moe":51301.0,"low_income":false,"east":false,"in_city":true}},{"type":"Feature","geometry":{"type":"Polygon","coordinates":[[[-82.33939,29.63651],[-82.33943,29.6285],[-82.33261,29.63095],[-82.3322,29.63183],[-82.33139,29.63229],[-82.32881,29.63212],[-82.32755,29.63571],[-82.32881,29.63616],[-82.33425,29.63662],[-82.33939,29.63651]]]},"properties":{"geoid":"120010008082","pop":1173,"mhi":null,"moe":null,"low_income":false,"east":false,"in_city":true}},{"type":"Feature","geometry":{"type":"Polygon","coordinates":[[[-82.34086,29.61485],[-82.33934,29.61494],[-82.33699,29.61587],[-82.33269,29.61811],[-82.33286,29.61855],[-82.33185,29.6207],[-82.33037,29.62751],[-82.32881,29.63212],[-82.33139,29.63229],[-82.3322,29.63183],[-82.33261,29.63095],[-82.33943,29.6285],[-82.3394,29.62425],[-82.34086,29.61485]]]},"properties":{"geoid":"120010008083","pop":2272,"mhi":51809.0,"moe":13494.0,"low_income":true,"east":false,"in_city":true}},{"type":"Feature","geometry":{"type":"Polygon","coordinates":[[[-82.37208,29.6142],[-82.37159,29.60914],[-82.36811,29.60943],[-82.36265,29.61351],[-82.3622,29.61341],[-82.36285,29.61972],[-82.36563,29.61981],[-82.3651,29.61323],[-82.36736,29.6131],[-82.36748,29.61715],[-82.36902,29.61668],[-82.36886,29.61424],[-82.37208,29.6142]]]},"properties":{"geoid":"120010015173","pop":2590,"mhi":60956.0,"moe":17089.0,"low_income":false,"east":false,"in_city":true}},{"type":"Feature","geometry":{"type":"Polygon","coordinates":[[[-82.40888,29.65965],[-82.40887,29.65178],[-82.40861,29.65092],[-82.40747,29.64999],[-82.40396,29.64935],[-82.40213,29.6482],[-82.39849,29.64351],[-82.39827,29.63989],[-82.39494,29.63952],[-82.39209,29.63806],[-82.39142,29.64007],[-82.38582,29.64265],[-82.38453,29.64278],[-82.38347,29.64189],[-82.38033,29.6404],[-82.37403,29.64304],[-82.37403,29.64344],[-82.37572,29.64465],[-82.37587,29.64527],[-82.37574,29.6467],[-82.37531,29.64751],[-82.37523,29.6506],[-82.37872,29.65153],[-82.37878,29.64633],[-82.38503,29.64633],[-82.38504,29.64776],[-82.38697,29.64776],[-82.387,29.6455],[-82.38956,29.64633],[-82.38957,29.65227],[-82.39038,29.65233],[-82.39037,29.65331],[-82.39252,29.65337],[-82.39257,29.65669],[-82.39785,29.65861],[-82.40091,29.65937],[-82.40888,29.65965]]]},"properties":{"geoid":"120010016051","pop":2639,"mhi":52872.0,"moe":24306.0,"low_income":false,"east":false,"in_city":true}},{"type":"Feature","geometry":{"type":"Polygon","coordinates":[[[-82.33928,29.65392],[-82.33937,29.65206],[-82.33713,29.65206],[-82.33712,29.64844],[-82.33233,29.64834],[-82.33235,29.65027],[-82.33084,29.65027],[-82.33082,29.65382],[-82.33928,29.65392]]]},"properties":{"geoid":"120010002013","pop":1264,"mhi":null,"moe":null,"low_income":false,"east":false,"in_city":true}},{"type":"Feature","geometry":{"type":"Polygon","coordinates":[[[-82.43923,29.67435],[-82.43925,29.67163],[-82.43895,29.67064],[-82.43487,29.66706],[-82.4307,29.66711],[-82.4308,29.67251],[-82.43255,29.67431],[-82.43923,29.67435]]]},"properties":{"geoid":"120010022044","pop":1123,"mhi":null,"moe":null,"low_income":false,"east":false,"in_city":false}},{"type":"Feature","geometry":{"type":"Polygon","coordinates":[[[-82.45195,29.7116],[-82.46609,29.71632],[-82.45755,29.7007],[-82.4545,29.69689],[-82.44682,29.68903],[-82.40042,29.68878],[-82.40023,29.68998],[-82.40045,29.69079],[-82.40327,29.69071],[-82.40333,29.69225],[-82.40231,29.69231],[-82.40117,29.69288],[-82.40142,29.69368],[-82.40108,29.69462],[-82.39938,29.69589],[-82.39795,29.69544],[-82.39809,29.69361],[-82.39716,29.69336],[-82.39739,29.68873],[-82.38893,29.68873],[-82.38889,29.70326],[-82.40503,29.7033],[-82.41038,29.70576],[-82.41661,29.7106],[-82.43355,29.71046],[-82.44814,29.71074],[-82.45195,29.7116]]]},"properties":{"geoid":"120010018112","pop":5304,"mhi":87419.0,"moe":15964.0,"low_income":false,"east":false,"in_city":false}},{"type":"Feature","geometry":{"type":"Polygon","coordinates":[[[-82.35588,29.6794],[-82.35711,29.67764],[-82.35572,29.67751],[-82.35577,29.66674],[-82.33922,29.66668],[-82.33919,29.67397],[-82.34428,29.67402],[-82.34646,29.67458],[-82.34723,29.67525],[-82.35155,29.68134],[-82.35364,29.68127],[-82.35411,29.68058],[-82.35588,29.6794]]]},"properties":{"geoid":"120010011003","pop":1831,"mhi":81316.0,"moe":47452.0,"low_income":false,"east":false,"in_city":true}},{"type":"Feature","geometry":{"type":"Polygon","coordinates":[[[-82.37239,29.68135],[-82.37237,29.66677],[-82.35577,29.66674],[-82.35572,29.67751],[-82.35711,29.67764],[-82.35588,29.6794],[-82.35411,29.68058],[-82.35364,29.68127],[-82.36926,29.6815],[-82.37036,29.68234],[-82.3718,29.6866],[-82.37214,29.68682],[-82.37239,29.68135]]]},"properties":{"geoid":"120010011004","pop":1740,"mhi":168036.0,"moe":53126.0,"low_income":false,"east":false,"in_city":true}},{"type":"Feature","geometry":{"type":"Polygon","coordinates":[[[-82.40155,29.6596],[-82.39785,29.65861],[-82.37969,29.65203],[-82.37246,29.65214],[-82.37241,29.65951],[-82.40155,29.6596]]]},"properties":{"geoid":"120010016056","pop":1385,"mhi":null,"moe":null,"low_income":false,"east":false,"in_city":true}},{"type":"Feature","geometry":{"type":"Polygon","coordinates":[[[-82.34781,29.65584],[-82.34782,29.65208],[-82.34322,29.65206],[-82.34323,29.65495],[-82.34178,29.65494],[-82.34177,29.65579],[-82.34781,29.65584]]]},"properties":{"geoid":"120010010005","pop":1220,"mhi":11645.0,"moe":7048.0,"low_income":true,"east":false,"in_city":true}},{"type":"Feature","geometry":{"type":"Polygon","coordinates":[[[-82.42241,29.65336],[-82.42241,29.64918],[-82.41399,29.64917],[-82.4139,29.65276],[-82.41441,29.65322],[-82.42241,29.65336]]]},"properties":{"geoid":"120010022172","pop":2666,"mhi":28391.0,"moe":26069.0,"low_income":true,"east":false,"in_city":false}},{"type":"Feature","geometry":{"type":"Polygon","coordinates":[[[-82.42244,29.64513],[-82.42247,29.63051],[-82.4195,29.63057],[-82.41725,29.63131],[-82.41534,29.63295],[-82.41286,29.63729],[-82.41186,29.63842],[-82.40954,29.63968],[-82.40721,29.63994],[-82.40731,29.64183],[-82.40935,29.64472],[-82.41023,29.64511],[-82.41183,29.64509],[-82.41233,29.64465],[-82.41368,29.64467],[-82.41367,29.6451],[-82.42244,29.64513]]]},"properties":{"geoid":"120010022181","pop":2501,"mhi":46973.0,"moe":17367.0,"low_income":true,"east":false,"in_city":true}},{"type":"Feature","geometry":{"type":"Polygon","coordinates":[[[-82.49594,29.71832],[-82.49599,29.68923],[-82.45263,29.68904],[-82.448,29.67935],[-82.44655,29.67439],[-82.43255,29.67431],[-82.45624,29.69891],[-82.45891,29.70288],[-82.46609,29.71632],[-82.47065,29.71783],[-82.47327,29.71822],[-82.49594,29.71832]]]},"properties":{"geoid":"120010022043","pop":1479,"mhi":106029.0,"moe":23252.0,"low_income":false,"east":false,"in_city":false}},{"type":"Feature","geometry":{"type":"Polygon","coordinates":[[[-82.40544,29.7393],[-82.40549,29.71847],[-82.40357,29.71861],[-82.40312,29.71914],[-82.40129,29.71954],[-82.40087,29.7201],[-82.39929,29.71801],[-82.39862,29.71789],[-82.39858,29.71983],[-82.39745,29.72076],[-82.39714,29.72145],[-82.39301,29.72144],[-82.39301,29.7179],[-82.3954,29.71791],[-82.39545,29.71116],[-82.39611,29.71116],[-82.39611,29.71058],[-82.39733,29.71058],[-82.39736,29.70325],[-82.38889,29.70326],[-82.38869,29.7104],[-82.38598,29.71448],[-82.38553,29.71632],[-82.38594,29.71808],[-82.38818,29.72129],[-82.38873,29.72288],[-82.38878,29.73931],[-82.40544,29.7393]]]},"properties":{"geoid":"120010018132","pop":2388,"mhi":105526.0,"moe":21914.0,"low_income":false,"east":false,"in_city":true}},{"type":"Feature","geometry":{"type":"Polygon","coordinates":[[[-82.39142,29.64007],[-82.39209,29.63806],[-82.38857,29.63583],[-82.38463,29.6343],[-82.38183,29.63397],[-82.3726,29.63422],[-82.37252,29.64504],[-82.37582,29.64505],[-82.37572,29.64465],[-82.37403,29.64344],[-82.37403,29.64304],[-82.38033,29.6404],[-82.38347,29.64189],[-82.38453,29.64278],[-82.38582,29.64265],[-82.39142,29.64007]]]},"properties":{"geoid":"120010015221","pop":3151,"mhi":30071.0,"moe":6920.0,"low_income":true,"east":false,"in_city":true}},{"type":"Feature","geometry":{"type":"Polygon","coordinates":[[[-82.43032,29.67616],[-82.43003,29.67429],[-82.42226,29.67411],[-82.42228,29.68882],[-82.43026,29.68889],[-82.43032,29.67616]]]},"properties":{"geoid":"120010017014","pop":3213,"mhi":79012.0,"moe":32321.0,"low_income":false,"east":false,"in_city":false}},{"type":"Feature","geometry":{"type":"Polygon","coordinates":[[[-82.33295,29.65943],[-82.33291,29.65387],[-82.33082,29.65382],[-82.33082,29.65338],[-82.32659,29.65333],[-82.32659,29.65924],[-82.33295,29.65943]]]},"properties":{"geoid":"120010002011","pop":636,"mhi":51637.0,"moe":8991.0,"low_income":true,"east":false,"in_city":true}},{"type":"Feature","geometry":{"type":"Polygon","coordinates":[[[-82.33088,29.68854],[-82.3308,29.67393],[-82.32156,29.67389],[-82.31982,29.6771],[-82.31937,29.67872],[-82.31937,29.68842],[-82.33088,29.68854]]]},"properties":{"geoid":"120010003021","pop":588,"mhi":63583.0,"moe":16636.0,"low_income":false,"east":false,"in_city":true}},{"type":"Feature","geometry":{"type":"Polygon","coordinates":[[[-82.33926,29.6996],[-82.33894,29.6986],[-82.33909,29.68854],[-82.32591,29.68846],[-82.33888,29.69964],[-82.33926,29.6996]]]},"properties":{"geoid":"120010003022","pop":738,"mhi":32288.0,"moe":15266.0,"low_income":true,"east":false,"in_city":true}},{"type":"Feature","geometry":{"type":"Polygon","coordinates":[[[-82.37227,29.69663],[-82.37232,29.68869],[-82.36597,29.68866],[-82.36597,29.6916],[-82.36681,29.69317],[-82.36684,29.69505],[-82.36765,29.69505],[-82.36763,29.69593],[-82.36671,29.69593],[-82.36671,29.69881],[-82.36762,29.69881],[-82.36763,29.70099],[-82.36788,29.70151],[-82.3703,29.70021],[-82.3718,29.69833],[-82.37227,29.69663]]]},"properties":{"geoid":"120010012024","pop":803,"mhi":83854.0,"moe":48432.0,"low_income":false,"east":false,"in_city":true}},{"type":"Feature","geometry":{"type":"Polygon","coordinates":[[[-82.35864,29.70332],[-82.35857,29.70022],[-82.35702,29.69898],[-82.35664,29.69822],[-82.35668,29.69685],[-82.35793,29.69441],[-82.35836,29.68857],[-82.35148,29.68852],[-82.35137,29.69585],[-82.34727,29.69588],[-82.3473,29.70327],[-82.35864,29.70332]]]},"properties":{"geoid":"120010012025","pop":1754,"mhi":96094.0,"moe":51410.0,"low_income":false,"east":false,"in_city":true}},{"type":"Feature","geometry":{"type":"Polygon","coordinates":[[[-82.3617,29.63238],[-82.36142,29.62994],[-82.36068,29.62875],[-82.3575,29.62708],[-82.35677,29.62639],[-82.35586,29.62652],[-82.35582,29.63484],[-82.3617,29.63238]]]},"properties":{"geoid":"120010015142","pop":933,"mhi":72011.0,"moe":28566.0,"low_income":false,"east":false,"in_city":true}},{"type":"Feature","geometry":{"type":"Polygon","coordinates":[[[-82.36268,29.62251],[-82.36249,29.62065],[-82.36091,29.62079],[-82.36108,29.62263],[-82.35607,29.62354],[-82.35635,29.6256],[-82.35681,29.62531],[-82.35931,29.62516],[-82.3594,29.62576],[-82.36005,29.6257],[-82.35989,29.62424],[-82.36095,29.62414],[-82.36094,29.62315],[-82.36189,29.62286],[-82.36189,29.62256],[-82.36268,29.62251]]]},"properties":{"geoid":"120010015151","pop":871,"mhi":41104.0,"moe":764.0,"low_income":true,"east":false,"in_city":true}},{"type":"Feature","geometry":{"type":"Polygon","coordinates":[[[-82.34323,29.65495],[-82.34322,29.65206],[-82.33937,29.65206],[-82.33926,29.65572],[-82.34177,29.65579],[-82.34178,29.65494],[-82.34323,29.65495]]]},"properties":{"geoid":"120010010006","pop":2076,"mhi":11143.0,"moe":10555.0,"low_income":true,"east":false,"in_city":true}},{"type":"Feature","geometry":{"type":"Polygon","coordinates":[[[-82.33937,29.65206],[-82.33937,29.64847],[-82.33712,29.64844],[-82.33713,29.65206],[-82.33937,29.65206]]]},"properties":{"geoid":"120010002014","pop":1361,"mhi":2499.0,"moe":null,"low_income":true,"east":false,"in_city":true}},{"type":"Feature","geometry":{"type":"Polygon","coordinates":[[[-82.31141,29.6521],[-82.30722,29.65202],[-82.30584,29.65134],[-82.30584,29.65198],[-82.30167,29.65197],[-82.30164,29.65921],[-82.30658,29.65934],[-82.31141,29.6521]]]},"properties":{"geoid":"120010006002","pop":891,"mhi":20000.0,"moe":16452.0,"low_income":true,"east":true,"in_city":true}},{"type":"Feature","geometry":{"type":"Polygon","coordinates":[[[-82.43909,29.64514],[-82.4392,29.63047],[-82.42247,29.63051],[-82.42244,29.64513],[-82.43909,29.64514]]]},"properties":{"geoid":"120010022072","pop":2502,"mhi":149750.0,"moe":37111.0,"low_income":false,"east":false,"in_city":false}},{"type":"Feature","geometry":{"type":"Polygon","coordinates":[[[-82.39577,29.63124],[-82.39513,29.63032],[-82.39329,29.63275],[-82.39332,29.63052],[-82.38098,29.63019],[-82.38093,29.634],[-82.38579,29.63458],[-82.38857,29.63583],[-82.39209,29.63806],[-82.39577,29.63124]]]},"properties":{"geoid":"120010015222","pop":2048,"mhi":31104.0,"moe":6384.0,"low_income":true,"east":false,"in_city":true}},{"type":"Feature","geometry":{"type":"Polygon","coordinates":[[[-82.38893,29.68873],[-82.38897,29.68227],[-82.38531,29.68193],[-82.38119,29.6798],[-82.37789,29.67944],[-82.37429,29.6783],[-82.37378,29.67539],[-82.37283,29.67389],[-82.37232,29.67365],[-82.37232,29.68869],[-82.38893,29.68873]]]},"properties":{"geoid":"120010011001","pop":1275,"mhi":117234.0,"moe":27266.0,"low_income":false,"east":false,"in_city":true}},{"type":"Feature","geometry":{"type":"Polygon","coordinates":[[[-82.38898,29.67419],[-82.37357,29.66706],[-82.37237,29.66677],[-82.37232,29.67365],[-82.37283,29.67389],[-82.37378,29.67539],[-82.37451,29.67841],[-82.37789,29.67944],[-82.38119,29.6798],[-82.38531,29.68193],[-82.38897,29.68227],[-82.38898,29.67419]]]},"properties":{"geoid":"120010011002","pop":1750,"mhi":65908.0,"moe":24950.0,"low_income":false,"east":false,"in_city":true}},{"type":"Feature","geometry":{"type":"Polygon","coordinates":[[[-82.38889,29.70326],[-82.38893,29.68873],[-82.37232,29.68869],[-82.37227,29.69663],[-82.37156,29.69884],[-82.36941,29.70082],[-82.36376,29.70333],[-82.38889,29.70326]]]},"properties":{"geoid":"120010012011","pop":2888,"mhi":61753.0,"moe":14784.0,"low_income":false,"east":false,"in_city":true}},{"type":"Feature","geometry":{"type":"Polygon","coordinates":[[[-82.36031,29.6191],[-82.35976,29.61363],[-82.3591,29.61213],[-82.35656,29.61319],[-82.3568,29.61374],[-82.35735,29.61389],[-82.35739,29.61553],[-82.35768,29.61604],[-82.35772,29.61684],[-82.35732,29.61734],[-82.35751,29.62013],[-82.35992,29.61994],[-82.35984,29.61914],[-82.36031,29.6191]]]},"properties":{"geoid":"120010015163","pop":973,"mhi":32269.0,"moe":23745.0,"low_income":true,"east":false,"in_city":true}},{"type":"Feature","geometry":{"type":"Polygon","coordinates":[[[-82.36503,29.63081],[-82.36512,29.62804],[-82.36459,29.62806],[-82.3644,29.62665],[-82.36218,29.62625],[-82.36204,29.62855],[-82.36183,29.62895],[-82.36085,29.62894],[-82.36149,29.63019],[-82.3617,29.63238],[-82.36503,29.63081]]]},"properties":{"geoid":"120010015154","pop":750,"mhi":19599.0,"moe":9075.0,"low_income":true,"east":false,"in_city":true}},{"type":"Feature","geometry":{"type":"Polygon","coordinates":[[[-82.44661,29.66004],[-82.43098,29.66041],[-82.42778,29.65981],[-82.41913,29.65969],[-82.42339,29.66471],[-82.4308,29.67251],[-82.4307,29.66711],[-82.43487,29.66706],[-82.43895,29.67064],[-82.43925,29.67163],[-82.43923,29.67435],[-82.44655,29.67439],[-82.44661,29.66004]]]},"properties":{"geoid":"120010022045","pop":1677,"mhi":71089.0,"moe":29554.0,"low_income":false,"east":false,"in_city":false}},{"type":"Feature","geometry":{"type":"Polygon","coordinates":[[[-82.41913,29.65969],[-82.41869,29.65955],[-82.4083,29.64729],[-82.40301,29.6489],[-82.40445,29.64949],[-82.40747,29.64999],[-82.40861,29.65092],[-82.40887,29.65178],[-82.40888,29.65965],[-82.41913,29.65969]]]},"properties":{"geoid":"120010016054","pop":750,"mhi":45167.0,"moe":21988.0,"low_income":true,"east":false,"in_city":true}},{"type":"Feature","geometry":{"type":"Polygon","coordinates":[[[-82.33082,29.65338],[-82.33084,29.65027],[-82.32658,29.65028],[-82.32653,29.64422],[-82.31847,29.64559],[-82.3165,29.64629],[-82.31511,29.64703],[-82.31348,29.64871],[-82.31181,29.6512],[-82.31154,29.6512],[-82.31147,29.65198],[-82.32041,29.65196],[-82.32009,29.65343],[-82.32313,29.65333],[-82.32311,29.65923],[-82.32659,29.65924],[-82.32659,29.65333],[-82.33082,29.65338]]]},"properties":{"geoid":"120010005001","pop":2221,"mhi":28363.0,"moe":7697.0,"low_income":true,"east":true,"in_city":true}},{"type":"Feature","geometry":{"type":"Polygon","coordinates":[[[-82.31478,29.66468],[-82.31478,29.65934],[-82.30658,29.65934],[-82.30183,29.66651],[-82.31026,29.66655],[-82.31029,29.66466],[-82.31478,29.66468]]]},"properties":{"geoid":"120010005002","pop":866,"mhi":65724.0,"moe":36841.0,"low_income":false,"east":true,"in_city":true}},{"type":"Feature","geometry":{"type":"Polygon","coordinates":[[[-82.32309,29.6666],[-82.32311,29.65923],[-82.31478,29.65934],[-82.31478,29.66468],[-82.31029,29.66466],[-82.31026,29.66655],[-82.32309,29.6666]]]},"properties":{"geoid":"120010005003","pop":841,"mhi":157656.0,"moe":84674.0,"low_income":false,"east":true,"in_city":true}},{"type":"Feature","geometry":{"type":"Polygon","coordinates":[[[-82.31741,29.65936],[-82.3177,29.65195],[-82.31147,29.65198],[-82.30658,29.65934],[-82.31741,29.65936]]]},"properties":{"geoid":"120010005004","pop":852,"mhi":null,"moe":null,"low_income":false,"east":true,"in_city":true}},{"type":"Feature","geometry":{"type":"Polygon","coordinates":[[[-82.32311,29.65923],[-82.32313,29.65333],[-82.32009,29.65343],[-82.32041,29.65196],[-82.3177,29.65195],[-82.31741,29.65936],[-82.32311,29.65923]]]},"properties":{"geoid":"120010005005","pop":661,"mhi":108125.0,"moe":89986.0,"low_income":false,"east":true,"in_city":true}},{"type":"Feature","geometry":{"type":"Polygon","coordinates":[[[-82.38915,29.65976],[-82.37241,29.65951],[-82.37237,29.66677],[-82.37357,29.66706],[-82.38898,29.67409],[-82.38915,29.65976]]]},"properties":{"geoid":"120010017021","pop":2062,"mhi":70584.0,"moe":22947.0,"low_income":false,"east":false,"in_city":true}},{"type":"Feature","geometry":{"type":"Polygon","coordinates":[[[-82.40149,29.67411],[-82.40155,29.6596],[-82.38916,29.65958],[-82.38898,29.67409],[-82.40149,29.67411]]]},"properties":{"geoid":"120010017022","pop":1766,"mhi":105865.0,"moe":67860.0,"low_income":false,"east":false,"in_city":true}},{"type":"Feature","geometry":{"type":"Polygon","coordinates":[[[-82.43903,29.60165],[-82.43909,29.59777],[-82.43819,29.59775],[-82.43734,29.59908],[-82.43787,29.59962],[-82.43424,29.60264],[-82.43336,29.60206],[-82.43204,29.60235],[-82.43165,29.60296],[-82.43174,29.60459],[-82.43055,29.60569],[-82.43056,29.60466],[-82.42266,29.60415],[-82.42261,29.61029],[-82.42784,29.61027],[-82.43194,29.60912],[-82.43259,29.60823],[-82.43317,29.60539],[-82.43384,29.60451],[-82.43598,29.60358],[-82.43844,29.6039],[-82.43903,29.60165]]]},"properties":{"geoid":"120010022212","pop":1207,"mhi":98482.0,"moe":34718.0,"low_income":false,"east":false,"in_city":false}},{"type":"Feature","geometry":{"type":"Polygon","coordinates":[[[-82.43893,29.66026],[-82.43909,29.64514],[-82.42244,29.64513],[-82.42237,29.65975],[-82.42811,29.65984],[-82.43098,29.66041],[-82.43893,29.66026]]]},"properties":{"geoid":"120010022071","pop":1355,"mhi":117917.0,"moe":67710.0,"low_income":false,"east":false,"in_city":false}},{"type":"Feature","geometry":{"type":"Polygon","coordinates":[[[-82.4724,29.65989],[-82.47253,29.64539],[-82.43909,29.64514],[-82.43893,29.66026],[-82.44455,29.65993],[-82.4724,29.65989]]]},"properties":{"geoid":"120010022081","pop":1263,"mhi":111833.0,"moe":76272.0,"low_income":false,"east":false,"in_city":false}},{"type":"Feature","geometry":{"type":"Polygon","coordinates":[[[-82.47253,29.64539],[-82.47261,29.63079],[-82.4392,29.63047],[-82.43909,29.64514],[-82.47253,29.64539]]]},"properties":{"geoid":"120010022082","pop":1698,"mhi":168669.0,"moe":23513.0,"low_income":false,"east":false,"in_city":false}},{"type":"Feature","geometry":{"type":"Polygon","coordinates":[[[-82.45479,29.78046],[-82.45487,29.75297],[-82.44874,29.75068],[-82.43259,29.73942],[-82.42207,29.73938],[-82.4221,29.73262],[-82.41737,29.7326],[-82.41783,29.73227],[-82.41795,29.72892],[-82.4097,29.72885],[-82.40969,29.73255],[-82.41671,29.73259],[-82.41669,29.73574],[-82.41377,29.73573],[-82.41376,29.73609],[-82.41476,29.73609],[-82.41475,29.73714],[-82.41401,29.73714],[-82.414,29.73884],[-82.41474,29.73884],[-82.41474,29.7393],[-82.38401,29.73934],[-82.40204,29.75933],[-82.40544,29.76244],[-82.40847,29.76446],[-82.41235,29.76595],[-82.43348,29.77167],[-82.44693,29.77689],[-82.45479,29.78046]]]},"properties":{"geoid":"120010018171","pop":3082,"mhi":101331.0,"moe":7862.0,"low_income":false,"east":false,"in_city":false}},{"type":"Feature","geometry":{"type":"Polygon","coordinates":[[[-82.3536,29.66427],[-82.35366,29.65949],[-82.33921,29.65919],[-82.33922,29.66668],[-82.35291,29.66674],[-82.3536,29.66427]]]},"properties":{"geoid":"120010010001","pop":833,"mhi":null,"moe":null,"low_income":false,"east":false,"in_city":true}},{"type":"Feature","geometry":{"type":"Polygon","coordinates":[[[-82.35681,29.6535],[-82.35633,29.6515],[-82.35572,29.65039],[-82.35566,29.65207],[-82.34782,29.65208],[-82.34781,29.65584],[-82.33926,29.65572],[-82.33921,29.65919],[-82.35653,29.65944],[-82.35681,29.6535]]]},"properties":{"geoid":"120010010003","pop":1445,"mhi":36033.0,"moe":15765.0,"low_income":true,"east":false,"in_city":true}},{"type":"Feature","geometry":{"type":"Polygon","coordinates":[[[-82.35409,29.74222],[-82.35377,29.73991],[-82.35409,29.72177],[-82.35343,29.71332],[-82.35358,29.71223],[-82.34309,29.70321],[-82.27964,29.70303],[-82.27749,29.70244],[-82.2689,29.7151],[-82.26738,29.7169],[-82.24936,29.73031],[-82.25089,29.73137],[-82.25288,29.73194],[-82.26239,29.73248],[-82.26436,29.73327],[-82.26986,29.73408],[-82.27344,29.73513],[-82.27474,29.73514],[-82.27675,29.73416],[-82.27661,29.74032],[-82.27809,29.75305],[-82.28099,29.75261],[-82.28743,29.74943],[-82.29018,29.74863],[-82.2979,29.74896],[-82.30296,29.74773],[-82.31025,29.74944],[-82.31526,29.74837],[-82.32024,29.74942],[-82.32361,29.74924],[-82.32549,29.74861],[-82.33077,29.7447],[-82.33559,29.74467],[-82.33915,29.74248],[-82.34563,29.74216],[-82.35409,29.74222]]]},"properties":{"geoid":"120010019082","pop":1197,"mhi":84074.0,"moe":26010.0,"low_income":false,"east":false,"in_city":false}},{"type":"Feature","geometry":{"type":"Polygon","coordinates":[[[-82.35728,29.75725],[-82.35661,29.75522],[-82.35409,29.74222],[-82.34563,29.74216],[-82.33915,29.74248],[-82.33559,29.74467],[-82.33077,29.7447],[-82.32549,29.74861],[-82.32361,29.74924],[-82.32024,29.74942],[-82.31526,29.74837],[-82.31025,29.74944],[-82.30296,29.74773],[-82.2979,29.74896],[-82.29018,29.74863],[-82.28743,29.74943],[-82.28099,29.75261],[-82.27809,29.75305],[-82.27661,29.74032],[-82.27675,29.73416],[-82.27474,29.73514],[-82.27344,29.73513],[-82.26986,29.73408],[-82.26436,29.73327],[-82.26239,29.73248],[-82.25288,29.73194],[-82.25089,29.73137],[-82.24936,29.73031],[-82.17527,29.78422],[-82.17172,29.78722],[-82.17227,29.78747],[-82.1748,29.78742],[-82.17466,29.79108],[-82.17552,29.7911],[-82.1759,29.79142],[-82.17604,29.79366],[-82.17652,29.79506],[-82.18427,29.80469],[-82.18613,29.80595],[-82.19287,29.80895],[-82.20196,29.81387],[-82.20841,29.81865],[-82.21654,29.82354],[-82.21799,29.82483],[-82.21893,29.82624],[-82.21972,29.82889],[-82.22001,29.84125],[-82.2197,29.8453],[-82.23351,29.8453],[-82.23366,29.84898],[-82.23819,29.84904],[-82.23815,29.85075],[-82.23952,29.85169],[-82.24245,29.85246],[-82.24398,29.85242],[-82.2462,29.85196],[-82.24718,29.85091],[-82.25,29.84997],[-82.25136,29.85021],[-82.25249,29.85009],[-82.25347,29.84952],[-82.25435,29.84973],[-82.25475,29.84955],[-82.25458,29.84915],[-82.25516,29.84926],[-82.25533,29.84887],[-82.25567,29.84907],[-82.25605,29.84864],[-82.25739,29.84848],[-82.25856,29.84723],[-82.25906,29.84703],[-82.26002,29.84729],[-82.26011,29.84707],[-82.2596,29.84681],[-82.26038,29.84657],[-82.26304,29.84683],[-82.26356,29.84658],[-82.26405,29.84705],[-82.26416,29.84661],[-82.26353,29.84514],[-82.26319,29.83447],[-82.26338,29.83019],[-82.26383,29.82912],[-82.26483,29.82819],[-82.26589,29.82771],[-82.28161,29.82486],[-82.28261,29.82447],[-82.28365,29.82351],[-82.28419,29.8219],[-82.28347,29.80074],[-82.28283,29.79504],[-82.28313,29.79564],[-82.28391,29.7961],[-82.28862,29.79671],[-82.29142,29.79776],[-82.3463,29.79685],[-82.3462,29.77675],[-82.35728,29.75725]]]},"properties":{"geoid":"120010019085","pop":1154,"mhi":61615.0,"moe":32958.0,"low_income":false,"east":false,"in_city":false}},{"type":"Feature","geometry":{"type":"Polygon","coordinates":[[[-82.33938,29.64098],[-82.33925,29.63646],[-82.33535,29.63661],[-82.33537,29.63996],[-82.33452,29.64027],[-82.33445,29.64065],[-82.33339,29.64128],[-82.33304,29.64187],[-82.33305,29.6428],[-82.33365,29.64299],[-82.33703,29.64232],[-82.33938,29.64098]]]},"properties":{"geoid":"120010008061","pop":1873,"mhi":17908.0,"moe":4302.0,"low_income":true,"east":false,"in_city":true}},{"type":"Feature","geometry":{"type":"Polygon","coordinates":[[[-82.36273,29.61973],[-82.3622,29.61341],[-82.35976,29.61363],[-82.36031,29.6191],[-82.35984,29.61914],[-82.35992,29.61994],[-82.36273,29.61973]]]},"properties":{"geoid":"120010015161","pop":871,"mhi":null,"moe":null,"low_income":false,"east":false,"in_city":true}},{"type":"Feature","geometry":{"type":"Polygon","coordinates":[[[-82.40333,29.69225],[-82.40319,29.69068],[-82.40045,29.69079],[-82.40023,29.68998],[-82.40042,29.68878],[-82.39739,29.68873],[-82.39716,29.69336],[-82.39809,29.69361],[-82.39795,29.69544],[-82.39938,29.69589],[-82.40108,29.69462],[-82.40142,29.69368],[-82.40117,29.69288],[-82.40231,29.69231],[-82.40333,29.69225]]]},"properties":{"geoid":"120010018111","pop":990,"mhi":91341.0,"moe":22848.0,"low_income":false,"east":false,"in_city":false}},{"type":"Feature","geometry":{"type":"Polygon","coordinates":[[[-82.27409,29.70746],[-82.2557,29.70746],[-82.25573,29.68823],[-82.23923,29.68786],[-82.20845,29.68788],[-82.20478,29.68791],[-82.20327,29.68827],[-82.17348,29.70371],[-82.16072,29.70788],[-82.15295,29.71366],[-82.13963,29.71677],[-82.14103,29.72333],[-82.14101,29.75813],[-82.14135,29.7609],[-82.14257,29.7627],[-82.16666,29.78039],[-82.16738,29.78206],[-82.16739,29.79052],[-82.17527,29.78422],[-82.26587,29.71825],[-82.2689,29.7151],[-82.27409,29.70746]]]},"properties":{"geoid":"120010019072","pop":839,"mhi":39688.0,"moe":10454.0,"low_income":true,"east":false,"in_city":false}},{"type":"Feature","geometry":{"type":"Polygon","coordinates":[[[-82.38475,29.8006],[-82.38376,29.79715],[-82.37831,29.78701],[-82.37553,29.78258],[-82.36876,29.77208],[-82.35728,29.75725],[-82.34708,29.77501],[-82.34606,29.77729],[-82.34673,29.83334],[-82.34597,29.83788],[-82.34715,29.84122],[-82.34729,29.85463],[-82.34681,29.85652],[-82.34037,29.87137],[-82.33658,29.8762],[-82.33621,29.8788],[-82.34327,29.87661],[-82.34812,29.87679],[-82.35032,29.8783],[-82.35089,29.87826],[-82.35136,29.8776],[-82.35374,29.87853],[-82.35561,29.87822],[-82.35628,29.8774],[-82.35747,29.8776],[-82.35823,29.87733],[-82.35915,29.87833],[-82.35909,29.87904],[-82.36047,29.87971],[-82.36155,29.88115],[-82.36297,29.88148],[-82.36629,29.88038],[-82.3677,29.88048],[-82.36938,29.87917],[-82.37225,29.87985],[-82.37305,29.87937],[-82.37389,29.87929],[-82.37453,29.87706],[-82.37858,29.87423],[-82.3794,29.87099],[-82.37997,29.86992],[-82.3792,29.86963],[-82.37908,29.86882],[-82.37833,29.86866],[-82.37821,29.86805],[-82.37728,29.86755],[-82.37624,29.86612],[-82.37805,29.86203],[-82.37744,29.86095],[-82.37776,29.85962],[-82.37651,29.85774],[-82.37477,29.85655],[-82.37422,29.85071],[-82.37687,29.84487],[-82.3784,29.84292],[-82.37862,29.84114],[-82.37753,29.84086],[-82.37667,29.84011],[-82.37675,29.83588],[-82.37552,29.83514],[-82.37519,29.83449],[-82.37537,29.83296],[-82.37508,29.83197],[-82.37506,29.82926],[-82.37533,29.8269],[-82.37132,29.81885],[-82.37133,29.81695],[-82.37219,29.81529],[-82.37239,29.81359],[-82.37191,29.81262],[-82.3705,29.81163],[-82.368,29.81108],[-82.36735,29.80974],[-82.36891,29.80872],[-82.36946,29.80728],[-82.37078,29.8064],[-82.37078,29.80569],[-82.37159,29.80415],[-82.37107,29.80334],[-82.37135,29.80218],[-82.3711,29.80092],[-82.38475,29.8006]]]},"properties":{"geoid":"120010019083","pop":943,"mhi":89536.0,"moe":68347.0,"low_income":false,"east":false,"in_city":false}},{"type":"Feature","geometry":{"type":"Polygon","coordinates":[[[-82.42241,29.64918],[-82.42244,29.64513],[-82.41399,29.6451],[-82.41399,29.64917],[-82.42241,29.64918]]]},"properties":{"geoid":"120010022171","pop":2093,"mhi":38374.0,"moe":10897.0,"low_income":true,"east":false,"in_city":false}},{"type":"Feature","geometry":{"type":"Polygon","coordinates":[[[-82.30579,29.68835],[-82.30585,29.67383],[-82.29687,29.67382],[-82.28928,29.68503],[-82.29304,29.68687],[-82.29649,29.6879],[-82.29994,29.68832],[-82.30579,29.68835]]]},"properties":{"geoid":"120010004001","pop":1041,"mhi":null,"moe":null,"low_income":false,"east":true,"in_city":true}},{"type":"Feature","geometry":{"type":"Polygon","coordinates":[[[-82.32445,29.66798],[-82.32453,29.66664],[-82.31026,29.66655],[-82.31023,29.67384],[-82.32156,29.67389],[-82.32404,29.66937],[-82.32445,29.66798]]]},"properties":{"geoid":"120010004003","pop":917,"mhi":49037.0,"moe":17698.0,"low_income":true,"east":true,"in_city":true}},{"type":"Feature","geometry":{"type":"Polygon","coordinates":[[[-82.31982,29.6771],[-82.32156,29.67389],[-82.30585,29.67383],[-82.30579,29.68835],[-82.31937,29.68842],[-82.31937,29.67872],[-82.31982,29.6771]]]},"properties":{"geoid":"120010004004","pop":2224,"mhi":88880.0,"moe":18918.0,"low_income":false,"east":true,"in_city":true}},{"type":"Feature","geometry":{"type":"Polygon","coordinates":[[[-82.3685,29.62114],[-82.36459,29.61968],[-82.35578,29.62027],[-82.35607,29.62354],[-82.36108,29.62263],[-82.36091,29.62079],[-82.36249,29.62065],[-82.36268,29.62251],[-82.36189,29.62256],[-82.36189,29.62286],[-82.36094,29.62315],[-82.36095,29.62414],[-82.35989,29.62424],[-82.36005,29.6257],[-82.3594,29.62576],[-82.35931,29.62516],[-82.35681,29.62531],[-82.35639,29.62575],[-82.35722,29.62689],[-82.36085,29.62894],[-82.36183,29.62895],[-82.36204,29.62855],[-82.36232,29.62614],[-82.3644,29.62665],[-82.36459,29.62806],[-82.36512,29.62804],[-82.36541,29.62672],[-82.36596,29.62618],[-82.36618,29.62539],[-82.36598,29.62489],[-82.36805,29.62472],[-82.36814,29.62362],[-82.36762,29.62221],[-82.3685,29.62114]]]},"properties":{"geoid":"120010015152","pop":4420,"mhi":38208.0,"moe":9800.0,"low_income":true,"east":false,"in_city":true}},{"type":"Feature","geometry":{"type":"Polygon","coordinates":[[[-82.3729,29.62175],[-82.37208,29.6142],[-82.36886,29.61424],[-82.36902,29.61668],[-82.36748,29.61715],[-82.36736,29.6131],[-82.36504,29.61328],[-82.36557,29.6199],[-82.3704,29.62161],[-82.3729,29.62175]]]},"properties":{"geoid":"120010015171","pop":1971,"mhi":45954.0,"moe":9161.0,"low_income":true,"east":false,"in_city":true}}]}