{"type":"FeatureCollection","features":[{"type":"Feature","properties":{"name":"Gainesville-Hawthorne State Trail","osm":2117060},"geometry":{"type":"MultiLineString","coordinates":[[[-82.22258,29.59516],[-82.22242,29.59517],[-82.22045,29.59532],[-82.2194,29.59538],[-82.21887,29.59544],[-82.21747,29.59554],[-82.21701,29.59556],[-82.2167,29.59553],[-82.21462,29.59533],[-82.21428,29.59529],[-82.21205,29.59501],[-82.20943,29.59473],[-82.20879,29.59467],[-82.20819,29.59465],[-82.2069,29.59469],[-82.20552,29.59476],[-82.20418,29.59482],[-82.20339,29.59484],[-82.20288,29.59478],[-82.20104,29.59435],[-82.19749,29.59352],[-82.19388,29.59267],[-82.192,29.59222],[-82.1901,29.59179],[-82.18894,29.5915],[-82.18765,29.59119],[-82.18635,29.59089],[-82.18373,29.59028],[-82.18309,29.59015],[-82.18241,29.59011],[-82.18177,29.59016],[-82.18136,29.59025],[-82.18097,29.59038],[-82.1801,29.59072],[-82.17853,29.59134],[-82.1772,29.59188],[-82.17576,29.59246],[-82.17363,29.59333],[-82.17245,29.59382],[-82.17126,29.59431],[-82.17103,29.5944],[-82.1689,29.59527],[-82.16737,29.59588],[-82.16656,29.59614],[-82.16498,29.59657],[-82.16368,29.5969],[-82.16273,29.59714],[-82.16077,29.59767],[-82.1588,29.59821],[-82.15678,29.59874],[-82.15541,29.5991],[-82.15427,29.59939],[-82.15402,29.59944],[-82.15386,29.59946],[-82.15323,29.59948],[-82.15276,29.59945],[-82.15219,29.59933],[-82.15125,29.59905],[-82.14545,29.59731],[-82.14349,29.59672],[-82.14153,29.59613],[-82.13694,29.59476],[-82.13538,29.59429],[-82.1338,29.59381],[-82.13218,29.59335],[-82.13172,29.59318],[-82.13133,29.59298],[-82.1307,29.5926],[-82.12967,29.59172],[-82.12879,29.59094],[-82.12781,29.59008],[-82.12777,29.59005],[-82.12742,29.58975],[-82.1269,29.58929],[-82.12657,29.589],[-82.12624,29.58873],[-82.1259,29.58849],[-82.12555,29.5883],[-82.12514,29.58812],[-82.12484,29.58801],[-82.12447,29.58791],[-82.12398,29.58782],[-82.12347,29.58777],[-82.12244,29.58776],[-82.12167,29.58776],[-82.11971,29.58772],[-82.11776,29.58771],[-82.11589,29.58769],[-82.11355,29.58766],[-82.11171,29.58765],[-82.11156,29.58761],[-82.11142,29.58757],[-82.11131,29.58752],[-82.11124,29.5875],[-82.11094,29.58751],[-82.10999,29.58751],[-82.10991,29.58759],[-82.10983,29.58765],[-82.10963,29.58767],[-82.1082,29.58765],[-82.1059,29.58761],[-82.10249,29.58756],[-82.09937,29.58754],[-82.09729,29.58752],[-82.09421,29.5875],[-82.094,29.58749],[-82.09379,29.58742],[-82.0936,29.5874],[-82.09337,29.58745],[-82.09327,29.58748],[-82.08973,29.58741]],[[-82.30517,29.60972],[-82.30502,29.60961],[-82.30464,29.60942],[-82.30449,29.60933],[-82.3044,29.60933],[-82.30431,29.60935],[-82.30395,29.60963],[-82.30354,29.60991],[-82.30342,29.61007],[-82.30332,29.6103],[-82.30322,29.61053],[-82.30311,29.61066],[-82.30295,29.61074],[-82.30279,29.61077],[-82.30265,29.61077],[-82.30251,29.61071],[-82.30187,29.61024],[-82.30152,29.60996],[-82.30142,29.60982],[-82.30139,29.60968],[-82.30135,29.60946],[-82.30133,29.60932],[-82.3014,29.60914],[-82.30142,29.60905],[-82.30138,29.60898],[-82.3013,29.60894],[-82.30096,29.60886],[-82.30056,29.6088],[-82.30026,29.60881],[-82.29975,29.60887],[-82.29947,29.60882],[-82.29913,29.60878],[-82.29879,29.60885],[-82.2985,29.60881],[-82.29822,29.60871],[-82.29792,29.60872],[-82.29751,29.6086],[-82.29678,29.60855],[-82.29626,29.60855],[-82.29584,29.60861],[-82.29532,29.60863],[-82.29491,29.60863],[-82.29427,29.60852],[-82.29346,29.60852],[-82.29332,29.6085],[-82.29325,29.60844],[-82.29296,29.6081],[-82.29284,29.60806],[-82.29271,29.60804],[-82.29244,29.608],[-82.29219,29.60797],[-82.29188,29.60797],[-82.29164,29.60794],[-82.2913,29.60801],[-82.29109,29.60805],[-82.29076,29.60801],[-82.29043,29.60794],[-82.28994,29.60781],[-82.2897,29.6078],[-82.28943,29.60785],[-82.28893,29.60787],[-82.28824,29.60792],[-82.28794,29.60795],[-82.28748,29.60806],[-82.2873,29.60807],[-82.28716,29.608],[-82.28698,29.60788],[-82.28673,29.60775],[-82.28663,29.60765],[-82.28649,29.60746],[-82.28639,29.60731],[-82.28632,29.60726],[-82.28621,29.60719],[-82.2861,29.60716],[-82.28598,29.60716],[-82.28571,29.6072],[-82.28545,29.60724],[-82.28526,29.60734],[-82.28507,29.60749],[-82.28497,29.60756],[-82.28452,29.60771],[-82.28414,29.60783],[-82.28395,29.60787],[-82.28383,29.60787],[-82.28356,29.60781],[-82.28334,29.60776],[-82.28322,29.60776],[-82.28296,29.60779],[-82.28281,29.60781],[-82.2825,29.60782],[-82.28203,29.60781],[-82.28182,29.60776],[-82.28137,29.60763],[-82.2812,29.60761],[-82.28096,29.60763],[-82.28068,29.6076],[-82.28045,29.60771],[-82.28018,29.60771],[-82.27993,29.6078],[-82.2798,29.60785],[-82.2795,29.60776],[-82.27926,29.6077],[-82.27907,29.60772],[-82.27877,29.60779],[-82.27847,29.60787],[-82.27831,29.60789],[-82.27813,29.60785],[-82.27784,29.60777],[-82.27754,29.60772],[-82.27719,29.60776],[-82.27681,29.60781],[-82.27657,29.60783],[-82.27621,29.60783],[-82.276,29.60784],[-82.27578,29.60789],[-82.27562,29.6079],[-82.27534,29.60785],[-82.2752,29.60782],[-82.2749,29.60779],[-82.27465,29.60777],[-82.27437,29.60767],[-82.27421,29.60766],[-82.27388,29.6077],[-82.27359,29.60775],[-82.27338,29.60774],[-82.27321,29.60771],[-82.27298,29.60771],[-82.2728,29.60772],[-82.2726,29.60772],[-82.27225,29.60768],[-82.2721,29.60771],[-82.27196,29.60784],[-82.27192,29.6079]],[[-82.30929,29.62135],[-82.30914,29.62079],[-82.3091,29.62058],[-82.30891,29.61965],[-82.30881,29.61907],[-82.30852,29.61748],[-82.30821,29.6157],[-82.30795,29.61445],[-82.30783,29.61399],[-82.30749,29.61334],[-82.30666,29.61207],[-82.3064,29.61164],[-82.30586,29.61079],[-82.30517,29.60972]],[[-82.27079,29.60843],[-82.27063,29.60859],[-82.27037,29.60879],[-82.26965,29.60933],[-82.26756,29.61078],[-82.26415,29.61306],[-82.26342,29.61339],[-82.26267,29.61358],[-82.26213,29.61366],[-82.26166,29.61366],[-82.26118,29.61362],[-82.26073,29.61354],[-82.25395,29.61218],[-82.2515,29.61167],[-82.24851,29.61103],[-82.2484,29.61101]],[[-82.27192,29.6079],[-82.27188,29.60795],[-82.27172,29.60807],[-82.27155,29.60814],[-82.27134,29.6082],[-82.27112,29.60825],[-82.27097,29.60831],[-82.27079,29.60843]],[[-82.30834,29.62152],[-82.30853,29.6215],[-82.3087,29.62149],[-82.30901,29.62143],[-82.30929,29.62135]],[[-82.24795,29.61091],[-82.24753,29.6108],[-82.24518,29.61034],[-82.24394,29.61006],[-82.24319,29.60983],[-82.2426,29.6095],[-82.24224,29.60926],[-82.24168,29.60878],[-82.24059,29.60775],[-82.24016,29.60735],[-82.23936,29.60662],[-82.23921,29.60648],[-82.23763,29.60497],[-82.23633,29.60376],[-82.23482,29.60234],[-82.23352,29.6011],[-82.23257,29.60017],[-82.23101,29.59867],[-82.22964,29.59737],[-82.22904,29.59676],[-82.22864,29.59643],[-82.22835,29.59618],[-82.22819,29.59604],[-82.22778,29.59573],[-82.22749,29.59555],[-82.22687,29.59527],[-82.22623,29.59507],[-82.22596,29.59502],[-82.22568,29.59498],[-82.22516,29.59499],[-82.22456,29.59502],[-82.22258,29.59516]],[[-82.2484,29.61101],[-82.24795,29.61091]]]}},{"type":"Feature","properties":{"name":"Waldo Road Greenway","osm":2117084},"geometry":{"type":"MultiLineString","coordinates":[[[-82.31104,29.65224],[-82.31071,29.65276],[-82.31065,29.65285],[-82.31011,29.65365],[-82.30999,29.65384],[-82.30993,29.65393],[-82.30918,29.65497],[-82.30777,29.6571],[-82.30744,29.65758],[-82.30657,29.6589],[-82.3065,29.65904],[-82.30648,29.6591],[-82.30647,29.65914],[-82.30647,29.65915],[-82.30645,29.65919],[-82.30644,29.65922],[-82.30642,29.65924]],[[-82.30346,29.66365],[-82.30341,29.66367],[-82.30334,29.6637],[-82.30328,29.66373],[-82.30163,29.66617],[-82.30161,29.66622],[-82.30164,29.66627],[-82.30171,29.66633],[-82.30173,29.66636],[-82.30171,29.6664],[-82.30167,29.66642]],[[-82.30353,29.66363],[-82.3035,29.66364],[-82.30346,29.66365]],[[-82.30358,29.66359],[-82.30356,29.66362],[-82.30353,29.66363]],[[-82.30367,29.66346],[-82.30366,29.66347],[-82.3036,29.66355],[-82.30358,29.66359]],[[-82.30368,29.6634],[-82.30369,29.66342],[-82.30367,29.66346]],[[-82.30366,29.66334],[-82.30367,29.66337],[-82.30368,29.6634]],[[-82.30633,29.65943],[-82.30631,29.65944],[-82.30628,29.65947],[-82.30622,29.6595],[-82.30617,29.65952],[-82.30611,29.65956],[-82.30605,29.65963],[-82.30545,29.66057],[-82.30536,29.66071],[-82.30527,29.66086],[-82.30525,29.66103],[-82.3052,29.66114],[-82.30504,29.66129],[-82.3049,29.6615],[-82.30471,29.66164],[-82.30363,29.66319],[-82.30362,29.66323],[-82.30363,29.66328],[-82.30364,29.66331],[-82.30366,29.66334]],[[-82.30642,29.65924],[-82.3064,29.65929],[-82.30633,29.65943]],[[-82.30167,29.66642],[-82.30165,29.66646],[-82.30159,29.66652],[-82.30155,29.66657]],[[-82.30155,29.66657],[-82.30155,29.66659],[-82.30154,29.66662],[-82.30145,29.6667],[-82.30125,29.66694],[-82.30119,29.66697],[-82.30108,29.66697],[-82.29929,29.66963],[-82.2982,29.67108],[-82.29819,29.67121],[-82.29819,29.67132],[-82.29814,29.67144],[-82.29799,29.6716],[-82.2978,29.67179],[-82.29706,29.67289],[-82.29644,29.67378],[-82.295,29.6759],[-82.29408,29.67742],[-82.29211,29.68023],[-82.28912,29.68462],[-82.28912,29.68474],[-82.28911,29.68477]],[[-82.28911,29.68477],[-82.28907,29.68483],[-82.289,29.68497],[-82.28897,29.68503],[-82.28895,29.68502],[-82.28887,29.68498],[-82.2883,29.68581],[-82.2877,29.68668],[-82.28727,29.68732],[-82.28677,29.68807],[-82.28681,29.68816],[-82.28682,29.68818],[-82.28678,29.68824],[-82.28674,29.68831],[-82.2867,29.68838],[-82.28659,29.68837],[-82.28649,29.68846],[-82.28607,29.6891],[-82.2859,29.68939],[-82.28557,29.68983],[-82.28482,29.69099],[-82.28421,29.69188],[-82.28382,29.69234],[-82.28335,29.69311],[-82.28316,29.69343],[-82.28287,29.6938],[-82.28276,29.694],[-82.28261,29.6942],[-82.28232,29.69468],[-82.28206,29.69501],[-82.2819,29.69527],[-82.28172,29.69553],[-82.28155,29.6958],[-82.28129,29.69613],[-82.28111,29.69645],[-82.28098,29.6966],[-82.28087,29.69673]]]}},{"type":"Feature","properties":{"name":"Depot Avenue Rails-to-Trails Bike Path","osm":2117056},"geometry":{"type":"MultiLineString","coordinates":[[[-82.34176,29.63957],[-82.34167,29.63962]],[[-82.34023,29.64039],[-82.33982,29.6407],[-82.33964,29.64082]],[[-82.34167,29.63962],[-82.34157,29.63963],[-82.34152,29.63964],[-82.34146,29.63967],[-82.34136,29.63971],[-82.34121,29.63979],[-82.34101,29.63989],[-82.34089,29.63996],[-82.34076,29.64004],[-82.34062,29.64012],[-82.34051,29.6402],[-82.34049,29.64022],[-82.34023,29.64039]],[[-82.33964,29.64082],[-82.33899,29.6413]],[[-82.33899,29.6413],[-82.33881,29.64143],[-82.3387,29.64151],[-82.33864,29.64155],[-82.33841,29.64171],[-82.33805,29.64192],[-82.33804,29.64193],[-82.33795,29.64198],[-82.33792,29.64199],[-82.3378,29.64204],[-82.33765,29.64212],[-82.33762,29.64213],[-82.33725,29.64228],[-82.33694,29.64238],[-82.33662,29.64246],[-82.33651,29.64249],[-82.33638,29.64253],[-82.33629,29.64255],[-82.33622,29.64255],[-82.33615,29.64254],[-82.33607,29.64251],[-82.33603,29.64249],[-82.33599,29.64248],[-82.33595,29.64248],[-82.33589,29.64247]],[[-82.33572,29.64249],[-82.33568,29.6425],[-82.33563,29.64251],[-82.33559,29.64252],[-82.33556,29.64253],[-82.3355,29.64258],[-82.33543,29.64263],[-82.33533,29.64266],[-82.33507,29.64272],[-82.33485,29.64276],[-82.33438,29.64285],[-82.33433,29.64286],[-82.33422,29.64285],[-82.33415,29.64286],[-82.33398,29.6429]],[[-82.3339,29.64291],[-82.33384,29.64292],[-82.33382,29.64293],[-82.33377,29.64296],[-82.33372,29.64296],[-82.33366,29.64298],[-82.3336,29.64299]],[[-82.33398,29.6429],[-82.33394,29.6429],[-82.3339,29.64291]],[[-82.3336,29.64299],[-82.33354,29.643],[-82.33346,29.64302]],[[-82.33583,29.64248],[-82.33582,29.64248],[-82.33575,29.64249],[-82.33572,29.64249]],[[-82.33589,29.64247],[-82.33586,29.64248],[-82.33583,29.64248]],[[-82.33108,29.64328],[-82.33102,29.64329],[-82.33103,29.64332],[-82.33102,29.64336],[-82.33101,29.64338],[-82.33099,29.6434],[-82.33096,29.64342],[-82.33093,29.64344],[-82.33088,29.64345]],[[-82.33126,29.64324],[-82.33119,29.64326],[-82.3311,29.64328],[-82.33108,29.64328]],[[-82.33009,29.6436],[-82.32989,29.64364],[-82.32956,29.64371],[-82.32904,29.6438],[-82.32854,29.64388],[-82.32818,29.64394]],[[-82.32818,29.64394],[-82.32813,29.64395],[-82.32805,29.64396]],[[-82.33088,29.64345],[-82.33086,29.64345],[-82.33081,29.64347],[-82.33049,29.64353],[-82.33019,29.64358]],[[-82.33019,29.64358],[-82.33015,29.64359],[-82.33009,29.6436]],[[-82.32805,29.64396],[-82.32791,29.64399],[-82.32782,29.644],[-82.32777,29.64399],[-82.32773,29.64398],[-82.32769,29.64398],[-82.32765,29.64399],[-82.32758,29.64403],[-82.32749,29.64406],[-82.32662,29.6442],[-82.32595,29.64432],[-82.32559,29.64439],[-82.32554,29.64439],[-82.32549,29.64439],[-82.32545,29.64438],[-82.32531,29.64434],[-82.32525,29.64432],[-82.3252,29.64431]],[[-82.33346,29.64302],[-82.33338,29.64303],[-82.33324,29.64305],[-82.33263,29.64315],[-82.33246,29.64319],[-82.33226,29.64323],[-82.33197,29.64328],[-82.33159,29.64334],[-82.33147,29.64336],[-82.33144,29.64336],[-82.3314,29.64336],[-82.33137,29.64336],[-82.33135,29.64335],[-82.33133,29.64334],[-82.33131,29.64333],[-82.3313,29.64332],[-82.33128,29.6433],[-82.33126,29.64324]],[[-82.3252,29.64431],[-82.32516,29.6443],[-82.32507,29.64428],[-82.32504,29.64427]],[[-82.32504,29.64427],[-82.32501,29.64426],[-82.32497,29.64429],[-82.32493,29.64432],[-82.32488,29.64434],[-82.32482,29.64438],[-82.32479,29.64441],[-82.32474,29.64447],[-82.32471,29.64449],[-82.32464,29.64453],[-82.32464,29.64448],[-82.32462,29.64447],[-82.32455,29.64448],[-82.32385,29.6446],[-82.32311,29.64472],[-82.32297,29.64475],[-82.32298,29.64478],[-82.32299,29.64481],[-82.32249,29.6449],[-82.32206,29.64498],[-82.32201,29.64498],[-82.32197,29.64498],[-82.32194,29.64498],[-82.32191,29.64497],[-82.32189,29.64496],[-82.32186,29.64495],[-82.32184,29.64493],[-82.32182,29.64491],[-82.3218,29.64489],[-82.32178,29.64486],[-82.32175,29.64484]],[[-82.3217,29.64472],[-82.32168,29.64471],[-82.32167,29.64471],[-82.32165,29.6447],[-82.32164,29.64471],[-82.32162,29.64471],[-82.32161,29.64472],[-82.3216,29.64474],[-82.3216,29.64475],[-82.3216,29.64476],[-82.32161,29.64478],[-82.32162,29.64479],[-82.32163,29.6448],[-82.32165,29.6448],[-82.32166,29.6448],[-82.32168,29.64479],[-82.32169,29.64478],[-82.3217,29.64477],[-82.32171,29.64476],[-82.32171,29.64475],[-82.3217,29.64473],[-82.3217,29.64472]],[[-82.3216,29.64476],[-82.32147,29.64478]],[[-82.32175,29.64484],[-82.32169,29.64478]],[[-82.32147,29.64478],[-82.32142,29.64479],[-82.32135,29.6448],[-82.32131,29.64481]],[[-82.32131,29.64481],[-82.3213,29.64486],[-82.32128,29.64492],[-82.32126,29.64495],[-82.32123,29.64498],[-82.32118,29.645],[-82.321,29.64504],[-82.321,29.64506]],[[-82.321,29.64506],[-82.32101,29.64509],[-82.32103,29.64516],[-82.32103,29.64518]],[[-82.31649,29.64636],[-82.31551,29.64694],[-82.3151,29.6472],[-82.31397,29.64816],[-82.31392,29.64823],[-82.31384,29.64831],[-82.31344,29.64877],[-82.31321,29.64906],[-82.31308,29.64927],[-82.31274,29.64975],[-82.3126,29.64998],[-82.3126,29.65]],[[-82.32103,29.64518],[-82.32104,29.6452],[-82.31986,29.64541]],[[-82.31986,29.64541],[-82.3198,29.64542],[-82.31973,29.64544]],[[-82.31787,29.64597],[-82.31785,29.64597],[-82.31785,29.64594],[-82.31784,29.64592],[-82.31782,29.64589],[-82.31779,29.64588],[-82.31771,29.64586],[-82.31768,29.64589],[-82.31723,29.64605],[-82.31689,29.64619],[-82.31649,29.64636]],[[-82.31973,29.64544],[-82.31956,29.64547],[-82.3195,29.64548],[-82.31929,29.64551],[-82.31926,29.64551]],[[-82.31926,29.64551],[-82.31917,29.64552],[-82.31905,29.64554]],[[-82.31905,29.64554],[-82.31884,29.64558],[-82.31871,29.64562],[-82.31856,29.64567],[-82.31846,29.64571],[-82.31829,29.64578],[-82.31816,29.64582],[-82.31811,29.64584],[-82.31809,29.64585],[-82.31807,29.64587],[-82.31806,29.64589],[-82.31804,29.64591],[-82.31803,29.64593],[-82.31802,29.64598],[-82.31799,29.64597]],[[-82.31799,29.64597],[-82.31797,29.64597],[-82.31789,29.64597],[-82.31787,29.64597]],[[-82.31185,29.65104],[-82.31183,29.6511],[-82.31181,29.65119],[-82.31181,29.6513],[-82.31179,29.65136],[-82.3117,29.65155],[-82.31168,29.65163],[-82.31166,29.65175]],[[-82.31259,29.65019],[-82.31259,29.65021],[-82.31257,29.65024],[-82.31241,29.65036],[-82.31185,29.65104]],[[-82.3126,29.65],[-82.3126,29.65005],[-82.31259,29.65015],[-82.31259,29.65019]]]}},{"type":"Feature","properties":{"name":"6th Street Rail-Trail","osm":2117051},"geometry":{"type":"MultiLineString","coordinates":[[[-82.33089,29.64349],[-82.3309,29.64352],[-82.33093,29.64358],[-82.33094,29.64361]],[[-82.33088,29.64345],[-82.33089,29.64349]],[[-82.33094,29.64361],[-82.33095,29.64364]],[[-82.33088,29.64345],[-82.33086,29.64341],[-82.33083,29.64334],[-82.33077,29.64322],[-82.3307,29.64309],[-82.33057,29.64289],[-82.33047,29.64275],[-82.33036,29.64262],[-82.33022,29.64247],[-82.33002,29.64228],[-82.32975,29.64206],[-82.32955,29.64194],[-82.32932,29.64182],[-82.32915,29.64174],[-82.32895,29.64166],[-82.32863,29.64154],[-82.32832,29.64145],[-82.32772,29.6413],[-82.32635,29.64093],[-82.32626,29.64091]],[[-82.33095,29.64364],[-82.33096,29.64367],[-82.33097,29.64373],[-82.33104,29.64397],[-82.33108,29.64415],[-82.33111,29.64436],[-82.33111,29.64483],[-82.33112,29.64528],[-82.33112,29.64579],[-82.33112,29.64622],[-82.33112,29.64709],[-82.33112,29.64714],[-82.33112,29.64716]],[[-82.33064,29.65034],[-82.33069,29.65034],[-82.33071,29.65034],[-82.33072,29.65036],[-82.33073,29.65038],[-82.33073,29.65045],[-82.33073,29.65068],[-82.33073,29.65088],[-82.33074,29.65092],[-82.33075,29.65096],[-82.33076,29.65101],[-82.33076,29.65107],[-82.33076,29.65194],[-82.33076,29.65196]],[[-82.33088,29.64825],[-82.33088,29.64828],[-82.33089,29.64834],[-82.3309,29.64836]],[[-82.3309,29.64836],[-82.3309,29.64837],[-82.3309,29.64843],[-82.3309,29.64851],[-82.3309,29.64856],[-82.33088,29.64865],[-82.33084,29.6489],[-82.33083,29.64892],[-82.33083,29.64893]],[[-82.33083,29.64893],[-82.33082,29.64898],[-82.33082,29.64902]],[[-82.33111,29.64723],[-82.3311,29.6473],[-82.33109,29.64734],[-82.33106,29.64744],[-82.33105,29.64746],[-82.33105,29.64749],[-82.33104,29.64759],[-82.33103,29.64764],[-82.33103,29.64771],[-82.33102,29.64776],[-82.33101,29.6478],[-82.33094,29.64795],[-82.3309,29.64802],[-82.33089,29.64806],[-82.33088,29.64809],[-82.33087,29.64813],[-82.33087,29.64817],[-82.33087,29.64821],[-82.33088,29.64824],[-82.33088,29.64825]],[[-82.33112,29.64716],[-82.33111,29.64719],[-82.33111,29.64723]],[[-82.33082,29.64902],[-82.33082,29.64903],[-82.33081,29.64905],[-82.33081,29.64913],[-82.33079,29.64925],[-82.33077,29.64934],[-82.33077,29.64941],[-82.33074,29.64954],[-82.33073,29.64966],[-82.33073,29.64969],[-82.33073,29.64982],[-82.33073,29.64984],[-82.33073,29.65008],[-82.33073,29.65013],[-82.33072,29.65015],[-82.33071,29.65016],[-82.3307,29.65017],[-82.33068,29.65018],[-82.33065,29.65018]],[[-82.33065,29.65018],[-82.33065,29.65022],[-82.33064,29.65029],[-82.33064,29.65034]],[[-82.32367,29.64023],[-82.32363,29.64022],[-82.32238,29.6399]],[[-82.32382,29.64027],[-82.32373,29.64025],[-82.32367,29.64023]],[[-82.32584,29.64099],[-82.32578,29.64099],[-82.32578,29.64094],[-82.32578,29.64092],[-82.32576,29.6409],[-82.32573,29.64087],[-82.32569,29.64084],[-82.32566,29.6408],[-82.32562,29.64078],[-82.32556,29.64076],[-82.32551,29.64072],[-82.32548,29.6407],[-82.32541,29.64069]],[[-82.32596,29.64099],[-82.32594,29.64099],[-82.32586,29.64099],[-82.32584,29.64099]],[[-82.32626,29.64091],[-82.32622,29.6409],[-82.32618,29.6409],[-82.32614,29.64091],[-82.32611,29.64092],[-82.32607,29.64094],[-82.32604,29.64096],[-82.32604,29.64099],[-82.32596,29.64099]],[[-82.32541,29.64069],[-82.32517,29.64063],[-82.32479,29.64052],[-82.32382,29.64027]],[[-82.33075,29.65388],[-82.33074,29.65391],[-82.33073,29.654],[-82.33073,29.6545],[-82.33073,29.65457],[-82.33071,29.65464],[-82.33072,29.6548],[-82.33071,29.65532],[-82.33072,29.65537],[-82.33073,29.65541],[-82.33074,29.65545],[-82.33075,29.65551],[-82.33075,29.65556],[-82.33074,29.6556]],[[-82.33076,29.65196],[-82.33075,29.65204],[-82.33075,29.65212]],[[-82.33075,29.65212],[-82.33074,29.65213],[-82.33075,29.6522],[-82.33075,29.65231],[-82.33074,29.65235],[-82.33073,29.65238],[-82.33073,29.65241],[-82.33073,29.65264],[-82.33073,29.65268],[-82.33074,29.65271],[-82.33075,29.65275],[-82.33075,29.65279],[-82.33075,29.65339],[-82.33074,29.65376],[-82.33075,29.65379]],[[-82.33075,29.65379],[-82.33075,29.65384],[-82.33075,29.65388]],[[-82.33074,29.6557],[-82.33074,29.65574],[-82.33074,29.65583],[-82.33072,29.65594],[-82.33072,29.65601],[-82.33072,29.65639],[-82.33071,29.65688],[-82.33071,29.65698],[-82.33065,29.65736],[-82.33064,29.65741]],[[-82.33074,29.6556],[-82.33074,29.65565],[-82.33074,29.6557]],[[-82.33064,29.65741],[-82.33063,29.65744]],[[-82.33063,29.65744],[-82.33062,29.65747],[-82.33062,29.65751]],[[-82.33062,29.65751],[-82.33061,29.65753],[-82.33061,29.65756],[-82.33043,29.65794],[-82.33035,29.65807],[-82.33023,29.65824],[-82.32991,29.65864],[-82.32983,29.65872],[-82.3297,29.65887],[-82.32967,29.6589],[-82.32966,29.65892],[-82.32964,29.65892],[-82.32963,29.65893],[-82.32961,29.65893],[-82.32951,29.65893],[-82.32937,29.65893],[-82.32899,29.65893],[-82.32896,29.65893],[-82.32894,29.65894],[-82.32892,29.65894],[-82.3289,29.65896],[-82.32889,29.65897],[-82.32888,29.659],[-82.32888,29.65901],[-82.32888,29.65905],[-82.32888,29.65926],[-82.32888,29.65928],[-82.32888,29.6593],[-82.32889,29.65931],[-82.3289,29.65932],[-82.3289,29.65933]],[[-82.32656,29.66328],[-82.32655,29.66328],[-82.32654,29.66329],[-82.32654,29.66329],[-82.32653,29.6633],[-82.32651,29.66334],[-82.32645,29.66347],[-82.3264,29.6636],[-82.32636,29.6637],[-82.32633,29.66379],[-82.32629,29.66393],[-82.32625,29.66411],[-82.32622,29.6642],[-82.32621,29.66429],[-82.32619,29.66439],[-82.32618,29.66457],[-82.32617,29.66471],[-82.32617,29.66472]],[[-82.32672,29.66299],[-82.32672,29.66301],[-82.3267,29.66301],[-82.3267,29.66301],[-82.32669,29.66301],[-82.32668,29.66302],[-82.32667,29.66302],[-82.32667,29.66303],[-82.32667,29.66303],[-82.32667,29.66304],[-82.32666,29.66305],[-82.32667,29.66328],[-82.32665,29.66328]],[[-82.32788,29.66117],[-82.32787,29.66119],[-82.32686,29.66274],[-82.32682,29.66279],[-82.32674,29.66287],[-82.32673,29.66288],[-82.32672,29.66289],[-82.32672,29.66292]],[[-82.32665,29.66328],[-82.3266,29.66328],[-82.32656,29.66328]],[[-82.32846,29.66028],[-82.32836,29.6604],[-82.32819,29.66064],[-82.32793,29.66103],[-82.32793,29.66106],[-82.32792,29.66107]],[[-82.3289,29.65933],[-82.3289,29.65938],[-82.32891,29.65947],[-82.32891,29.65953]],[[-82.32891,29.65953],[-82.32894,29.65957],[-82.32893,29.65974],[-82.32892,29.65976],[-82.32887,29.65982]],[[-82.32887,29.65982],[-82.32883,29.65988],[-82.32878,29.65994]],[[-82.3279,29.66112],[-82.32788,29.66117]],[[-82.32792,29.66107],[-82.3279,29.66112]],[[-82.32878,29.65994],[-82.32869,29.66005],[-82.32866,29.66008],[-82.32864,29.6601],[-82.32861,29.66012],[-82.32857,29.66015]],[[-82.32857,29.66015],[-82.32853,29.66019],[-82.32851,29.6602],[-82.32846,29.66028]],[[-82.32672,29.66292],[-82.32672,29.66295],[-82.32672,29.66299]],[[-82.32616,29.66484],[-82.32616,29.66486],[-82.32616,29.66512],[-82.32614,29.66549],[-82.3261,29.66574],[-82.32605,29.66596],[-82.32595,29.66628],[-82.32586,29.66653]],[[-82.32617,29.66472],[-82.32617,29.66478],[-82.32616,29.66484]]]}},{"type":"Feature","properties":{"name":"Kermit Sigmon Trail","osm":2117065},"geometry":{"type":"MultiLineString","coordinates":[[[-82.35344,29.63539],[-82.35324,29.63546],[-82.35286,29.63562],[-82.35188,29.63597],[-82.3517,29.63605],[-82.35164,29.63613]],[[-82.35363,29.63534],[-82.35359,29.63535],[-82.35344,29.63539]],[[-82.34586,29.63809],[-82.34584,29.6381],[-82.34579,29.63812],[-82.34577,29.6381],[-82.34574,29.6381],[-82.34571,29.63811],[-82.34558,29.63816],[-82.34541,29.63823],[-82.34525,29.63829],[-82.34506,29.63837],[-82.34494,29.63843],[-82.34484,29.63847],[-82.34473,29.63851],[-82.34462,29.63854],[-82.34457,29.63856],[-82.34449,29.63857],[-82.34441,29.6386],[-82.34432,29.63863],[-82.34423,29.63867],[-82.34417,29.6387],[-82.34409,29.63873],[-82.344,29.63876],[-82.34393,29.63877],[-82.34385,29.63879],[-82.34375,29.63882],[-82.34366,29.63885],[-82.34358,29.63888],[-82.34353,29.63891],[-82.34348,29.63894],[-82.34343,29.63897],[-82.34337,29.63898],[-82.34336,29.63899]],[[-82.34606,29.63802],[-82.34601,29.63804],[-82.34589,29.63808],[-82.34586,29.63809]],[[-82.35158,29.63615],[-82.35147,29.63619],[-82.3514,29.63621]],[[-82.35013,29.63666],[-82.35002,29.63667],[-82.34998,29.63669]],[[-82.35135,29.63623],[-82.35129,29.63622],[-82.35115,29.63622],[-82.35099,29.63626],[-82.35055,29.6364],[-82.35041,29.63648],[-82.35038,29.6365]],[[-82.34998,29.63669],[-82.34995,29.63669],[-82.34992,29.63669],[-82.34982,29.6367],[-82.34967,29.63672],[-82.34952,29.63676],[-82.34938,29.6368],[-82.34923,29.63686],[-82.34911,29.63691],[-82.3488,29.63709],[-82.3487,29.63714],[-82.34859,29.63718],[-82.34855,29.63719],[-82.34847,29.63721],[-82.34833,29.63723],[-82.34812,29.6373],[-82.34797,29.63735],[-82.34761,29.63749],[-82.34747,29.63754],[-82.34723,29.6376],[-82.34694,29.63769],[-82.34678,29.63776],[-82.34669,29.63779],[-82.34662,29.63781],[-82.34645,29.63787],[-82.34626,29.63793],[-82.34613,29.63799],[-82.34609,29.63801],[-82.34606,29.63802]],[[-82.35032,29.63656],[-82.35031,29.63659],[-82.35026,29.63661]],[[-82.35026,29.63661],[-82.35018,29.63664],[-82.35013,29.63666]],[[-82.35034,29.63652],[-82.35033,29.63654],[-82.35032,29.63656]],[[-82.35038,29.6365],[-82.35034,29.63651],[-82.35034,29.63652]],[[-82.3514,29.63621],[-82.35135,29.63623]],[[-82.35164,29.63613],[-82.35158,29.63615]],[[-82.3432,29.63906],[-82.34317,29.63906],[-82.34311,29.63906],[-82.34304,29.63908],[-82.34287,29.63913],[-82.34273,29.63917],[-82.34263,29.63921],[-82.34251,29.63925],[-82.34228,29.63933],[-82.34195,29.63947],[-82.3419,29.63949],[-82.34187,29.63953],[-82.34176,29.63957]],[[-82.34336,29.63899],[-82.34326,29.63903],[-82.3432,29.63906]]]}}]}